{
"type": "FeatureCollection",
"name": "barrios_populares_renabap",
"crs": { "type": "name", "properties": { "name": "urn:ogc:def:crs:OGC:1.3:CRS84" } },
"features": [
{ "type": "Feature", "properties": { "id": 1, "id_renabap": "4488", "nombre_bar": "Cortada 182" }, "geometry": { "type": "Polygon", "coordinates": [ [ [ -60.529183956103687, -31.77579212943267 ], [ -60.530961543985264, -31.775432233852541 ], [ -60.530916023131667, -31.775202795374579 ], [ -60.529097230904362, -31.775506558658812 ], [ -60.528683061546353, -31.775638925407961 ], [ -60.528616840701453, -31.776005637036469 ], [ -60.528788497035343, -31.775981508914231 ], [ -60.529183956103687, -31.77579212943267 ] ] ] } },
{ "type": "Feature", "properties": { "id": 2, "id_renabap": "2677", "nombre_bar": "Illia" }, "geometry": { "type": "Polygon", "coordinates": [ [ [ -60.474771, -31.764554 ], [ -60.474338296535528, -31.764593185219297 ], [ -60.474132436464195, -31.764748625636528 ], [ -60.474014416874496, -31.764247026687674 ], [ -60.474136474087693, -31.76406508157028 ], [ -60.473951372331207, -31.763712458963909 ], [ -60.473758, -31.763719 ], [ -60.472741527220087, -31.764306648325835 ], [ -60.472684829653488, -31.764384014872906 ], [ -60.471313118521891, -31.764583896350914 ], [ -60.471191829653513, -31.764029051824458 ], [ -60.470747592609669, -31.764090659307083 ], [ -60.470900222170904, -31.764632607482554 ], [ -60.470158, -31.764752 ], [ -60.47015743448361, -31.765070951226527 ], [ -60.470256570530992, -31.765176177552167 ], [ -60.471616, -31.766386 ], [ -60.472995, -31.765603 ], [ -60.472726, -31.76487 ], [ -60.473156392517353, -31.764770629561216 ], [ -60.473667, -31.76539 ], [ -60.474871, -31.765265 ], [ -60.474771, -31.764554 ] ] ] } },
{ "type": "Feature", "properties": { "id": 3, "id_renabap": "2670", "nombre_bar": "La Toma Nueva" }, "geometry": { "type": "Polygon", "coordinates": [ [ [ -60.49245067138331, -31.707042705906275 ], [ -60.49338613989066, -31.711437319436907 ], [ -60.496393664308286, -31.710982402881058 ], [ -60.496317241548091, -31.710480426824869 ], [ -60.496136699453466, -31.71019265228766 ], [ -60.496663167288872, -31.710089065629152 ], [ -60.497279500869958, -31.709451312125918 ], [ -60.495296090476664, -31.708012272959586 ], [ -60.494583685303361, -31.70704195300241 ], [ -60.493483671383316, -31.706869705906257 ], [ -60.49245067138331, -31.707042705906275 ] ] ] } },
{ "type": "Feature", "properties": { "id": 4, "id_renabap": "2674", "nombre_bar": "Cuatro de Junio" }, "geometry": { "type": "Polygon", "coordinates": [ [ [ -60.476787552869567, -31.757539645364435 ], [ -60.47820107364501, -31.757010865649093 ], [ -60.478350207063599, -31.756812594702236 ], [ -60.478845773425697, -31.755244259156875 ], [ -60.478781603531807, -31.755068244481507 ], [ -60.479048, -31.753766 ], [ -60.476267, -31.754108 ], [ -60.475683, -31.75252 ], [ -60.474413, -31.753167 ], [ -60.473039202648842, -31.753442599116973 ], [ -60.473347202648853, -31.7549654515451 ], [ -60.476176, -31.754612 ], [ -60.476787552869567, -31.757539645364435 ] ] ] } },
{ "type": "Feature", "properties": { "id": 5, "id_renabap": "2706", "nombre_bar": "Tiro Federal" }, "geometry": { "type": "Polygon", "coordinates": [ [ [ -60.50012, -31.73675 ], [ -60.500795599050612, -31.738378091431311 ], [ -60.501096962603548, -31.738293432186307 ], [ -60.501090290833496, -31.73815114232411 ], [ -60.500729091431339, -31.737288121908435 ], [ -60.500644215195123, -31.73727568043601 ], [ -60.500554462780805, -31.737218773248902 ], [ -60.500476966786856, -31.737100021096804 ], [ -60.500390748990149, -31.736782826314485 ], [ -60.50012, -31.73675 ] ] ] } },
{ "type": "Feature", "properties": { "id": 6, "id_renabap": "2685", "nombre_bar": "San Martín" }, "geometry": { "type": "Polygon", "coordinates": [ [ [ -60.555154471686713, -31.725043267715975 ], [ -60.555147673940645, -31.725063794243315 ], [ -60.555141645573265, -31.725480797470443 ], [ -60.554801797470439, -31.726105746838051 ], [ -60.554687949367597, -31.726403746838038 ], [ -60.554692, -31.726888949367567 ], [ -60.554796696205635, -31.727204645573249 ], [ -60.554747949367552, -31.727205594940898 ], [ -60.554676046849856, -31.72730142941537 ], [ -60.554182012614255, -31.727521895982292 ], [ -60.553671848102795, -31.727752797470444 ], [ -60.55390079747044, -31.728150050632319 ], [ -60.554122, -31.728444253161879 ], [ -60.554777, -31.727959303794258 ], [ -60.556347201513532, -31.727535774906634 ], [ -60.556413923241912, -31.727455425609481 ], [ -60.557292, -31.72731 ], [ -60.558161, -31.726946 ], [ -60.558499, -31.727301 ], [ -60.559294, -31.727167 ], [ -60.559578050632332, -31.726799101264721 ], [ -60.559910303794261, -31.725877949367561 ], [ -60.559965202529483, -31.725045 ], [ -60.559536202529486, -31.724995949367571 ], [ -60.5590425569562, -31.724493 ], [ -60.559714202529491, -31.723615 ], [ -60.559387202529521, -31.723102949367576 ], [ -60.558926696205667, -31.723300848102777 ], [ -60.558986493676123, -31.723709746838015 ], [ -60.558642696205645, -31.72401354430848 ], [ -60.558164, -31.723928848102783 ], [ -60.557419949367571, -31.724125746838045 ], [ -60.557043898735209, -31.724727645573253 ], [ -60.556672151897089, -31.724596746838049 ], [ -60.555696848102798, -31.724348949367556 ], [ -60.555154471686713, -31.725043267715975 ] ] ] } },
{ "type": "Feature", "properties": { "id": 7, "id_renabap": "2707", "nombre_bar": "Cortada 351" }, "geometry": { "type": "Polygon", "coordinates": [ [ [ -60.525685047721979, -31.751214582432254 ], [ -60.523263906801581, -31.75440592962217 ], [ -60.521256916486436, -31.75744098806944 ], [ -60.521372928416909, -31.757714 ], [ -60.521771785250834, -31.757893131235527 ], [ -60.522159785250871, -31.757781214749077 ], [ -60.522589928416906, -31.757546178957561 ], [ -60.522847011930487, -31.757305095443996 ], [ -60.523242083513473, -31.75701215509654 ], [ -60.523682190888053, -31.756276 ], [ -60.524021131235514, -31.756221083513481 ], [ -60.524296155096565, -31.756070190888071 ], [ -60.524464274401616, -31.755492059652489 ], [ -60.524512202818535, -31.755184155096554 ], [ -60.52469707158302, -31.754922143166059 ], [ -60.52492910737454, -31.754652107374522 ], [ -60.524986143166046, -31.754364131235516 ], [ -60.525056035791486, -31.753951119305004 ], [ -60.525466107374491, -31.753409047721988 ], [ -60.526048190888048, -31.75281 ], [ -60.525685047721979, -31.751214582432254 ] ] ] } },
{ "type": "Feature", "properties": { "id": 8, "id_renabap": "2721", "nombre_bar": "El Morro" }, "geometry": { "type": "Polygon", "coordinates": [ [ [ -60.514629618518448, -31.71987791750837 ], [ -60.515928, -31.719739 ], [ -60.516177810025553, -31.719389265964121 ], [ -60.516100474410962, -31.719240896969715 ], [ -60.516307830925697, -31.719206424185167 ], [ -60.516572, -31.718833 ], [ -60.516813, -31.718285 ], [ -60.516737, -31.718155 ], [ -60.516399814478113, -31.718035969023479 ], [ -60.516010752525176, -31.718108835016775 ], [ -60.515824320888122, -31.718261561266541 ], [ -60.51573584545465, -31.718188783501628 ], [ -60.515442, -31.718184 ], [ -60.515063, -31.718228 ], [ -60.515055411472488, -31.718306107735568 ], [ -60.51467878350163, -31.718204268013391 ], [ -60.514203587541935, -31.718275783501635 ], [ -60.514405, -31.718979 ], [ -60.514629618518448, -31.71987791750837 ] ] ] } },
{ "type": "Feature", "properties": { "id": 34, "id_renabap": "2679", "nombre_bar": "El Perejil" }, "geometry": { "type": "Polygon", "coordinates": [ [ [ -60.540018, -31.763778 ], [ -60.541044, -31.767972 ], [ -60.542283, -31.767961 ], [ -60.542617, -31.76654 ], [ -60.544481, -31.765018 ], [ -60.544379, -31.76303 ], [ -60.540018, -31.763778 ] ] ] } },
{ "type": "Feature", "properties": { "id": 9, "id_renabap": "2701", "nombre_bar": "Pancho Ramírez" }, "geometry": { "type": "Polygon", "coordinates": [ [ [ -60.543902, -31.724024 ], [ -60.544109457433223, -31.723921670175962 ], [ -60.544175419119654, -31.723863704951896 ], [ -60.544279484439883, -31.723910269479543 ], [ -60.544632840442915, -31.723653946814249 ], [ -60.544605957524162, -31.723462074423516 ], [ -60.544436531856789, -31.72329927663829 ], [ -60.544321383009667, -31.723009074423523 ], [ -60.54419578725723, -31.722742648938041 ], [ -60.544159840442923, -31.722304 ], [ -60.544354351061884, -31.721983755309434 ], [ -60.544430437604582, -31.721819780399361 ], [ -60.544334170301489, -31.721730350129498 ], [ -60.544099672857101, -31.72168641366974 ], [ -60.544085051798952, -31.721636167922572 ], [ -60.544438893628595, -31.72134808513345 ], [ -60.544382455764357, -31.721263986847152 ], [ -60.542980766019355, -31.720888574514472 ], [ -60.54278527663827, -31.721080946996203 ], [ -60.542683587306385, -31.720972236433319 ], [ -60.542507, -31.721087 ], [ -60.542850404247517, -31.721605138319127 ], [ -60.54322590528367, -31.722120554651671 ], [ -60.543412978762042, -31.722043106371338 ], [ -60.543607, -31.722189 ], [ -60.543819106371338, -31.722367351061845 ], [ -60.543430542566711, -31.722627 ], [ -60.543779468143143, -31.723125595752393 ], [ -60.543734389825204, -31.723304869652249 ], [ -60.543781658359684, -31.723647298654896 ], [ -60.543815923431296, -31.723795663204154 ], [ -60.543902, -31.724024 ] ] ] } },
{ "type": "Feature", "properties": { "id": 10, "id_renabap": "2698", "nombre_bar": "Ciudad Perdida" }, "geometry": { "type": "Polygon", "coordinates": [ [ [ -60.507039161154616, -31.718926161154599 ], [ -60.507126741731881, -31.718810580577284 ], [ -60.507239, -31.718375 ], [ -60.507304064041186, -31.718144161154584 ], [ -60.507499741731912, -31.718055161154584 ], [ -60.507477, -31.717877 ], [ -60.507433875861416, -31.717718382118473 ], [ -60.507271902886565, -31.717336677690689 ], [ -60.506328, -31.717297677690677 ], [ -60.505889838845313, -31.7175318388453 ], [ -60.505872516536066, -31.717724838845328 ], [ -60.505842097113359, -31.718083 ], [ -60.505955516536027, -31.718249741731924 ], [ -60.506321516536069, -31.718589322309249 ], [ -60.506488838845343, -31.718984580577303 ], [ -60.506611, -31.719007322309213 ], [ -60.507039161154616, -31.718926161154599 ] ] ] } },
{ "type": "Feature", "properties": { "id": 11, "id_renabap": "2703", "nombre_bar": "25 de Mayo y Itatí" }, "geometry": { "type": "Polygon", "coordinates": [ [ [ -60.499857758999951, -31.746622740999953 ], [ -60.499785431959637, -31.746556695948108 ], [ -60.499661075017237, -31.746455126965362 ], [ -60.49953349499998, -31.746368654999969 ], [ -60.499229921023023, -31.746131846999958 ], [ -60.499236052218123, -31.745919566982646 ], [ -60.498954845011504, -31.745779975976909 ], [ -60.498425653982672, -31.745840096959611 ], [ -60.498499982959615, -31.746192677011496 ], [ -60.498549598953829, -31.746512019011508 ], [ -60.498910625942337, -31.747182822022985 ], [ -60.499072385988427, -31.748129808034559 ], [ -60.499513072994205, -31.748338103051839 ], [ -60.49970519402877, -31.748210227017246 ], [ -60.49998262501726, -31.748026698046051 ], [ -60.500121804023031, -31.747939292999945 ], [ -60.499789813046064, -31.747126822988431 ], [ -60.499667505069134, -31.746730546057584 ], [ -60.499857758999951, -31.746622740999953 ] ] ] } },
{ "type": "Feature", "properties": { "id": 12, "id_renabap": "2676", "nombre_bar": "Las Rosas" }, "geometry": { "type": "Polygon", "coordinates": [ [ [ -60.462367, -31.756363 ], [ -60.461797, -31.756543 ], [ -60.462364, -31.758768 ], [ -60.463383, -31.758603 ], [ -60.462754, -31.757085 ], [ -60.462367, -31.756363 ] ] ] } },
{ "type": "Feature", "properties": { "id": 13, "id_renabap": "2719", "nombre_bar": "Cantera Yatay" }, "geometry": { "type": "Polygon", "coordinates": [ [ [ -60.506372, -31.729394 ], [ -60.506149, -31.728544 ], [ -60.506321, -31.728418 ], [ -60.506283, -31.727879 ], [ -60.506129, -31.727745 ], [ -60.506431, -31.727037 ], [ -60.506237, -31.726816 ], [ -60.50608, -31.726383 ], [ -60.505674, -31.726472 ], [ -60.505425, -31.726731 ], [ -60.505509, -31.72719 ], [ -60.505425, -31.727431 ], [ -60.505309, -31.727553 ], [ -60.505283, -31.727749 ], [ -60.505115, -31.727932 ], [ -60.505268, -31.728224 ], [ -60.505261, -31.728476 ], [ -60.505355, -31.728855 ], [ -60.505736, -31.729142 ], [ -60.506081, -31.729346 ], [ -60.506372, -31.729394 ] ] ] } },
{ "type": "Feature", "properties": { "id": 14, "id_renabap": "2687", "nombre_bar": "Las Piedras" }, "geometry": { "type": "Polygon", "coordinates": [ [ [ -60.547513746896222, -31.767581072613424 ], [ -60.547217674618516, -31.766425720229442 ], [ -60.546982270468718, -31.765609253190064 ], [ -60.546528746896207, -31.764137873448096 ], [ -60.545732836098004, -31.764245381742235 ], [ -60.546095672196081, -31.766369526969161 ], [ -60.545687763484537, -31.766399053938358 ], [ -60.545412832906109, -31.766721417842195 ], [ -60.545500628914631, -31.767135350820702 ], [ -60.545885091288447, -31.767324020761677 ], [ -60.546289636932705, -31.767419367240596 ], [ -60.546410163901896, -31.76773570954613 ], [ -60.547513746896222, -31.767581072613424 ] ] ] } },
{ "type": "Feature", "properties": { "id": 15, "id_renabap": "2690", "nombre_bar": "Nueva Esperanza" }, "geometry": { "type": "Polygon", "coordinates": [ [ [ -60.49198510505407, -31.78194844747291 ], [ -60.490899465731736, -31.782112178089392 ], [ -60.491392858428192, -31.78451162556232 ], [ -60.492463926964646, -31.784334287642324 ], [ -60.49198510505407, -31.78194844747291 ] ] ] } },
{ "type": "Feature", "properties": { "id": 16, "id_renabap": "2711", "nombre_bar": "Belgrano" }, "geometry": { "type": "Polygon", "coordinates": [ [ [ -60.526116978871812, -31.752675904923166 ], [ -60.526229957743617, -31.752663621486946 ], [ -60.526395103137524, -31.752376144782964 ], [ -60.526531590670011, -31.752143655101733 ], [ -60.52669605282037, -31.751876031692206 ], [ -60.526799711413261, -31.75172331936184 ], [ -60.526927147897148, -31.751672367948874 ], [ -60.527425621486955, -31.751551720948751 ], [ -60.527519797937153, -31.751489258983554 ], [ -60.527569095924072, -31.751452379573497 ], [ -60.527590257923045, -31.751424405820252 ], [ -60.52780804192335, -31.751130913205717 ], [ -60.52792424735896, -31.750968205102602 ], [ -60.528182042256276, -31.75111690492318 ], [ -60.529069, -31.750337 ], [ -60.529637292206225, -31.749749084512644 ], [ -60.530204936615462, -31.749580830974597 ], [ -60.530879305216878, -31.749380347081228 ], [ -60.531279126768993, -31.749234926051344 ], [ -60.531223021128142, -31.749030441897489 ], [ -60.530618063631202, -31.749084742390966 ], [ -60.530280424357514, -31.749163389077026 ], [ -60.529382484153857, -31.749220947179509 ], [ -60.529301, -31.74932 ], [ -60.529170134660767, -31.74962767248816 ], [ -60.529108158461241, -31.749721989435869 ], [ -60.528809441897508, -31.749621431333381 ], [ -60.52857679928232, -31.749716095076703 ], [ -60.527850346820699, -31.75036111620491 ], [ -60.527533452461583, -31.750710473589734 ], [ -60.527685452461597, -31.750813 ], [ -60.527302547538326, -31.75115 ], [ -60.52728448415381, -31.751303526410183 ], [ -60.526729505281978, -31.751494484153838 ], [ -60.526593105640814, -31.751435473589723 ], [ -60.52600853697426, -31.75228450528202 ], [ -60.526116978871812, -31.752675904923166 ] ] ] } },
{ "type": "Feature", "properties": { "id": 17, "id_renabap": "2683", "nombre_bar": "Humito" }, "geometry": { "type": "Polygon", "coordinates": [ [ [ -60.546510169638566, -31.727929895290234 ], [ -60.547657274348296, -31.727230314129141 ], [ -60.54795, -31.727585 ], [ -60.548792, -31.726624 ], [ -60.549023, -31.726542 ], [ -60.549483, -31.726998 ], [ -60.549962, -31.726299 ], [ -60.550182, -31.725595 ], [ -60.550192, -31.725019 ], [ -60.549883, -31.724702 ], [ -60.54976, -31.724261 ], [ -60.549538, -31.723719 ], [ -60.548959, -31.72237 ], [ -60.54831, -31.722483 ], [ -60.547999, -31.722045 ], [ -60.547424, -31.722245 ], [ -60.546628, -31.722457 ], [ -60.546315, -31.722611 ], [ -60.546034, -31.723009 ], [ -60.545535, -31.723371 ], [ -60.546505, -31.723872 ], [ -60.546828, -31.724124 ], [ -60.547078693187188, -31.724713274348293 ], [ -60.547205451303277, -31.725221 ], [ -60.547114209419412, -31.725741483767763 ], [ -60.54688134659358, -31.726146241883839 ], [ -60.546483523548595, -31.7261536931872 ], [ -60.54623241152246, -31.726185653406333 ], [ -60.545245431412866, -31.726453473822517 ], [ -60.545629556013004, -31.726920346593545 ], [ -60.546510169638566, -31.727929895290234 ] ] ] } },
{ "type": "Feature", "properties": { "id": 18, "id_renabap": "2702", "nombre_bar": "Ciudad de Paraná" }, "geometry": { "type": "Polygon", "coordinates": [ [ [ -60.500624281644335, -31.748897366916406 ], [ -60.500784036178956, -31.748769317823303 ], [ -60.500563767448654, -31.748497622732611 ], [ -60.500322695090681, -31.748641829455778 ], [ -60.500202170544128, -31.748597183458163 ], [ -60.500019, -31.748323 ], [ -60.499541708004735, -31.748452157630034 ], [ -60.499436475453429, -31.748898 ], [ -60.499566, -31.749119 ], [ -60.499623, -31.749362 ], [ -60.499851, -31.749302488367508 ], [ -60.500066802225383, -31.749242773753135 ], [ -60.500049834287218, -31.749432666365411 ], [ -60.500108695090653, -31.74946217054412 ], [ -60.500477547811428, -31.749406609818568 ], [ -60.500426337353424, -31.749140708911632 ], [ -60.500243622601225, -31.749229190812532 ], [ -60.500233356565531, -31.749192426360342 ], [ -60.500624281644335, -31.748897366916406 ] ] ] } },
{ "type": "Feature", "properties": { "id": 19, "id_renabap": "2717", "nombre_bar": "La Lonja" }, "geometry": { "type": "Polygon", "coordinates": [ [ [ -60.436794, -31.763196210623271 ], [ -60.438240150445175, -31.763019060178042 ], [ -60.437962451335579, -31.761466812404148 ], [ -60.436478909732855, -31.761340023027401 ], [ -60.436794, -31.763196210623271 ] ] ] } },
{ "type": "Feature", "properties": { "id": 20, "id_renabap": "2686", "nombre_bar": "Capiba" }, "geometry": { "type": "Polygon", "coordinates": [ [ [ -60.502980826481348, -31.795296869407373 ], [ -60.50531384079008, -31.794899579604916 ], [ -60.504294593913585, -31.790055622530918 ], [ -60.503324716076257, -31.790239814298769 ], [ -60.498552, -31.790960173518549 ], [ -60.499069420395024, -31.793291246876397 ], [ -60.502408420395014, -31.792800985691294 ], [ -60.502575039494282, -31.793443485643948 ], [ -60.502778026869542, -31.794557453282785 ], [ -60.502980826481348, -31.795296869407373 ] ] ] } },
{ "type": "Feature", "properties": { "id": 21, "id_renabap": "2720", "nombre_bar": "Puerto Sánchez" }, "geometry": { "type": "Polygon", "coordinates": [ [ [ -60.514399416310958, -31.717388085823142 ], [ -60.512451583689007, -31.716925334756038 ], [ -60.512356, -31.717196 ], [ -60.510618, -31.716855 ], [ -60.510281, -31.716744 ], [ -60.510038, -31.716636 ], [ -60.509909, -31.716971 ], [ -60.510323, -31.71712 ], [ -60.511023, -31.717325 ], [ -60.51156, -31.717387 ], [ -60.512171, -31.717432 ], [ -60.51238, -31.717514 ], [ -60.512569, -31.717641 ], [ -60.512731, -31.717867 ], [ -60.513195, -31.717882 ], [ -60.513574, -31.717938 ], [ -60.514344, -31.717929 ], [ -60.515116, -31.7179 ], [ -60.515274, -31.717824 ], [ -60.515695, -31.717831 ], [ -60.515859, -31.717867 ], [ -60.515922, -31.717775 ], [ -60.514399416310958, -31.717388085823142 ] ] ] } },
{ "type": "Feature", "properties": { "id": 22, "id_renabap": "2710", "nombre_bar": "La Delfina" }, "geometry": { "type": "Polygon", "coordinates": [ [ [ -60.526217342435743, -31.753034183974425 ], [ -60.526353708829291, -31.752878027047373 ], [ -60.526343796340889, -31.752859065642916 ], [ -60.526903187655186, -31.752334700071472 ], [ -60.527252831864004, -31.75201676238132 ], [ -60.528165095076737, -31.751123788718242 ], [ -60.527925621486943, -31.750982873230893 ], [ -60.527598742076883, -31.751439226230733 ], [ -60.527548774616513, -31.751506569727052 ], [ -60.527429205102585, -31.751563773769128 ], [ -60.527351209265568, -31.751602602887015 ], [ -60.527181236794867, -31.751637205102615 ], [ -60.52699558346562, -31.751672150751819 ], [ -60.526857, -31.751721 ], [ -60.526778084512671, -31.751768120589876 ], [ -60.526734477845771, -31.751826755928626 ], [ -60.526655768739872, -31.751953702887949 ], [ -60.526566021128133, -31.752125 ], [ -60.526389589794682, -31.752450894359065 ], [ -60.526208923419276, -31.752742452901479 ], [ -60.526062799282293, -31.75286877376913 ], [ -60.526103703854993, -31.752999809513959 ], [ -60.526217342435743, -31.753034183974425 ] ] ] } },
{ "type": "Feature", "properties": { "id": 23, "id_renabap": "2705", "nombre_bar": "San Cayetano" }, "geometry": { "type": "Polygon", "coordinates": [ [ [ -60.500502926194855, -31.735405041002778 ], [ -60.501007057403932, -31.73532002460167 ], [ -60.501001139409588, -31.734995024601641 ], [ -60.501380335771763, -31.734383657231529 ], [ -60.501488303420956, -31.734298372891157 ], [ -60.501602852389738, -31.734198328022675 ], [ -60.501768066978478, -31.733888316975147 ], [ -60.501696517936111, -31.733275912034081 ], [ -60.501708098406802, -31.73323141002837 ], [ -60.502539492034032, -31.733099754452198 ], [ -60.502216131209067, -31.731472901593147 ], [ -60.501471885192032, -31.731562868790842 ], [ -60.500836868790891, -31.732747950796561 ], [ -60.500771909793713, -31.734414975398227 ], [ -60.500502926194855, -31.735405041002778 ] ] ] } },
{ "type": "Feature", "properties": { "id": 24, "id_renabap": "2695", "nombre_bar": "Veinte de Junio" }, "geometry": { "type": "Polygon", "coordinates": [ [ [ -60.480153373321251, -31.768776599819009 ], [ -60.479357170016584, -31.768886187406999 ], [ -60.478182934932946, -31.769030185981077 ], [ -60.477584760072332, -31.769051479855172 ], [ -60.477583266787292, -31.769310013429823 ], [ -60.47839386978297, -31.769294932531924 ], [ -60.479300248052951, -31.769223026825905 ], [ -60.480035119963752, -31.76917223992756 ], [ -60.480153373321251, -31.768776599819009 ] ] ] } },
{ "type": "Feature", "properties": { "id": 25, "id_renabap": "2694", "nombre_bar": "J Newbery Este" }, "geometry": { "type": "Polygon", "coordinates": [ [ [ -60.476538558145435, -31.778331024352713 ], [ -60.476515391041659, -31.778209281999978 ], [ -60.476426160999949, -31.777747504947815 ], [ -60.47571083746007, -31.777859293354688 ], [ -60.475298762989546, -31.777749405655705 ], [ -60.475100643072949, -31.776749018010388 ], [ -60.477149613072982, -31.776326664916489 ], [ -60.477031479198146, -31.775466426937388 ], [ -60.476346401875887, -31.77565738879359 ], [ -60.475135928302464, -31.776092266292046 ], [ -60.474989572213616, -31.776295526428992 ], [ -60.475046726979073, -31.77668403722943 ], [ -60.474776375177299, -31.776784573302464 ], [ -60.47471801654526, -31.777065831817975 ], [ -60.473941684090946, -31.777171688817969 ], [ -60.473254858363639, -31.776508191908949 ], [ -60.472040673250703, -31.775888167528134 ], [ -60.471826502481157, -31.775793010273571 ], [ -60.472711411999967, -31.779861314999948 ], [ -60.474175284999944, -31.77966276199993 ], [ -60.473989861622563, -31.77866500831124 ], [ -60.475432518373538, -31.77852169760838 ], [ -60.476538558145435, -31.778331024352713 ] ] ] } },
{ "type": "Feature", "properties": { "id": 26, "id_renabap": "2684", "nombre_bar": "Veinticinco de Junio" }, "geometry": { "type": "Polygon", "coordinates": [ [ [ -60.543533598007826, -31.727315205976307 ], [ -60.543871173166991, -31.727032606750289 ], [ -60.544040598007854, -31.726921205976335 ], [ -60.544069707991397, -31.726840667351553 ], [ -60.544644710956597, -31.726435392031505 ], [ -60.545469982312248, -31.726287511836286 ], [ -60.545788485530416, -31.726070478703626 ], [ -60.546033700996048, -31.726170710956609 ], [ -60.546222700996026, -31.726032411952694 ], [ -60.54675250498029, -31.725384308964514 ], [ -60.546731803984208, -31.724544401992073 ], [ -60.546402205976342, -31.723992 ], [ -60.545143906972406, -31.723515 ], [ -60.544698537090774, -31.724093118184836 ], [ -60.544706598007821, -31.724194205976342 ], [ -60.545613495019694, -31.725458803984186 ], [ -60.545314664012814, -31.725594501582389 ], [ -60.545256232568939, -31.725581700995996 ], [ -60.544694644521641, -31.725854149501934 ], [ -60.544547377540603, -31.725915584057024 ], [ -60.544496524536385, -31.725910891435561 ], [ -60.544321486493075, -31.725990039009925 ], [ -60.544259116719331, -31.725962615402437 ], [ -60.544109310168096, -31.726009880726139 ], [ -60.544112942277174, -31.726063183886559 ], [ -60.543673448505849, -31.726194196015726 ], [ -60.543607887051166, -31.726514 ], [ -60.543172093027579, -31.726680093027525 ], [ -60.543533598007826, -31.727315205976307 ] ] ] } },
{ "type": "Feature", "properties": { "id": 27, "id_renabap": "2716", "nombre_bar": "Mercantil" }, "geometry": { "type": "Polygon", "coordinates": [ [ [ -60.544390598742794, -31.747774025490887 ], [ -60.544388263036105, -31.747836948714919 ], [ -60.544938949938356, -31.748385 ], [ -60.545193, -31.748519 ], [ -60.545896137699089, -31.748294028304034 ], [ -60.545909802411444, -31.748226014456502 ], [ -60.545672920620326, -31.747430650068296 ], [ -60.545615397017485, -31.747377784635479 ], [ -60.544979424907567, -31.747498200246376 ], [ -60.544390598742794, -31.747774025490887 ] ] ] } },
{ "type": "Feature", "properties": { "id": 28, "id_renabap": "2693", "nombre_bar": "Paraná Calle Cavallo" }, "geometry": { "type": "Polygon", "coordinates": [ [ [ -60.489326653160553, -31.775117007279736 ], [ -60.489233708004825, -31.774731029440368 ], [ -60.487553974678761, -31.775029802600937 ], [ -60.487527586119157, -31.774859763880713 ], [ -60.487168420880764, -31.774911387720177 ], [ -60.487182217321134, -31.77513682572015 ], [ -60.487240116041306, -31.775512587279767 ], [ -60.489229970999986, -31.775144292398995 ], [ -60.489326653160553, -31.775117007279736 ] ] ] } },
{ "type": "Feature", "properties": { "id": 29, "id_renabap": "2669", "nombre_bar": "Los Arenales" }, "geometry": { "type": "Polygon", "coordinates": [ [ [ -60.496601773717359, -31.708938290290703 ], [ -60.497045, -31.709252 ], [ -60.497543, -31.709607 ], [ -60.499038545412681, -31.710195209312037 ], [ -60.498951387376515, -31.709570676623535 ], [ -60.498422272706328, -31.707063466357958 ], [ -60.496808, -31.705985301602304 ], [ -60.495779412597024, -31.705493759701593 ], [ -60.495514, -31.706133 ], [ -60.495911, -31.706363 ], [ -60.495591020995043, -31.706746164595256 ], [ -60.495238216796032, -31.706918815617424 ], [ -60.495263643478779, -31.707331527154516 ], [ -60.495299988589174, -31.707907306050153 ], [ -60.495809090836318, -31.708340942390912 ], [ -60.496267041903003, -31.708671644380455 ], [ -60.49658388014101, -31.708923067706685 ], [ -60.496601773717359, -31.708938290290703 ] ] ] } },
{ "type": "Feature", "properties": { "id": 30, "id_renabap": "2697", "nombre_bar": "Villa Almendral" }, "geometry": { "type": "Polygon", "coordinates": [ [ [ -60.507783246689343, -31.721573337684426 ], [ -60.508787, -31.72139 ], [ -60.507704818198974, -31.720701 ], [ -60.507692636397998, -31.72013074025725 ], [ -60.507695558456277, -31.719654298713522 ], [ -60.507776, -31.718661 ], [ -60.507686, -31.71823 ], [ -60.507620077941695, -31.718054181800948 ], [ -60.507329220771837, -31.718145740257263 ], [ -60.507103740257243, -31.718952220771811 ], [ -60.506701597427138, -31.719005480514522 ], [ -60.506541220771837, -31.719185623344671 ], [ -60.506540662315523, -31.719605740257215 ], [ -60.506473181800921, -31.719951519485381 ], [ -60.506712, -31.720245 ], [ -60.507061480514508, -31.72071 ], [ -60.507449441543692, -31.72114303897084 ], [ -60.507745588533936, -31.721481893661249 ], [ -60.507783246689343, -31.721573337684426 ] ] ] } },
{ "type": "Feature", "properties": { "id": 31, "id_renabap": "2704", "nombre_bar": "La Milagrosa" }, "geometry": { "type": "Polygon", "coordinates": [ [ [ -60.494163, -31.746775 ], [ -60.493858, -31.746775 ], [ -60.493312, -31.747327 ], [ -60.492946, -31.747616 ], [ -60.492135, -31.748238 ], [ -60.492329, -31.748693 ], [ -60.492103, -31.749071 ], [ -60.491678, -31.749616 ], [ -60.491487, -31.750353 ], [ -60.491077, -31.751881 ], [ -60.490771, -31.752465 ], [ -60.490533, -31.753117 ], [ -60.490311, -31.753643 ], [ -60.490385, -31.75391 ], [ -60.490104, -31.754376 ], [ -60.490147, -31.754956 ], [ -60.490896, -31.754847 ], [ -60.490668, -31.753366 ], [ -60.490887, -31.753322 ], [ -60.490842, -31.752713 ], [ -60.491022, -31.752628 ], [ -60.491006, -31.75221 ], [ -60.491412, -31.751935 ], [ -60.491999, -31.750187 ], [ -60.492611, -31.750024 ], [ -60.492669, -31.749166 ], [ -60.493112, -31.749094 ], [ -60.493961, -31.748122 ], [ -60.494163, -31.746775 ] ] ] } },
{ "type": "Feature", "properties": { "id": 32, "id_renabap": "2708", "nombre_bar": "Gaucho Rivero" }, "geometry": { "type": "Polygon", "coordinates": [ [ [ -60.550960561309743, -31.742569754760744 ], [ -60.547746474105843, -31.743062773803839 ], [ -60.54823638690192, -31.745471613098005 ], [ -60.552498681258861, -31.744863806548977 ], [ -60.552217822921577, -31.743370861007744 ], [ -60.551772579417303, -31.743293924283009 ], [ -60.550960561309743, -31.742569754760744 ] ] ] } },
{ "type": "Feature", "properties": { "id": 33, "id_renabap": "2678", "nombre_bar": "Bajada Grande" }, "geometry": { "type": "Polygon", "coordinates": [ [ [ -60.562064, -31.712688 ], [ -60.558689, -31.713798 ], [ -60.558951, -31.715055 ], [ -60.55901, -31.715365 ], [ -60.560363, -31.714954 ], [ -60.562801, -31.71414 ], [ -60.56298, -31.714291 ], [ -60.563311, -31.714546 ], [ -60.563748, -31.714509 ], [ -60.565096, -31.714344 ], [ -60.565265, -31.71515 ], [ -60.564576, -31.715321 ], [ -60.564647, -31.715504 ], [ -60.565638, -31.715489 ], [ -60.566542, -31.715168 ], [ -60.567126, -31.715274 ], [ -60.567635, -31.715316 ], [ -60.567843, -31.715222 ], [ -60.568032, -31.71494 ], [ -60.5675, -31.71458 ], [ -60.56794, -31.714429 ], [ -60.56833, -31.714288 ], [ -60.568688, -31.714036 ], [ -60.569469, -31.713655 ], [ -60.569835, -31.713353 ], [ -60.570294, -31.713584 ], [ -60.570894, -31.71417 ], [ -60.57115, -31.714601 ], [ -60.571407, -31.714775 ], [ -60.571661, -31.714676 ], [ -60.5716, -31.714399 ], [ -60.571639, -31.714131 ], [ -60.571553, -31.71394 ], [ -60.571807, -31.713471 ], [ -60.572121, -31.71305 ], [ -60.57276, -31.713105 ], [ -60.573316, -31.713137 ], [ -60.573664, -31.713132 ], [ -60.573902, -31.713598 ], [ -60.574461, -31.713592 ], [ -60.576005, -31.717048 ], [ -60.576306, -31.716806 ], [ -60.576293, -31.71659 ], [ -60.57624, -31.71638 ], [ -60.576393, -31.716204 ], [ -60.576346, -31.715714 ], [ -60.57632, -31.715374 ], [ -60.575954, -31.713942 ], [ -60.575211, -31.712069 ], [ -60.574751, -31.711738 ], [ -60.574211, -31.711697 ], [ -60.573745, -31.711588 ], [ -60.572894, -31.710826 ], [ -60.572529, -31.71072 ], [ -60.571296, -31.711129 ], [ -60.570554, -31.710935 ], [ -60.569765, -31.710491 ], [ -60.569047, -31.710588 ], [ -60.569366, -31.711484 ], [ -60.568905, -31.711842 ], [ -60.568079, -31.711179 ], [ -60.567296, -31.711397 ], [ -60.56694, -31.711056 ], [ -60.565704, -31.711296 ], [ -60.565517, -31.711069 ], [ -60.565543, -31.710684 ], [ -60.56465, -31.71067 ], [ -60.564681, -31.710839 ], [ -60.563857, -31.710852 ], [ -60.563406, -31.710871 ], [ -60.563181, -31.711012 ], [ -60.563274, -31.711323 ], [ -60.562752, -31.71148 ], [ -60.562642, -31.711583 ], [ -60.56296, -31.712141 ], [ -60.56208, -31.712531 ], [ -60.562064, -31.712688 ] ] ] } },
{ "type": "Feature", "properties": { "id": 35, "id_renabap": "2712", "nombre_bar": "Barranquitas" }, "geometry": { "type": "Polygon", "coordinates": [ [ [ -60.556447704528907, -31.733946949202128 ], [ -60.556754683929384, -31.733957806549004 ], [ -60.556882525894089, -31.733385719345026 ], [ -60.557576561309752, -31.733022525894061 ], [ -60.558026158035247, -31.733131964584295 ], [ -60.558030351486202, -31.733377438690134 ], [ -60.558514192589882, -31.733720493071448 ], [ -60.558890468456781, -31.733649758981159 ], [ -60.559415453500407, -31.731868350143984 ], [ -60.557821084533416, -31.731570561309749 ], [ -60.55704963075943, -31.731688654868908 ], [ -60.556442559182969, -31.731810848350371 ], [ -60.556491642033606, -31.732977910040077 ], [ -60.556447704528907, -31.733946949202128 ] ] ] } },
{ "type": "Feature", "properties": { "id": 36, "id_renabap": "2700", "nombre_bar": "Villa María" }, "geometry": { "type": "Polygon", "coordinates": [ [ [ -60.546797213935356, -31.729563438525279 ], [ -60.546785718176288, -31.729488829738774 ], [ -60.546747731201009, -31.729416760122213 ], [ -60.546621337003508, -31.729308895082475 ], [ -60.546497686485189, -31.72917525836872 ], [ -60.546403892971334, -31.72914897153272 ], [ -60.545761647133489, -31.728379775410055 ], [ -60.546118472750784, -31.728070034819204 ], [ -60.546279142932896, -31.728013331724988 ], [ -60.546447898359503, -31.727973449179714 ], [ -60.545186469542948, -31.726408354178812 ], [ -60.54487229948991, -31.726460764713686 ], [ -60.54453465246069, -31.726651764755641 ], [ -60.544355652460681, -31.726839722137797 ], [ -60.544463561474657, -31.727385775410063 ], [ -60.544589031354725, -31.727625868034249 ], [ -60.544633235244277, -31.72782622458984 ], [ -60.544696832051912, -31.728194225996781 ], [ -60.544593213935414, -31.728234877050575 ], [ -60.544757438525245, -31.728628449179709 ], [ -60.544784882377812, -31.729036112294903 ], [ -60.544880438525269, -31.729311 ], [ -60.544745663115123, -31.729621112294904 ], [ -60.54509687705059, -31.72983 ], [ -60.545777438525285, -31.729676673769582 ], [ -60.546116373138759, -31.729661130485535 ], [ -60.54656130753726, -31.72961990751925 ], [ -60.546797213935356, -31.729563438525279 ] ] ] } },
{ "type": "Feature", "properties": { "id": 37, "id_renabap": "2723", "nombre_bar": "Macarone" }, "geometry": { "type": "Polygon", "coordinates": [ [ [ -60.517557, -31.725562 ], [ -60.520816, -31.724337 ], [ -60.520098, -31.722686 ], [ -60.520581, -31.721563 ], [ -60.520256038755441, -31.720899640829636 ], [ -60.519216801528373, -31.721289242903911 ], [ -60.519170715118442, -31.721255388354685 ], [ -60.519005197411509, -31.721280884092046 ], [ -60.518932034176508, -31.721385852652535 ], [ -60.518676619686914, -31.721444382537069 ], [ -60.51863974371566, -31.721502176991979 ], [ -60.517619399726641, -31.721872444315885 ], [ -60.517513390674125, -31.721858805830426 ], [ -60.517151469856749, -31.721983417779427 ], [ -60.517261702534924, -31.722126312314789 ], [ -60.517120935152491, -31.722186105835295 ], [ -60.517068531113509, -31.722147061844908 ], [ -60.516968508585968, -31.722185998471495 ], [ -60.51697572002918, -31.72222877175243 ], [ -60.515960624290365, -31.722646712663735 ], [ -60.517557, -31.725562 ] ] ] } },
{ "type": "Feature", "properties": { "id": 38, "id_renabap": "2673", "nombre_bar": "San José" }, "geometry": { "type": "Polygon", "coordinates": [ [ [ -60.466354, -31.765899 ], [ -60.463945, -31.766151 ], [ -60.463699, -31.765484 ], [ -60.462195, -31.765728 ], [ -60.462408, -31.76641 ], [ -60.46378, -31.766241 ], [ -60.464247, -31.767863 ], [ -60.464938, -31.767155 ], [ -60.464942, -31.766566 ], [ -60.466466, -31.766375 ], [ -60.466354, -31.765899 ] ] ] } },
{ "type": "Feature", "properties": { "id": 39, "id_renabap": "2713", "nombre_bar": "Antártida" }, "geometry": { "type": "Polygon", "coordinates": [ [ [ -60.553106198951291, -31.729192851533725 ], [ -60.55488364851373, -31.732222613098035 ], [ -60.556424484159642, -31.731770154189338 ], [ -60.556773392333454, -31.731699161873337 ], [ -60.557817370666427, -31.731543735073338 ], [ -60.5589121819254, -31.73141004392745 ], [ -60.558604841964687, -31.730651509521508 ], [ -60.55745421778375, -31.730566616233695 ], [ -60.557092178900952, -31.730184381028373 ], [ -60.556628390842363, -31.730160783636329 ], [ -60.555351613098026, -31.728616790176389 ], [ -60.555014273251579, -31.728504350234296 ], [ -60.554367350978481, -31.72845316518486 ], [ -60.554453929168588, -31.728644771133286 ], [ -60.553840748614633, -31.728906754419434 ], [ -60.553106198951291, -31.729192851533725 ] ] ] } },
{ "type": "Feature", "properties": { "id": 40, "id_renabap": "2680", "nombre_bar": "Puerto Viejo" }, "geometry": { "type": "Polygon", "coordinates": [ [ [ -60.5422, -31.71847 ], [ -60.543112, -31.717662 ], [ -60.543073, -31.715373 ], [ -60.542639, -31.714771 ], [ -60.542303, -31.714286 ], [ -60.544637, -31.71257 ], [ -60.54457, -31.712325 ], [ -60.543292, -31.713322 ], [ -60.543191, -31.713105 ], [ -60.542664, -31.713539 ], [ -60.541802, -31.714267 ], [ -60.540532, -31.715798 ], [ -60.540917, -31.71633 ], [ -60.541557, -31.717097 ], [ -60.541624, -31.717695 ], [ -60.5422, -31.71847 ] ] ] } },
{ "type": "Feature", "properties": { "id": 41, "id_renabap": "2688", "nombre_bar": "Radar" }, "geometry": { "type": "Polygon", "coordinates": [ [ [ -60.49278845960017, -31.793842642583382 ], [ -60.492605471323252, -31.79279456746373 ], [ -60.492766256701742, -31.792357221052988 ], [ -60.49265881182599, -31.791853840614795 ], [ -60.487186014750193, -31.792685602149991 ], [ -60.487635349981836, -31.79512826355171 ], [ -60.489944169999944, -31.794775124300042 ], [ -60.490224850795173, -31.794250202190508 ], [ -60.490473955417563, -31.794183788416568 ], [ -60.49278845960017, -31.793842642583382 ] ] ] } },
{ "type": "Feature", "properties": { "id": 42, "id_renabap": "2715", "nombre_bar": "Santa Lucía" }, "geometry": { "type": "Polygon", "coordinates": [ [ [ -60.510546201586493, -31.773461100793256 ], [ -60.512747, -31.773121023215086 ], [ -60.512614573611692, -31.772550248016767 ], [ -60.513817472818467, -31.771745 ], [ -60.514545271231881, -31.770638038789048 ], [ -60.514017209227681, -31.770347976784812 ], [ -60.514223, -31.770022 ], [ -60.515602519547713, -31.767694723952566 ], [ -60.51598193388358, -31.767480058183551 ], [ -60.515870035746858, -31.766865602086025 ], [ -60.516398964918736, -31.766175084735167 ], [ -60.516553798413412, -31.766048713194067 ], [ -60.516601162797464, -31.765822755803757 ], [ -60.516945406993649, -31.765609062004152 ], [ -60.516842996179399, -31.765150693799519 ], [ -60.517656550396616, -31.764995368204598 ], [ -60.517698899206678, -31.764701693799513 ], [ -60.517852306200375, -31.76466630620035 ], [ -60.518017736409185, -31.764325531002068 ], [ -60.517621674405, -31.763921263590724 ], [ -60.517155856597, -31.764970581252918 ], [ -60.516838242553824, -31.765069810712856 ], [ -60.516728749264772, -31.764690755222404 ], [ -60.514980244734801, -31.766098793595063 ], [ -60.514207434029366, -31.766774674405024 ], [ -60.514077945636956, -31.767833054362971 ], [ -60.510546201586493, -31.773461100793256 ] ] ] } },
{ "type": "Feature", "properties": { "id": 43, "id_renabap": "2718", "nombre_bar": "San Pedro" }, "geometry": { "type": "Polygon", "coordinates": [ [ [ -60.415703535365807, -31.773521922560942 ], [ -60.422859521951153, -31.77238630975604 ], [ -60.422608641283702, -31.771163996249367 ], [ -60.416738213606436, -31.771973138478977 ], [ -60.415514670929952, -31.772132714986789 ], [ -60.415703535365807, -31.773521922560942 ] ] ] } },
{ "type": "Feature", "properties": { "id": 44, "id_renabap": "2714", "nombre_bar": "El Sol" }, "geometry": { "type": "Polygon", "coordinates": [ [ [ -60.539696885548814, -31.73802 ], [ -60.540472, -31.738749 ], [ -60.541121713872158, -31.738418114451083 ], [ -60.540893713872165, -31.738055799710477 ], [ -60.541538912714316, -31.73772825751497 ], [ -60.541870742484932, -31.737142370518786 ], [ -60.541098685259364, -31.736220885548828 ], [ -60.541654200289429, -31.735849 ], [ -60.54132, -31.735356771097734 ], [ -60.541023856936086, -31.735814828323299 ], [ -60.540388799710513, -31.735947742484932 ], [ -60.540410742484923, -31.736588 ], [ -60.540602088732911, -31.736730424849728 ], [ -60.540192656646596, -31.737531114451102 ], [ -60.539696885548814, -31.73802 ] ] ] } },
{ "type": "Feature", "properties": { "id": 45, "id_renabap": "2699", "nombre_bar": "Sachetti" }, "geometry": { "type": "Polygon", "coordinates": [ [ [ -60.499983898497064, -31.731911873121334 ], [ -60.501210670115547, -31.73171587312132 ], [ -60.501290228381471, -31.731213076127112 ], [ -60.501310941501735, -31.731043660691675 ], [ -60.50118892387281, -31.73084010150286 ], [ -60.500977746242711, -31.730361279132932 ], [ -60.500776401254299, -31.730302228927076 ], [ -60.500566619364101, -31.730331771618431 ], [ -60.500103781965151, -31.729964340231131 ], [ -60.499855568612645, -31.729263177630006 ], [ -60.499366177630016, -31.729347 ], [ -60.499625081233589, -31.730525002205859 ], [ -60.499983898497064, -31.731911873121334 ] ] ] } },
{ "type": "Feature", "properties": { "id": 46, "id_renabap": "2682", "nombre_bar": "Bajo España" }, "geometry": { "type": "Polygon", "coordinates": [ [ [ -60.544635630791589, -31.729558571576899 ], [ -60.544742976314097, -31.729259154996821 ], [ -60.544672821317242, -31.728909797631353 ], [ -60.544655, -31.728592 ], [ -60.544545583419875, -31.728243607105693 ], [ -60.544516773945524, -31.727887809474318 ], [ -60.544428976314094, -31.72744420236857 ], [ -60.544286988156998, -31.727004821317216 ], [ -60.543876813082072, -31.7270805168232 ], [ -60.543680214211456, -31.727434797631378 ], [ -60.543624214211484, -31.727836595262755 ], [ -60.54378441658006, -31.72811719052563 ], [ -60.543764, -31.728324 ], [ -60.543672583419863, -31.728419392894185 ], [ -60.543404797631375, -31.728723011842888 ], [ -60.542870607105726, -31.728921 ], [ -60.543231809474293, -31.729051190525603 ], [ -60.544352214211472, -31.729457345522466 ], [ -60.544635630791589, -31.729558571576899 ] ] ] } },
{ "type": "Feature", "properties": { "id": 47, "id_renabap": "4489", "nombre_bar": "Los Berros" }, "geometry": { "type": "Polygon", "coordinates": [ [ [ -60.533122384252891, -31.785504789647629 ], [ -60.538795341802206, -31.784497387975069 ], [ -60.5386745343841, -31.783973282907809 ], [ -60.537014670622341, -31.784200539693931 ], [ -60.536732517577732, -31.784044789914532 ], [ -60.536480373771909, -31.784039581999181 ], [ -60.535817830268748, -31.784160213452779 ], [ -60.532949392373752, -31.784776496991942 ], [ -60.533122384252891, -31.785504789647629 ] ] ] } },
{ "type": "Feature", "properties": { "id": 48, "id_renabap": "2671", "nombre_bar": "Camino Costero" }, "geometry": { "type": "Polygon", "coordinates": [ [ [ -60.49283087589982, -31.705019163318774 ], [ -60.490256264370743, -31.703814603276385 ], [ -60.49023998664174, -31.704102177688426 ], [ -60.492608411504605, -31.705287747646462 ], [ -60.49283087589982, -31.705019163318774 ] ] ] } },
{ "type": "Feature", "properties": { "id": 49, "id_renabap": "2692", "nombre_bar": "El Triángulo" }, "geometry": { "type": "Polygon", "coordinates": [ [ [ -60.496434399706025, -31.772570083785574 ], [ -60.496655741745776, -31.772303851650818 ], [ -60.49562749926605, -31.771849912796487 ], [ -60.495550156047855, -31.771800749963045 ], [ -60.495485962244956, -31.771703836099142 ], [ -60.495339064563495, -31.77148549038893 ], [ -60.494579638738081, -31.771587980777849 ], [ -60.494445096842156, -31.771572739453337 ], [ -60.49432296771073, -31.771291719446186 ], [ -60.493627, -31.771012870872884 ], [ -60.492538425825366, -31.770558277476187 ], [ -60.492442851650779, -31.770810254805479 ], [ -60.492704317461985, -31.770956707028262 ], [ -60.493306369158127, -31.771278552131374 ], [ -60.4940981633086, -31.771679260051027 ], [ -60.494430080505737, -31.771674255579612 ], [ -60.494557642426095, -31.771718373778263 ], [ -60.494568101740356, -31.771917084555341 ], [ -60.494833851650817, -31.772051574174522 ], [ -60.495708064563473, -31.77242772252368 ], [ -60.496434399706025, -31.772570083785574 ] ] ] } },
{ "type": "Feature", "properties": { "id": 50, "id_renabap": "2675", "nombre_bar": "El Trébol" }, "geometry": { "type": "Polygon", "coordinates": [ [ [ -60.461889, -31.756423 ], [ -60.462534, -31.75629 ], [ -60.461854, -31.754186 ], [ -60.461123, -31.753123 ], [ -60.460672, -31.753341 ], [ -60.461572, -31.754488 ], [ -60.461974, -31.755476 ], [ -60.461712, -31.755561 ], [ -60.461889, -31.756423 ] ] ] } },
{ "type": "Feature", "properties": { "id": 51, "id_renabap": "2691", "nombre_bar": "Arévalo" }, "geometry": { "type": "Polygon", "coordinates": [ [ [ -60.49042549010413, -31.774333225260389 ], [ -60.491003735156241, -31.774324490104153 ], [ -60.49084477473955, -31.773939470312449 ], [ -60.490317, -31.774002 ], [ -60.49042549010413, -31.774333225260389 ] ] ] } },
{ "type": "Feature", "properties": { "id": 52, "id_renabap": "2672", "nombre_bar": "Estación Parera" }, "geometry": { "type": "Polygon", "coordinates": [ [ [ -60.460110962890582, -31.751654535889838 ], [ -60.458941407226511, -31.751782071918402 ], [ -60.457935451773963, -31.751526958041197 ], [ -60.457184332968822, -31.751399665818177 ], [ -60.456507132226527, -31.751388058981835 ], [ -60.454901755468711, -31.751526836955577 ], [ -60.454961510937451, -31.751827189534808 ], [ -60.44920379257811, -31.752464882968098 ], [ -60.449355659374937, -31.753354456149911 ], [ -60.455084174121055, -31.752442169871404 ], [ -60.455190377734311, -31.753006718497684 ], [ -60.458586371776462, -31.752418935124297 ], [ -60.458980385351509, -31.752409117130668 ], [ -60.460413, -31.753083 ], [ -60.460110962890582, -31.751654535889838 ] ] ] } },
{ "type": "Feature", "properties": { "id": 53, "id_renabap": "2722", "nombre_bar": "Hijos de María" }, "geometry": { "type": "Polygon", "coordinates": [ [ [ -60.492096, -31.748251 ], [ -60.491415525109119, -31.748703262554525 ], [ -60.491078, -31.748675 ], [ -60.489636947489053, -31.748310840174611 ], [ -60.489650641740162, -31.748476101522616 ], [ -60.490089, -31.751271 ], [ -60.489338, -31.7514 ], [ -60.489462367576373, -31.751985894978112 ], [ -60.490752737445384, -31.752110947489047 ], [ -60.491007, -31.75138 ], [ -60.491128527401699, -31.75063673744538 ], [ -60.491500684934458, -31.750174 ], [ -60.491498424672464, -31.74962042237987 ], [ -60.491916536571999, -31.748877353820905 ], [ -60.492227, -31.748525 ], [ -60.492096, -31.748251 ] ] ] } },
{ "type": "Feature", "properties": { "id": 54, "id_renabap": "2689", "nombre_bar": "Juan Pablo 2" }, "geometry": { "type": "Polygon", "coordinates": [ [ [ -60.496953375329483, -31.791026622034082 ], [ -60.498507125988581, -31.790757627306732 ], [ -60.497564748022718, -31.786122251977208 ], [ -60.495998624670406, -31.786346881920288 ], [ -60.496762926719171, -31.790252557961626 ], [ -60.496953375329483, -31.791026622034082 ] ] ] } },
{ "type": "Feature", "properties": { "id": 55, "id_renabap": "2696", "nombre_bar": "Los Hornos" }, "geometry": { "type": "Polygon", "coordinates": [ [ [ -60.480784907100819, -31.773223843517933 ], [ -60.480480657272949, -31.773188022486252 ], [ -60.480456330257958, -31.77297633268552 ], [ -60.480062278435646, -31.773058911850235 ], [ -60.479993501237544, -31.772929687035838 ], [ -60.479693521312974, -31.772976954133959 ], [ -60.479647178063566, -31.77315411807184 ], [ -60.47928385276181, -31.773207074453946 ], [ -60.479267267309673, -31.773068299869884 ], [ -60.478591936417104, -31.773175591661573 ], [ -60.478524469446107, -31.772846 ], [ -60.477871907100777, -31.76964318579828 ], [ -60.476477031791376, -31.769849058632555 ], [ -60.477412405863248, -31.774129530553839 ], [ -60.480892938892211, -31.773607623453007 ], [ -60.480784907100819, -31.773223843517933 ] ] ] } },
{ "type": "Feature", "properties": { "id": 56, "id_renabap": "2681", "nombre_bar": "General Mosconi Viejo" }, "geometry": { "type": "Polygon", "coordinates": [ [ [ -60.552996, -31.727982956609583 ], [ -60.554659804712443, -31.727167349020966 ], [ -60.554624721897284, -31.726406747527289 ], [ -60.554525801034721, -31.726186481274635 ], [ -60.553870288790243, -31.725487714327038 ], [ -60.554050194615449, -31.72532191620445 ], [ -60.55505853057533, -31.725344347123063 ], [ -60.555163765287645, -31.7250031913219 ], [ -60.555399382643792, -31.724280191321906 ], [ -60.555266, -31.723500426034178 ], [ -60.554557250750157, -31.723312850958415 ], [ -60.554115924895513, -31.723211657094115 ], [ -60.553792234712276, -31.723168130171107 ], [ -60.553231306265488, -31.723272049505621 ], [ -60.55309342603416, -31.723344043390352 ], [ -60.551656234712269, -31.723711234712276 ], [ -60.551726, -31.724418 ], [ -60.55143, -31.724625 ], [ -60.551253, -31.724687234712253 ], [ -60.551065426034171, -31.724815956609564 ], [ -60.551466234712237, -31.725466191321868 ], [ -60.551848617356129, -31.725888382643824 ], [ -60.552165234712298, -31.726676765287642 ], [ -60.552996, -31.727982956609583 ] ] ] } }
]
}
