{
"type": "FeatureCollection",
"name": "loteos_barrios_privados",
"crs": { "type": "name", "properties": { "name": "urn:ogc:def:crs:OGC:1.3:CRS84" } },
"features": [
{ "type": "Feature", "properties": { "nro": 2, "propietario": "PUERTO BARRANCAS", "ordenanza": "9350", "expte": 19939, "anio": 2011, "exp_s_cat": "Aprob x dec 937 - acta 23/4/15", "seccion": 15, "grupo": 108, "tramite": "LOTEO APROBADO", "ord.año": 2015, "cant_lotes": 8, "sup_en_has": 104.53, "sup_urbanizada": 1045236, "nro_int": 135 }, "geometry": { "type": "MultiPolygon", "coordinates": [ [ [ [ -60.464291578890773, -31.711022730336847 ], [ -60.465285210411437, -31.715634757382954 ], [ -60.470693054131551, -31.714798791773163 ], [ -60.470601914324746, -31.714333668402695 ], [ -60.469929827724819, -31.710592243971202 ], [ -60.469844816975019, -31.710164290049029 ], [ -60.464291578890773, -31.711022730336847 ] ] ], [ [ [ -60.470093683231099, -31.71056959739462 ], [ -60.470765633471686, -31.714310226270022 ], [ -60.470856418413959, -31.714773534487257 ], [ -60.473601852147958, -31.714349037488844 ], [ -60.473297692580019, -31.712894469105866 ], [ -60.472655129684519, -31.709729763364564 ], [ -60.470008153948605, -31.710139036914416 ], [ -60.470093683231099, -31.71056959739462 ] ] ], [ [ [ -60.463219927133352, -31.706143391429894 ], [ -60.46423725087525, -31.710827794592067 ], [ -60.469800660474242, -31.709941999491466 ], [ -60.469559012296521, -31.708725485884084 ], [ -60.468864711012813, -31.705230023722486 ], [ -60.463219927133352, -31.706143391429894 ] ] ], [ [ [ -60.472598230820864, -31.709509443182959 ], [ -60.471548853227475, -31.704770761512751 ], [ -60.469027522459513, -31.705202168087428 ], [ -60.469963997071666, -31.709916746416216 ], [ -60.472598230820864, -31.709509443182959 ] ] ], [ [ [ -60.46494022493232, -31.702017061623422 ], [ -60.464916337332724, -31.702020196962145 ], [ -60.464892376297058, -31.702023413730576 ], [ -60.464868551130309, -31.702026377481392 ], [ -60.464844712220412, -31.702028700964764 ], [ -60.464820699901878, -31.70203009617083 ], [ -60.464796738661015, -31.70203115750191 ], [ -60.464773366604355, -31.702031910052433 ], [ -60.464750425999874, -31.702032453600914 ], [ -60.464728172168982, -31.702033220104934 ], [ -60.464706509860648, -31.702034146782474 ], [ -60.464685062027769, -31.70203577611737 ], [ -60.464663909730767, -31.702037440445814 ], [ -60.464642988555049, -31.702038914540292 ], [ -60.464622341054209, -31.70204027039382 ], [ -60.464602019611029, -31.702041435667741 ], [ -60.46458214007891, -31.702042373866171 ], [ -60.464562703356961, -31.702043265355961 ], [ -60.464543624608083, -31.702044020261376 ], [ -60.464524735686211, -31.702044765453973 ], [ -60.464506373423021, -31.702045355411073 ], [ -60.464488906835008, -31.702045752714824 ], [ -60.46447206179711, -31.702045985419527 ], [ -60.464455552916839, -31.702045937324371 ], [ -60.464439082276165, -31.702045095460285 ], [ -60.46442251117287, -31.702043144685142 ], [ -60.464406186718264, -31.70203988532792 ], [ -60.464389865265062, -31.702035110850581 ], [ -60.464373592557202, -31.702029533547641 ], [ -60.464357213647851, -31.702023812333394 ], [ -60.464340561019696, -31.702018200335583 ], [ -60.464324144322966, -31.70201336306712 ], [ -60.464307784682688, -31.702009391364282 ], [ -60.46429133572267, -31.702006547296339 ], [ -60.464274694024027, -31.702005246090529 ], [ -60.464257867708874, -31.702005000718508 ], [ -60.464240963024757, -31.702005964107833 ], [ -60.464223879106328, -31.702006946184369 ], [ -60.464206952561035, -31.702007756334368 ], [ -60.464190943147344, -31.702008445903385 ], [ -60.464094623943978, -31.701967089081318 ], [ -60.463996417247763, -31.701902834782739 ], [ -60.463987018803472, -31.701892317338718 ], [ -60.463976135499784, -31.70188230131351 ], [ -60.463965035214869, -31.701873196944756 ], [ -60.46395336522653, -31.701864076610654 ], [ -60.463941494191715, -31.701854830747909 ], [ -60.463929463047513, -31.701845206689718 ], [ -60.46391728270163, -31.701835276544266 ], [ -60.463904774010317, -31.701825077037203 ], [ -60.463891947836437, -31.701814671258372 ], [ -60.46387880664853, -31.701804555215908 ], [ -60.463864962667749, -31.701795235355963 ], [ -60.463850839222445, -31.701786989711898 ], [ -60.463836520654745, -31.701779808958353 ], [ -60.463822047138599, -31.70177328711689 ], [ -60.463807321404488, -31.701766955579473 ], [ -60.463792354000759, -31.701760814307633 ], [ -60.463777017628331, -31.701754719468308 ], [ -60.463761300931203, -31.701748508769782 ], [ -60.463745332464747, -31.701742578558161 ], [ -60.463729092253658, -31.701737154368448 ], [ -60.463712661903578, -31.701731676757031 ], [ -60.463695914519441, -31.70172608305581 ], [ -60.463678775903482, -31.70172030138643 ], [ -60.463661140975383, -31.701714413297282 ], [ -60.463642504218377, -31.701708582958911 ], [ -60.463622529832385, -31.70170316331302 ], [ -60.463601290759271, -31.701697973723881 ], [ -60.463579136980776, -31.701693391695471 ], [ -60.463556394421268, -31.701689199598711 ], [ -60.463533296580891, -31.701685685176368 ], [ -60.463509799382066, -31.701682469811693 ], [ -60.463485995652817, -31.701679129297801 ], [ -60.463461728108584, -31.701675853594526 ], [ -60.463437007208135, -31.701672624626593 ], [ -60.463412264495155, -31.701669251437174 ], [ -60.463387752459326, -31.701665597831415 ], [ -60.463363329968132, -31.701662981022558 ], [ -60.463339539935085, -31.70166027172618 ], [ -60.46331683258034, -31.701656791919792 ], [ -60.463294934183338, -31.701652650820296 ], [ -60.463273277057226, -31.701648238285678 ], [ -60.463251883509081, -31.701643797734437 ], [ -60.463230804622746, -31.701638995296765 ], [ -60.463210102837451, -31.701633659394659 ], [ -60.463189452631426, -31.701628088820907 ], [ -60.463168590742562, -31.701622374716688 ], [ -60.46314741146282, -31.701616472373313 ], [ -60.463125917077491, -31.701610841725596 ], [ -60.463104181425365, -31.701605482505233 ], [ -60.463082215054712, -31.701600394673825 ], [ -60.463059374915417, -31.701595661732654 ], [ -60.463034173367781, -31.70159122595318 ], [ -60.463007981660482, -31.701587073337002 ], [ -60.46298143704297, -31.70158407636411 ], [ -60.462954534049871, -31.701581134797664 ], [ -60.462927281214149, -31.7015778427741 ], [ -60.462900285955016, -31.701573314275809 ], [ -60.46287385520737, -31.701567755614288 ], [ -60.462847991748312, -31.70156172592656 ], [ -60.462823107951124, -31.701555422123299 ], [ -60.462798362316384, -31.701549325239181 ], [ -60.462775633400405, -31.701543617845768 ], [ -60.462753905958955, -31.701537780555345 ], [ -60.462731925895653, -31.701532052399791 ], [ -60.462709704609466, -31.70152660468905 ], [ -60.462687222480618, -31.701521735104528 ], [ -60.46266444759496, -31.701517389650913 ], [ -60.462641259980884, -31.701512775135615 ], [ -60.462617521435206, -31.701507675615829 ], [ -60.462593180380011, -31.70150232575924 ], [ -60.462568424270216, -31.701496237886762 ], [ -60.462543041064443, -31.701489196323323 ], [ -60.46251723180967, -31.701481326598316 ], [ -60.462490901257908, -31.701472565927435 ], [ -60.462464082665974, -31.701463238855634 ], [ -60.462437114477979, -31.701453524525235 ], [ -60.462410292675713, -31.701443548121901 ], [ -60.462384165910066, -31.70143333471195 ], [ -60.462358682557344, -31.701423109945384 ], [ -60.462333538145344, -31.701413163518296 ], [ -60.462309134451857, -31.701403683362809 ], [ -60.46228516534935, -31.701394625496565 ], [ -60.462261451201705, -31.701385927441514 ], [ -60.462237623128026, -31.70137765366427 ], [ -60.462210169291033, -31.701368808765192 ], [ -60.463183199844387, -31.705970211805475 ], [ -60.468838102806551, -31.705096059108566 ], [ -60.46837981307339, -31.702798237660367 ], [ -60.468354662997704, -31.702797861068653 ], [ -60.468329670651812, -31.702797384689308 ], [ -60.468304962980767, -31.702796880204207 ], [ -60.468280477826028, -31.70279657330402 ], [ -60.468256459751956, -31.702796850885989 ], [ -60.468232788782849, -31.702796928782163 ], [ -60.468209147783156, -31.702796672879771 ], [ -60.468185577407112, -31.702795776400791 ], [ -60.468161876553566, -31.702794104806227 ], [ -60.468137621877396, -31.702791380076807 ], [ -60.468112984511244, -31.702788070545605 ], [ -60.468088051515956, -31.702784707983799 ], [ -60.468063170087646, -31.702781110747079 ], [ -60.468038573290585, -31.702777476386846 ], [ -60.468014924052532, -31.702773477804701 ], [ -60.467992148216894, -31.702769052143847 ], [ -60.467970013036933, -31.702764064981469 ], [ -60.467948876574582, -31.702758397763631 ], [ -60.467928453702761, -31.702751988407577 ], [ -60.467909325541925, -31.702745024169783 ], [ -60.467891510744664, -31.702737017983818 ], [ -60.467874928136972, -31.702728610460962 ], [ -60.467859417182197, -31.702719342247601 ], [ -60.467845222443053, -31.702709600242027 ], [ -60.467831890920998, -31.702699503346924 ], [ -60.467819001715839, -31.702689260531926 ], [ -60.467805944325463, -31.702679135572939 ], [ -60.467793055125981, -31.702668892755234 ], [ -60.467780238999595, -31.70265849635377 ], [ -60.467767898012205, -31.702648188393084 ], [ -60.467755988476071, -31.702637671423325 ], [ -60.467744510345916, -31.702626936426292 ], [ -60.467733884521579, -31.702615774433013 ], [ -60.467723595256857, -31.702604412797626 ], [ -60.467713726442028, -31.702592752009071 ], [ -60.467704622829487, -31.702580123434686 ], [ -60.467695847767054, -31.702565698974798 ], [ -60.46768788657721, -31.702549494886565 ], [ -60.467681132903316, -31.702532177094888 ], [ -60.467674441663306, -31.70251468772247 ], [ -60.467667509167612, -31.702497469789147 ], [ -60.467660568162117, -31.702480657718752 ], [ -60.467653377750523, -31.702464595097332 ], [ -60.467646032778767, -31.702449263540128 ], [ -60.467638560141609, -31.702433716006745 ], [ -60.467631497405328, -31.702417869359589 ], [ -60.467624241767282, -31.702401419180337 ], [ -60.467616345576175, -31.702383447224246 ], [ -60.467608107267019, -31.702364565654428 ], [ -60.467598560993729, -31.702345697898242 ], [ -60.467586591241265, -31.702327371118344 ], [ -60.467573970292186, -31.702309605871339 ], [ -60.467561153857581, -31.702292824355403 ], [ -60.467548258694208, -31.702277170438308 ], [ -60.467535526828648, -31.702262525992317 ], [ -60.467523169184751, -31.702248881225703 ], [ -60.467510711261383, -31.702236273952096 ], [ -60.467485320959526, -31.70221320754159 ], [ -60.467472306996932, -31.702203307850191 ], [ -60.467458563101381, -31.70219509729116 ], [ -60.467444512929831, -31.702188917014073 ], [ -60.46743057936996, -31.702184954857199 ], [ -60.467416686636888, -31.702182823303115 ], [ -60.467402514431832, -31.702181756953948 ], [ -60.4673882287262, -31.702181196054763 ], [ -60.467374023959337, -31.702182050760694 ], [ -60.467360229394146, -31.702184770789742 ], [ -60.467347471775582, -31.702190228638855 ], [ -60.467335533848448, -31.70219717153417 ], [ -60.467323839981262, -31.70220440212578 ], [ -60.46731240968851, -31.702211604694959 ], [ -60.467301112048226, -31.702217913946289 ], [ -60.467289372198593, -31.702222285841074 ], [ -60.467277444493881, -31.702222852619258 ], [ -60.467265462614925, -31.702221029694279 ], [ -60.467253855056718, -31.702218123177552 ], [ -60.467242790143182, -31.702214042267546 ], [ -60.467232224415028, -31.702208534605795 ], [ -60.467222811878067, -31.702201597796368 ], [ -60.467215217945153, -31.702193400752964 ], [ -60.467207439174835, -31.702184104130176 ], [ -60.467199318334821, -31.702173906910797 ], [ -60.467180987249748, -31.702153357791889 ], [ -60.467169566372093, -31.702143497325601 ], [ -60.46715644125544, -31.702134562987514 ], [ -60.467138439297372, -31.702127062415677 ], [ -60.467118746812659, -31.702121119214361 ], [ -60.46709864723352, -31.702116034257834 ], [ -60.467078170532837, -31.702111473751955 ], [ -60.467057444014898, -31.702107581526217 ], [ -60.467036457176, -31.702104366637414 ], [ -60.467015389158838, -31.702101792355435 ], [ -60.466994312582322, -31.702099614914999 ], [ -60.466973733094719, -31.702097697187106 ], [ -60.466953679946783, -31.702095561084828 ], [ -60.466934101525702, -31.702093432259701 ], [ -60.466915494964418, -31.702091579446549 ], [ -60.466896806907151, -31.702090304112616 ], [ -60.46687795332722, -31.702089678713389 ], [ -60.466859061980195, -31.702089937261977 ], [ -60.466840192136473, -31.702090276895472 ], [ -60.466821838038101, -31.702090389175922 ], [ -60.46680364126329, -31.702090320507988 ], [ -60.466785824413783, -31.702090286520811 ], [ -60.466768482941397, -31.702092496395959 ], [ -60.46675129843068, -31.702094453176453 ], [ -60.466734437128387, -31.702095651218301 ], [ -60.466717770918159, -31.70209578436177 ], [ -60.466700689570075, -31.702095170487365 ], [ -60.46668321743239, -31.702094458837351 ], [ -60.466665384434855, -31.702093306599288 ], [ -60.466647030093391, -31.702091263435623 ], [ -60.466629745059329, -31.702087890638122 ], [ -60.466613949781994, -31.702082889058595 ], [ -60.466597758073782, -31.702076662412473 ], [ -60.466581205553254, -31.70207000419671 ], [ -60.466564346542917, -31.702063229859668 ], [ -60.466547169681974, -31.70205617710992 ], [ -60.466528896415866, -31.702049254627724 ], [ -60.466509317987231, -31.702042905082408 ], [ -60.466489025921945, -31.702037288642469 ], [ -60.46646845117192, -31.702032097102499 ], [ -60.46644740485749, -31.702027529560059 ], [ -60.466425981011895, -31.70202340530107 ], [ -60.46640420158915, -31.702019895596489 ], [ -60.466382066859623, -31.702017054556098 ], [ -60.466359780040918, -31.702015440583136 ], [ -60.466337289923906, -31.702015360493579 ], [ -60.466314767628788, -31.702017282623274 ], [ -60.466292060332783, -31.702020179422696 ], [ -60.466269174252893, -31.702023185093701 ], [ -60.46624666805122, -31.702026216427207 ], [ -60.466224601409934, -31.702028551725775 ], [ -60.466203047762839, -31.702030109554745 ], [ -60.46618187660502, -31.702030105782473 ], [ -60.466160463909944, -31.702028209005956 ], [ -60.466139308838734, -31.702025093787558 ], [ -60.466118172836438, -31.702021572663725 ], [ -60.466097047384146, -31.70201805149782 ], [ -60.466076367493727, -31.702015033735631 ], [ -60.466055898799119, -31.702012060290713 ], [ -60.466035218911266, -31.702009042521833 ], [ -60.466014660736782, -31.702005050307509 ], [ -60.465995383479026, -31.701999853949598 ], [ -60.465975957102394, -31.70199436954184 ], [ -60.465956245649309, -31.701988832061758 ], [ -60.465936070337172, -31.701983350384335 ], [ -60.465915528491117, -31.701978402133957 ], [ -60.465894823912073, -31.701974662952903 ], [ -60.465873978146867, -31.701972222947397 ], [ -60.465852926326448, -31.701970766706978 ], [ -60.465831660290398, -31.70197077224157 ], [ -60.465810299363312, -31.701970787137707 ], [ -60.465789315161032, -31.701970196415189 ], [ -60.465768505010239, -31.70196854988977 ], [ -60.465725690257713, -31.70196476517367 ], [ -60.465703935704923, -31.701964114120948 ], [ -60.465682243446196, -31.701965374757734 ], [ -60.465660893287527, -31.701967545009555 ], [ -60.465639165996535, -31.701970239707475 ], [ -60.465617343813229, -31.701972943766645 ], [ -60.465595659884634, -31.701975872779691 ], [ -60.465573840085995, -31.701979054802916 ], [ -60.465551779022682, -31.701982508257995 ], [ -60.465529443878083, -31.701985998783741 ], [ -60.465506726060006, -31.701988904500361 ], [ -60.465483638819443, -31.701991766468879 ], [ -60.465460552027722, -31.701994718616525 ], [ -60.465437855662387, -31.701997696390542 ], [ -60.465415466191345, -31.702000871447368 ], [ -60.465394110647388, -31.702004078801057 ], [ -60.465373428176925, -31.702006877862761 ], [ -60.465352262560408, -31.702007983207263 ], [ -60.465330339764257, -31.7020074409267 ], [ -60.46530807757199, -31.702006530122482 ], [ -60.465285245358395, -31.70200554022766 ], [ -60.465262087538569, -31.702004831090004 ], [ -60.465239144109034, -31.702004806571534 ], [ -60.465216295975615, -31.702004853849264 ], [ -60.465193425980104, -31.702004747888246 ], [ -60.465171429751138, -31.702004287014685 ], [ -60.465149316769285, -31.702003682267261 ], [ -60.46512678049946, -31.702002808505036 ], [ -60.465103907714408, -31.7020021433915 ], [ -60.465080763594578, -31.702002065465525 ], [ -60.465057413050047, -31.702002899156025 ], [ -60.465034089945803, -31.702005004349875 ], [ -60.465010823856773, -31.702007966088502 ], [ -60.464987378622382, -31.702010964550084 ], [ -60.464963933341451, -31.702013953989034 ], [ -60.46494022493232, -31.702017061623422 ] ] ] ] } },
{ "type": "Feature", "properties": { "nro": 1, "propietario": "URANGA LUCIO", "ordenanza": "ORD 8874", "expte": 30846, "anio": 2007, "exp_s_cat": "11152/13", "seccion": 15, "grupo": 46, "tramite": "LOTEO APROBADO", "ord.año": 2009, "cant_lotes": 42, "sup_en_has": 4.26, "sup_urbanizada": 42614, "nro_int": 137 }, "geometry": { "type": "MultiPolygon", "coordinates": [ [ [ [ -60.47902613224727, -31.725485441207287 ], [ -60.479062638034293, -31.725665491528982 ], [ -60.479114462380174, -31.725921093305747 ], [ -60.479198638690313, -31.725966306187765 ], [ -60.479626590181745, -31.725842764123392 ], [ -60.479737036559506, -31.725828153333158 ], [ -60.479941343171291, -31.725809720899999 ], [ -60.480163902139708, -31.725738020856152 ], [ -60.480275903778022, -31.725672711860028 ], [ -60.480364863905095, -31.725604376541654 ], [ -60.480410350347952, -31.725556914330696 ], [ -60.480552890237483, -31.725375362324023 ], [ -60.480704062253587, -31.725285939070925 ], [ -60.480810775307546, -31.725220075098147 ], [ -60.480996708458029, -31.725111800770534 ], [ -60.481119214903757, -31.725063300569438 ], [ -60.481261378397512, -31.725028833039719 ], [ -60.481590519759308, -31.724977944867234 ], [ -60.481641546993856, -31.724915067204865 ], [ -60.481586032940385, -31.724650908627549 ], [ -60.481538409064179, -31.724702961351433 ], [ -60.481498548626625, -31.724719025091925 ], [ -60.481465724203737, -31.724722833051988 ], [ -60.481422296408297, -31.724716431576152 ], [ -60.481368514530601, -31.724684538699556 ], [ -60.481246850767619, -31.72469826967815 ], [ -60.481176114453604, -31.724714285309787 ], [ -60.48110217094554, -31.724740098175282 ], [ -60.480987630465783, -31.724759983214199 ], [ -60.480892701119672, -31.724793107948432 ], [ -60.48080867808531, -31.724830830260622 ], [ -60.480734593413253, -31.724875652659058 ], [ -60.480671270072534, -31.724912112224473 ], [ -60.480596312804444, -31.724962012608046 ], [ -60.480489343283743, -31.725020755641594 ], [ -60.480383755521167, -31.725073073758058 ], [ -60.480279407908263, -31.725144939100087 ], [ -60.480227333098853, -31.725193510918068 ], [ -60.480177201798554, -31.725260814524308 ], [ -60.480132629597726, -31.725318509349595 ], [ -60.480097046200157, -31.72537721101784 ], [ -60.480063265651808, -31.725406305805805 ], [ -60.479951264179711, -31.725471614616122 ], [ -60.479895344990446, -31.725489629645121 ], [ -60.479760773419194, -31.725503757256192 ], [ -60.479623259107107, -31.72551697723787 ], [ -60.479545292777601, -31.72552632931998 ], [ -60.479381145105108, -31.72557344531965 ], [ -60.479345631537932, -31.725409453018521 ], [ -60.479307220723001, -31.725232081303094 ], [ -60.479272328439023, -31.725070956681208 ], [ -60.479218244720009, -31.725049782289837 ], [ -60.479076554478503, -31.72507168622899 ], [ -60.479041212905109, -31.72509028323076 ], [ -60.479012600837301, -31.725115978849132 ], [ -60.478992616327531, -31.725147068507134 ], [ -60.478972354201872, -31.72522020097859 ], [ -60.478986740152024, -31.725291154489209 ], [ -60.47902613224727, -31.725485441207287 ] ] ], [ [ [ -60.479526567733629, -31.725419310714805 ], [ -60.479745338014631, -31.725396344057831 ], [ -60.479879909433478, -31.725382216464393 ], [ -60.479991910849762, -31.725316907716337 ], [ -60.480187635617774, -31.72506761573424 ], [ -60.480417290213374, -31.724931767827393 ], [ -60.48043750503556, -31.724890117663904 ], [ -60.480410480901888, -31.724762415552934 ], [ -60.480372921426728, -31.724584928239867 ], [ -60.480335362099183, -31.724407440909413 ], [ -60.480267793240543, -31.724088141158028 ], [ -60.480215776303098, -31.724057300482038 ], [ -60.480000234238823, -31.724090623210085 ], [ -60.479740669884883, -31.724130751254222 ], [ -60.479481105300302, -31.724170878771794 ], [ -60.479265562694039, -31.724204200262189 ], [ -60.479229480124914, -31.724248660826671 ], [ -60.479297045554993, -31.724567961154406 ], [ -60.479334602976699, -31.72474544880528 ], [ -60.479348461702571, -31.724810941744046 ], [ -60.47939972720684, -31.724832428049673 ], [ -60.479421227529073, -31.724848814356982 ], [ -60.479446341128629, -31.724878794300906 ], [ -60.479457562961187, -31.724901470831888 ], [ -60.479459287778624, -31.724909621834012 ], [ -60.479465240842174, -31.724937754326415 ], [ -60.479464023019133, -31.724962353941986 ], [ -60.479457757240318, -31.724986386060269 ], [ -60.479446639241687, -31.725009099930201 ], [ -60.479421662958629, -31.725039163587713 ], [ -60.479400237717378, -31.725055621627398 ], [ -60.479408782110092, -31.725096000058606 ], [ -60.479469607139677, -31.725383441216589 ], [ -60.479526567733629, -31.725419310714805 ] ] ], [ [ [ -60.481266040247739, -31.723943507245515 ], [ -60.481234412151117, -31.723935091808791 ], [ -60.481218837629697, -31.723925837828155 ], [ -60.481198227628234, -31.723913591888849 ], [ -60.481006371432017, -31.723941220885266 ], [ -60.480798268844111, -31.72397118916194 ], [ -60.480590166471956, -31.72400115704907 ], [ -60.480426181765324, -31.724024771496971 ], [ -60.48039009982314, -31.724069232384988 ], [ -60.480457255931391, -31.724386579708124 ], [ -60.480545615008566, -31.724804118537026 ], [ -60.480599216915209, -31.724823124512486 ], [ -60.480745580900802, -31.724736544787145 ], [ -60.480943474808591, -31.724658198831257 ], [ -60.481147502523669, -31.72460873236281 ], [ -60.481345910623887, -31.724577814449479 ], [ -60.481355165413518, -31.724560666623315 ], [ -60.481364642107316, -31.724550018452362 ], [ -60.481375198292213, -31.724538157343538 ], [ -60.481401362859266, -31.724520844909648 ], [ -60.481442661890242, -31.724507822157637 ], [ -60.481464662979377, -31.724506092646809 ], [ -60.481508048230175, -31.724512458347277 ], [ -60.481537468308666, -31.724525401258674 ], [ -60.481563979769447, -31.724545970178735 ], [ -60.481492875133362, -31.724207622111845 ], [ -60.481491826308869, -31.724207604692641 ], [ -60.48142209228422, -31.723870802672636 ], [ -60.48140694061933, -31.723873279873526 ], [ -60.481397689535193, -31.72389045242527 ], [ -60.481377646345493, -31.723912994584285 ], [ -60.481320906004228, -31.723941275030175 ], [ -60.481266040247739, -31.723943507245515 ] ] ], [ [ [ -60.478728094539427, -31.724015460849934 ], [ -60.478764099661142, -31.724193047767269 ], [ -60.478800131683847, -31.724370766651049 ], [ -60.478836160846775, -31.724548470713223 ], [ -60.478872196155145, -31.724726204369183 ], [ -60.478888752943838, -31.724807865663603 ], [ -60.478943567372852, -31.724859462178035 ], [ -60.478967338939462, -31.724872481749625 ], [ -60.47902078294338, -31.724887525842878 ], [ -60.479174522407739, -31.724863759227745 ], [ -60.479221452485319, -31.724822377715864 ], [ -60.479189340571175, -31.724678128694809 ], [ -60.479149893181187, -31.724500927543776 ], [ -60.479110445945736, -31.724323726374099 ], [ -60.479070998864756, -31.724146525185834 ], [ -60.479031385250131, -31.723968575190504 ], [ -60.479041281153954, -31.723967045371488 ], [ -60.479031049014488, -31.723963432770201 ], [ -60.479021222665274, -31.72395907416341 ], [ -60.47901187638282, -31.723954002497383 ], [ -60.478994902446317, -31.723941878433202 ], [ -60.47898740309661, -31.723934917679795 ], [ -60.478980639452544, -31.723927426464222 ], [ -60.478969517836248, -31.723911082729209 ], [ -60.47896524393088, -31.723902353750798 ], [ -60.478959431210541, -31.7238841109811 ], [ -60.478957936332847, -31.723874735085154 ], [ -60.478957825953707, -31.723855828092677 ], [ -60.478961545420795, -31.723837190064323 ], [ -60.47896481071426, -31.723828148467646 ], [ -60.478974029196316, -31.7238109613149 ], [ -60.478979912702961, -31.72380294567456 ], [ -60.478986588531164, -31.723795397134872 ], [ -60.478994006218883, -31.72378837275437 ], [ -60.479002109696609, -31.723781925629552 ], [ -60.478999326060226, -31.723768770458875 ], [ -60.478731706853559, -31.723809338664385 ], [ -60.478695646636432, -31.723853771408589 ], [ -60.478728094539427, -31.724015460849934 ] ] ], [ [ [ -60.479126740493825, -31.723764102300763 ], [ -60.479146298283119, -31.723771335448998 ], [ -60.479186496330065, -31.723800771728769 ], [ -60.479205979336669, -31.723833021335235 ], [ -60.479211643043122, -31.723868992451575 ], [ -60.479202828046425, -31.723904497202732 ], [ -60.479187271376993, -31.723928317227262 ], [ -60.479165138307501, -31.723947972006329 ], [ -60.479191011832299, -31.724066866553027 ], [ -60.47924302844141, -31.724097707650451 ], [ -60.479458570810316, -31.72406438619997 ], [ -60.479718135109032, -31.724024258730445 ], [ -60.479977699177141, -31.723984130734397 ], [ -60.480193241004031, -31.72395080804624 ], [ -60.480229322995882, -31.723906347212637 ], [ -60.480204290063774, -31.723788051864432 ], [ -60.480183479572347, -31.723777270071473 ], [ -60.480165236228288, -31.72376350443129 ], [ -60.480143923136033, -31.723738238561353 ], [ -60.480134405945186, -31.723719095133887 ], [ -60.480128988656901, -31.723667663935995 ], [ -60.480138596969454, -31.723637617600939 ], [ -60.480165116379609, -31.723602932496821 ], [ -60.480163492344154, -31.723592288380196 ], [ -60.479903160689041, -31.723631754401882 ], [ -60.479643437930207, -31.723671127553356 ], [ -60.479383714944809, -31.723710500177535 ], [ -60.479123985433581, -31.723749873229437 ], [ -60.479126740493825, -31.723764102300763 ] ] ], [ [ [ -60.480287657279341, -31.72358614738458 ], [ -60.480325695195418, -31.723604501341267 ], [ -60.480353947716686, -31.723632975575597 ], [ -60.480366554931557, -31.723658889968643 ], [ -60.480370777489888, -31.723686722499338 ], [ -60.480366320321096, -31.723714528290817 ], [ -60.480358656022844, -31.723732086900792 ], [ -60.480347499161034, -31.723748220116608 ], [ -60.480326238380378, -31.723768465308915 ], [ -60.480325002898383, -31.723768663744714 ], [ -60.480351421697712, -31.72388747058146 ], [ -60.480403438583686, -31.723918311203409 ], [ -60.480567067415286, -31.723893013699612 ], [ -60.480774718084781, -31.72386090996714 ], [ -60.480982368606703, -31.723828805897682 ], [ -60.481168269558694, -31.723800064142512 ], [ -60.481190121189108, -31.723767402064663 ], [ -60.481189660005121, -31.723765335348546 ], [ -60.481191950080756, -31.723765565092517 ], [ -60.481216393341541, -31.723747039705739 ], [ -60.481256008676056, -31.723731756722195 ], [ -60.481309039194713, -31.723729903736494 ], [ -60.481331201865622, -31.723734954924318 ], [ -60.481350961987523, -31.723742850420756 ], [ -60.481368846396471, -31.723753524011908 ], [ -60.481384325757226, -31.72376665978571 ], [ -60.481399706935875, -31.723764281693398 ], [ -60.481333002172633, -31.723446864658928 ], [ -60.481290181690362, -31.723421476883154 ], [ -60.481118729307688, -31.723447470566629 ], [ -60.480910844696304, -31.723478987366967 ], [ -60.48070307135756, -31.723510486938064 ], [ -60.480495297873794, -31.723541986171753 ], [ -60.48028696807571, -31.723573569383934 ], [ -60.480287657279341, -31.72358614738458 ] ] ] ] } },
{ "type": "Feature", "properties": { "nro": 3, "propietario": "AMARRAS DEL SOL", "ordenanza": null, "expte": 12383, "anio": 2009, "exp_s_cat": "12383/09 - 30973/10", "seccion": 8, "grupo": 62, "tramite": "LOTEO APROBADO", "ord.año": null, "cant_lotes": 13, "sup_en_has": 8.08, "sup_urbanizada": 80864, "nro_int": 85 }, "geometry": { "type": "MultiPolygon", "coordinates": [ [ [ [ -60.499111476079619, -31.709803176216859 ], [ -60.50070668174498, -31.710520766251442 ], [ -60.501159335972936, -31.710973882179534 ], [ -60.501313962421257, -31.711128664946603 ], [ -60.501458244435582, -31.71127309218004 ], [ -60.501588276839954, -31.711403254930396 ], [ -60.501713034226569, -31.711528136902082 ], [ -60.50173783572275, -31.711552963110314 ], [ -60.501831208483708, -31.711646429988718 ], [ -60.501899862183777, -31.711715152724423 ], [ -60.501951683104529, -31.71172307247231 ], [ -60.502097576255885, -31.711745445432509 ], [ -60.50231875247939, -31.711779362838765 ], [ -60.502393100953796, -31.711790764096186 ], [ -60.502539409665012, -31.711813200242506 ], [ -60.502685718444461, -31.711835636220012 ], [ -60.502822474121714, -31.711856607098351 ], [ -60.502964837156611, -31.71187843767386 ], [ -60.503128490629699, -31.711903532809465 ], [ -60.503365164726183, -31.711939700897393 ], [ -60.503710495965571, -31.71077464278865 ], [ -60.503331772029057, -31.710585036407018 ], [ -60.50283337984888, -31.710433078215456 ], [ -60.502250950707634, -31.710303944188198 ], [ -60.502157585655212, -31.710236449355925 ], [ -60.501874131536809, -31.710031532235064 ], [ -60.501507460837011, -31.709647986684569 ], [ -60.501318447253681, -31.709560733173046 ], [ -60.50080114104567, -31.709556948697674 ], [ -60.500640442968539, -31.709413939304664 ], [ -60.500472043111131, -31.709238164464679 ], [ -60.50026237222896, -31.708751178951978 ], [ -60.499861014935632, -31.708243063507794 ], [ -60.499791308984911, -31.708008954965283 ], [ -60.499746799562594, -31.70795152902922 ], [ -60.49960184260037, -31.707821697863292 ], [ -60.499468585780427, -31.707685563089321 ], [ -60.49932754270246, -31.707559377483125 ], [ -60.499146132557065, -31.707398558459193 ], [ -60.499073648536132, -31.707341425782388 ], [ -60.498908270217669, -31.70724664078697 ], [ -60.498568965028447, -31.707059565356559 ], [ -60.498730934385712, -31.707878625836898 ], [ -60.498758137648863, -31.708016188127193 ], [ -60.498841960051337, -31.708440177156515 ], [ -60.498942026208056, -31.708946324716898 ], [ -60.499111476079619, -31.709803176216859 ] ] ] ] } },
{ "type": "Feature", "properties": { "nro": 4, "propietario": "Fid. DESARROLLADORES DE LA RIBERA", "ordenanza": "9600", "expte": 23801, "anio": 2010, "exp_s_cat": "9525/09 - 23801/10", "seccion": 10, "grupo": 1, "tramite": "LOTEO APROBADO - HABILITADO", "ord.año": 2012, "cant_lotes": 33, "sup_en_has": 9.64, "sup_urbanizada": 94645, "nro_int": 27 }, "geometry": { "type": "MultiPolygon", "coordinates": [ [ [ [ -60.549130786474365, -31.712503054159413 ], [ -60.549258144006586, -31.712635314786265 ], [ -60.549385535579113, -31.712767610253152 ], [ -60.549512924990211, -31.712899902964644 ], [ -60.549640317281103, -31.713032198155958 ], [ -60.54979841754858, -31.713196382460172 ], [ -60.549960867488601, -31.713365083002106 ], [ -60.550329083827577, -31.713718495590641 ], [ -60.55046500524427, -31.713501744569498 ], [ -60.550626617819709, -31.7132710208517 ], [ -60.550763897318241, -31.71307503482689 ], [ -60.550867684901334, -31.712926862637481 ], [ -60.550849103104142, -31.712875136826622 ], [ -60.550624248920244, -31.712785659958858 ], [ -60.550449525277941, -31.712847337252427 ], [ -60.55027637909317, -31.712908457389037 ], [ -60.55009114400589, -31.712889468455483 ], [ -60.549988386916581, -31.712784116012415 ], [ -60.549860025330808, -31.712652511917639 ], [ -60.549731664108549, -31.712520907686805 ], [ -60.549603303249789, -31.712389303319938 ], [ -60.549474978672812, -31.712257732194036 ], [ -60.549346757412465, -31.712126276835239 ], [ -60.549219879952197, -31.711995840817092 ], [ -60.549098785759732, -31.711872032414753 ], [ -60.548961504408453, -31.711731279444852 ], [ -60.548730362626657, -31.711514284334228 ], [ -60.548624815887173, -31.711415196935402 ], [ -60.548809898877074, -31.711331572425198 ], [ -60.548968456068998, -31.711259932514011 ], [ -60.549239774834369, -31.711137343530773 ], [ -60.549254922941792, -31.711084806017457 ], [ -60.549185446575358, -31.711023060062821 ], [ -60.548852906871154, -31.710914052351185 ], [ -60.548814522465918, -31.710925674386687 ], [ -60.548624986892357, -31.710983061782397 ], [ -60.548445991904103, -31.711037257387293 ], [ -60.548326661794341, -31.711073387652014 ], [ -60.548273762341864, -31.710946061579151 ], [ -60.54820318355344, -31.710776181725581 ], [ -60.548132605026581, -31.710606301825504 ], [ -60.548076996816704, -31.710472454447782 ], [ -60.548019697215146, -31.710449465147033 ], [ -60.547685006866928, -31.710551081370841 ], [ -60.547751224558993, -31.710722049587829 ], [ -60.547817508815932, -31.71089318898807 ], [ -60.547883793320693, -31.711064328346524 ], [ -60.547982374985985, -31.711318854188551 ], [ -60.548061018692913, -31.711396516059636 ], [ -60.548391853720084, -31.711738695846385 ], [ -60.548621191584708, -31.711973835440016 ], [ -60.548748618504654, -31.712106170004166 ], [ -60.548875701773362, -31.712238147172879 ], [ -60.549003223736989, -31.712370579915547 ], [ -60.549130786474365, -31.712503054159413 ] ] ], [ [ [ -60.551508101098669, -31.71122914678147 ], [ -60.551323887170362, -31.711316272404279 ], [ -60.551130943975743, -31.7115080688198 ], [ -60.550980191754959, -31.711659393599188 ], [ -60.550829370645836, -31.711810786861346 ], [ -60.550703173015435, -31.711937462720655 ], [ -60.550748240276704, -31.711969273260802 ], [ -60.550723387617857, -31.711995003474023 ], [ -60.550674578306449, -31.711960551615451 ], [ -60.550519857954896, -31.712061504530613 ], [ -60.550341992029288, -31.712177559116025 ], [ -60.550165215836095, -31.712292902138532 ], [ -60.549911371834007, -31.712458529480166 ], [ -60.549904026980009, -31.712512273833593 ], [ -60.550023421773282, -31.712636883133278 ], [ -60.550124763400902, -31.71274265044989 ], [ -60.55015871776542, -31.712778087562196 ], [ -60.550264305868396, -31.712789618132447 ], [ -60.550601575649978, -31.71267311148852 ], [ -60.550634134292117, -31.71266186435226 ], [ -60.550914607359815, -31.712775691992885 ], [ -60.550974743131775, -31.712758803133823 ], [ -60.550999171500401, -31.712719932820136 ], [ -60.551099026147156, -31.712561044158399 ], [ -60.551131265269866, -31.712509745151767 ], [ -60.551222836850471, -31.712414996004068 ], [ -60.55135722254748, -31.712275946608752 ], [ -60.551491607844397, -31.7121368970733 ], [ -60.551625992741243, -31.711997847397782 ], [ -60.551713288018419, -31.71190752162348 ], [ -60.55178197676176, -31.711866856499395 ], [ -60.551932883637697, -31.711777516325608 ], [ -60.55194835275109, -31.711725047212141 ], [ -60.551734171521801, -31.71145242420334 ], [ -60.551569387642523, -31.711242675817847 ], [ -60.551508101098669, -31.71122914678147 ] ] ], [ [ [ -60.550196066665286, -31.711329264835438 ], [ -60.550114469757069, -31.711407348172227 ], [ -60.550051552633754, -31.711453531823768 ], [ -60.549873331899079, -31.711580514608354 ], [ -60.549669498933206, -31.711709087479058 ], [ -60.549375787625053, -31.711880737301623 ], [ -60.549367231921828, -31.711926026904116 ], [ -60.549488786095893, -31.712062619013857 ], [ -60.549637828318652, -31.712230099108552 ], [ -60.5497639443997, -31.712371816274008 ], [ -60.549811057354319, -31.71238166928778 ], [ -60.550105341028214, -31.71220195939301 ], [ -60.55031153457918, -31.712076042583977 ], [ -60.550500473307302, -31.711960662237686 ], [ -60.550590530875482, -31.711905666043965 ], [ -60.550716188342363, -31.71181142544232 ], [ -60.55081305354377, -31.71173877825343 ], [ -60.550923500080877, -31.711618553003753 ], [ -60.551076896235571, -31.711457049791601 ], [ -60.551305375747162, -31.711218291682087 ], [ -60.551306515294883, -31.711191352448488 ], [ -60.551298848485573, -31.711147528950811 ], [ -60.551122783425278, -31.711063015467087 ], [ -60.550900178947529, -31.710956161894444 ], [ -60.550689073102809, -31.710854827251882 ], [ -60.550625953987137, -31.710858877762288 ], [ -60.550465077597764, -31.711040551816044 ], [ -60.550320705355411, -31.711203587339305 ], [ -60.550196066665286, -31.711329264835438 ] ] ], [ [ [ -60.548906944414746, -31.711383896973107 ], [ -60.548893642725233, -31.711433616737615 ], [ -60.549020066044285, -31.711565343643201 ], [ -60.549223351070538, -31.711777155622535 ], [ -60.549285893573959, -31.711785487232621 ], [ -60.549406013711945, -31.711714227380227 ], [ -60.549583463102266, -31.711606953233595 ], [ -60.549794307925161, -31.711469644405529 ], [ -60.549971326638982, -31.711340508021944 ], [ -60.550118938451178, -31.711209467862766 ], [ -60.550156739228441, -31.711177373990047 ], [ -60.550454210833031, -31.710840116030948 ], [ -60.550447528733194, -31.710786308513413 ], [ -60.55036774230242, -31.710728180886072 ], [ -60.550318459760028, -31.71068849611331 ], [ -60.549740161978349, -31.710751099848842 ], [ -60.54962739271361, -31.710763307391939 ], [ -60.549512136912568, -31.710787616512238 ], [ -60.549325039561346, -31.710827077809281 ], [ -60.549305104701389, -31.710878434074004 ], [ -60.549431428690745, -31.711032323624348 ], [ -60.549388614781328, -31.711158514892841 ], [ -60.549264271962059, -31.711216697374084 ], [ -60.548906944414746, -31.711383896973107 ] ] ], [ [ [ -60.552239562774851, -31.711558485816688 ], [ -60.552261365569734, -31.711554519528473 ], [ -60.552522632082784, -31.711506990522281 ], [ -60.552621758865492, -31.711488957452357 ], [ -60.552656359060308, -31.711443647303888 ], [ -60.552612208314443, -31.711261801232027 ], [ -60.552513368464282, -31.711094510201033 ], [ -60.552502866895857, -31.7110767357687 ], [ -60.552350063788218, -31.710931136241562 ], [ -60.552120190765535, -31.710712098878226 ], [ -60.552058020152067, -31.710701938095976 ], [ -60.551921197492966, -31.710775492545135 ], [ -60.551720263740748, -31.710883511981137 ], [ -60.551549067813944, -31.710975544293518 ], [ -60.551536878023462, -31.711028641279967 ], [ -60.551734779894666, -31.711258977734573 ], [ -60.551861428273298, -31.711414474044364 ], [ -60.552026665795253, -31.711651101338305 ], [ -60.552088929157193, -31.711660841210524 ], [ -60.552239562774851, -31.711558485816688 ] ] ], [ [ [ -60.552715771248373, -31.711194150564889 ], [ -60.552755634059658, -31.711259069068202 ], [ -60.552768885670275, -31.711315111693544 ], [ -60.552801805752061, -31.71145433429496 ], [ -60.552854632559466, -31.71148414230181 ], [ -60.553181534135405, -31.711432105437556 ], [ -60.553215486655048, -31.711386438659794 ], [ -60.553182808406035, -31.711246990485574 ], [ -60.553159102751479, -31.711145830863739 ], [ -60.553095619983893, -31.711037452813969 ], [ -60.552986689457796, -31.710848656560213 ], [ -60.552837961734312, -31.710688554077851 ], [ -60.552710083093913, -31.710545091928854 ], [ -60.552581447188331, -31.710401021047481 ], [ -60.552550659958548, -31.710366539582409 ], [ -60.552430415244622, -31.710325332658076 ], [ -60.552140768262923, -31.710376661608056 ], [ -60.552182518592574, -31.710547937700557 ], [ -60.552262878617746, -31.710637997880195 ], [ -60.552390840763088, -31.710781405698746 ], [ -60.552518803303762, -31.710924813381158 ], [ -60.552630772416052, -31.711048588282189 ], [ -60.552715771248373, -31.711194150564889 ] ] ], [ [ [ -60.54838879777742, -31.710899707352496 ], [ -60.548446279043269, -31.71092236331728 ], [ -60.548718852836586, -31.710839833957507 ], [ -60.548821292116038, -31.71080881740501 ], [ -60.548948450859108, -31.71079115790808 ], [ -60.549186511156002, -31.710758096314816 ], [ -60.54923353995148, -31.710751564944058 ], [ -60.54938751525728, -31.710703019731657 ], [ -60.549585389766655, -31.710640633666838 ], [ -60.549629350762828, -31.710626773548984 ], [ -60.549765987466749, -31.710457485875178 ], [ -60.549765749685427, -31.710453182616746 ], [ -60.549881765804628, -31.710316144142148 ], [ -60.550048250170939, -31.710119491588056 ], [ -60.550073918766444, -31.710093897381466 ], [ -60.550090980209333, -31.710063502654609 ], [ -60.550098275861011, -31.710030371521924 ], [ -60.550087703424602, -31.709975202684699 ], [ -60.550060084212802, -31.709937069242461 ], [ -60.550018894004729, -31.70990928926383 ], [ -60.549955972968938, -31.709894057731255 ], [ -60.549929651383707, -31.709894709304788 ], [ -60.549879380915904, -31.70990754695146 ], [ -60.549856954115249, -31.709919344328195 ], [ -60.54959964853677, -31.709997718002555 ], [ -60.549351213070224, -31.710073389280041 ], [ -60.549152563776147, -31.710133895687896 ], [ -60.548953814845341, -31.710194432056696 ], [ -60.548730221984499, -31.710262535104125 ], [ -60.548506628791507, -31.710330637762421 ], [ -60.548233771513111, -31.71041374475341 ], [ -60.548206631848537, -31.710462628354634 ], [ -60.548262351988321, -31.710596320695306 ], [ -60.548333093975899, -31.710766055163294 ], [ -60.54838879777742, -31.710899707352496 ] ] ], [ [ [ -60.55001163734768, -31.710527581230767 ], [ -60.550227692838234, -31.71056079423975 ], [ -60.550285940626893, -31.710539617719864 ], [ -60.550420721072285, -31.710367032796245 ], [ -60.55066683217423, -31.710190745012511 ], [ -60.55067186034276, -31.710167125554971 ], [ -60.550689372471311, -31.710138913980494 ], [ -60.550702178663769, -31.710127203484934 ], [ -60.550733927093624, -31.710110369226665 ], [ -60.550751889369678, -31.710105765077298 ], [ -60.550789235001275, -31.710104888919382 ], [ -60.550840246317421, -31.710123964308806 ], [ -60.550864842991878, -31.710148003437936 ], [ -60.550880169445648, -31.71019376212266 ], [ -60.550874183444272, -31.710225287097995 ], [ -60.550864858757343, -31.710239446446632 ], [ -60.550855855654227, -31.710253117472057 ], [ -60.550819134345289, -31.710277593476224 ], [ -60.550783092708208, -31.710286002174819 ], [ -60.550745869112461, -31.710283277856874 ], [ -60.550515119353925, -31.710441064904817 ], [ -60.550417358236885, -31.710566247187181 ], [ -60.550431603308489, -31.710618968961665 ], [ -60.550576570737881, -31.710690561589274 ], [ -60.550772989567378, -31.710787303278575 ], [ -60.550857549962956, -31.710828667573669 ], [ -60.550931292966808, -31.710866059582269 ], [ -60.551002197092785, -31.710903553162613 ], [ -60.551049654969603, -31.710915844271554 ], [ -60.551147371440166, -31.710929880152481 ], [ -60.551196922233849, -31.710931523256999 ], [ -60.551224642523195, -31.71092941031959 ], [ -60.551295616954306, -31.710924000372312 ], [ -60.551391393336111, -31.710902290091539 ], [ -60.551479036074177, -31.710866834256848 ], [ -60.552081584545398, -31.710616400662705 ], [ -60.552112055086475, -31.710568973117656 ], [ -60.552060545300606, -31.710357659210541 ], [ -60.551880996878474, -31.710377144764024 ], [ -60.551569461006856, -31.710337904364938 ], [ -60.551342149017763, -31.710243552894237 ], [ -60.551028347908172, -31.710113300984649 ], [ -60.550977178783697, -31.710077200901331 ], [ -60.550654644857424, -31.709849650409769 ], [ -60.550467510830806, -31.710000084203958 ], [ -60.550267067153847, -31.710030625207388 ], [ -60.549878134480274, -31.710464019663252 ], [ -60.549899074751423, -31.710510277454002 ], [ -60.55001163734768, -31.710527581230767 ] ] ], [ [ [ -60.550490665036023, -31.709664326888493 ], [ -60.550162683166889, -31.709649817619528 ], [ -60.549891294819382, -31.70978869115039 ], [ -60.550184323233907, -31.709890897362158 ], [ -60.550493313315492, -31.709740407787162 ], [ -60.550490665036023, -31.709664326888493 ] ] ] ] } }
]
}
