{
"type": "FeatureCollection",
"name": "linea_m_paradas_desde_centro",
"crs": { "type": "name", "properties": { "name": "urn:ogc:def:crs:OGC:1.3:CRS84" } },
"features": [
{ "type": "Feature", "properties": { "Name": "00", "description": null, "timestamp": null, "begin": null, "end": null, "altitudeMode": null, "tessellate": -1, "extrude": 0, "visibility": -1, "drawOrder": null, "icon": null }, "geometry": { "type": "Point", "coordinates": [ -60.5441812, -31.7463067, 0.0 ] } },
{ "type": "Feature", "properties": { "Name": "01", "description": "Mapa creado por Paraná Online. Más info: https://www.paranaonline.com.ar/linea-m/", "timestamp": null, "begin": null, "end": null, "altitudeMode": null, "tessellate": -1, "extrude": 0, "visibility": -1, "drawOrder": null, "icon": null }, "geometry": { "type": "Point", "coordinates": [ -60.5398287, -31.7464709, 0.0 ] } },
{ "type": "Feature", "properties": { "Name": "02", "description": null, "timestamp": null, "begin": null, "end": null, "altitudeMode": null, "tessellate": -1, "extrude": 0, "visibility": -1, "drawOrder": null, "icon": null }, "geometry": { "type": "Point", "coordinates": [ -60.5360145, -31.7449381, 0.0 ] } },
{ "type": "Feature", "properties": { "Name": "03", "description": null, "timestamp": null, "begin": null, "end": null, "altitudeMode": null, "tessellate": -1, "extrude": 0, "visibility": -1, "drawOrder": null, "icon": null }, "geometry": { "type": "Point", "coordinates": [ -60.5342714, -31.7417447, 0.0 ] } },
{ "type": "Feature", "properties": { "Name": "04", "description": null, "timestamp": null, "begin": null, "end": null, "altitudeMode": null, "tessellate": -1, "extrude": 0, "visibility": -1, "drawOrder": null, "icon": null }, "geometry": { "type": "Point", "coordinates": [ -60.5316643, -31.737959, 0.0 ] } },
{ "type": "Feature", "properties": { "Name": "05", "description": null, "timestamp": null, "begin": null, "end": null, "altitudeMode": null, "tessellate": -1, "extrude": 0, "visibility": -1, "drawOrder": null, "icon": null }, "geometry": { "type": "Point", "coordinates": [ -60.530545, -31.7379351, 0.0 ] } },
{ "type": "Feature", "properties": { "Name": "06", "description": null, "timestamp": null, "begin": null, "end": null, "altitudeMode": null, "tessellate": -1, "extrude": 0, "visibility": -1, "drawOrder": null, "icon": null }, "geometry": { "type": "Point", "coordinates": [ -60.5270894, -31.7396405, 0.0 ] } },
{ "type": "Feature", "properties": { "Name": "07", "description": null, "timestamp": null, "begin": null, "end": null, "altitudeMode": null, "tessellate": -1, "extrude": 0, "visibility": -1, "drawOrder": null, "icon": null }, "geometry": { "type": "Point", "coordinates": [ -60.5252934, -31.7406506, 0.0 ] } },
{ "type": "Feature", "properties": { "Name": "08", "description": null, "timestamp": null, "begin": null, "end": null, "altitudeMode": null, "tessellate": -1, "extrude": 0, "visibility": -1, "drawOrder": null, "icon": null }, "geometry": { "type": "Point", "coordinates": [ -60.5258413, -31.7415268, 0.0 ] } },
{ "type": "Feature", "properties": { "Name": "09", "description": null, "timestamp": null, "begin": null, "end": null, "altitudeMode": null, "tessellate": -1, "extrude": 0, "visibility": -1, "drawOrder": null, "icon": null }, "geometry": { "type": "Point", "coordinates": [ -60.5265131, -31.7424733, 0.0 ] } },
{ "type": "Feature", "properties": { "Name": "10", "description": null, "timestamp": null, "begin": null, "end": null, "altitudeMode": null, "tessellate": -1, "extrude": 0, "visibility": -1, "drawOrder": null, "icon": null }, "geometry": { "type": "Point", "coordinates": [ -60.5264406, -31.7452695, 0.0 ] } },
{ "type": "Feature", "properties": { "Name": "11", "description": "Mapa creado por Paraná Online. Más info: https://www.paranaonline.com.ar/linea-m/", "timestamp": null, "begin": null, "end": null, "altitudeMode": null, "tessellate": -1, "extrude": 0, "visibility": -1, "drawOrder": null, "icon": null }, "geometry": { "type": "Point", "coordinates": [ -60.523677, -31.746876, 0.0 ] } },
{ "type": "Feature", "properties": { "Name": "12", "description": null, "timestamp": null, "begin": null, "end": null, "altitudeMode": null, "tessellate": -1, "extrude": 0, "visibility": -1, "drawOrder": null, "icon": null }, "geometry": { "type": "Point", "coordinates": [ -60.523864, -31.749356, 0.0 ] } },
{ "type": "Feature", "properties": { "Name": "13", "description": null, "timestamp": null, "begin": null, "end": null, "altitudeMode": null, "tessellate": -1, "extrude": 0, "visibility": -1, "drawOrder": null, "icon": null }, "geometry": { "type": "Point", "coordinates": [ -60.5243, -31.75157, 0.0 ] } },
{ "type": "Feature", "properties": { "Name": "14", "description": null, "timestamp": null, "begin": null, "end": null, "altitudeMode": null, "tessellate": -1, "extrude": 0, "visibility": -1, "drawOrder": null, "icon": null }, "geometry": { "type": "Point", "coordinates": [ -60.52336, -31.753088, 0.0 ] } },
{ "type": "Feature", "properties": { "Name": "15", "description": null, "timestamp": null, "begin": null, "end": null, "altitudeMode": null, "tessellate": -1, "extrude": 0, "visibility": -1, "drawOrder": null, "icon": null }, "geometry": { "type": "Point", "coordinates": [ -60.52216, -31.75475, 0.0 ] } },
{ "type": "Feature", "properties": { "Name": "16", "description": null, "timestamp": null, "begin": null, "end": null, "altitudeMode": null, "tessellate": -1, "extrude": 0, "visibility": -1, "drawOrder": null, "icon": null }, "geometry": { "type": "Point", "coordinates": [ -60.521162, -31.756095, 0.0 ] } },
{ "type": "Feature", "properties": { "Name": "17", "description": null, "timestamp": null, "begin": null, "end": null, "altitudeMode": null, "tessellate": -1, "extrude": 0, "visibility": -1, "drawOrder": null, "icon": null }, "geometry": { "type": "Point", "coordinates": [ -60.521521, -31.758762, 0.0 ] } },
{ "type": "Feature", "properties": { "Name": "18", "description": null, "timestamp": null, "begin": null, "end": null, "altitudeMode": null, "tessellate": -1, "extrude": 0, "visibility": -1, "drawOrder": null, "icon": null }, "geometry": { "type": "Point", "coordinates": [ -60.521882, -31.760629, 0.0 ] } },
{ "type": "Feature", "properties": { "Name": "19", "description": null, "timestamp": null, "begin": null, "end": null, "altitudeMode": null, "tessellate": -1, "extrude": 0, "visibility": -1, "drawOrder": null, "icon": null }, "geometry": { "type": "Point", "coordinates": [ -60.522351, -31.762751, 0.0 ] } },
{ "type": "Feature", "properties": { "Name": "20", "description": "Mapa creado por Paraná Online. Más info: https://www.paranaonline.com.ar/linea-m/", "timestamp": null, "begin": null, "end": null, "altitudeMode": null, "tessellate": -1, "extrude": 0, "visibility": -1, "drawOrder": null, "icon": null }, "geometry": { "type": "Point", "coordinates": [ -60.522937, -31.76552, 0.0 ] } },
{ "type": "Feature", "properties": { "Name": "21", "description": null, "timestamp": null, "begin": null, "end": null, "altitudeMode": null, "tessellate": -1, "extrude": 0, "visibility": -1, "drawOrder": null, "icon": null }, "geometry": { "type": "Point", "coordinates": [ -60.521992, -31.766707, 0.0 ] } },
{ "type": "Feature", "properties": { "Name": "22", "description": null, "timestamp": null, "begin": null, "end": null, "altitudeMode": null, "tessellate": -1, "extrude": 0, "visibility": -1, "drawOrder": null, "icon": null }, "geometry": { "type": "Point", "coordinates": [ -60.520491, -31.766931, 0.0 ] } },
{ "type": "Feature", "properties": { "Name": "23", "description": "Mapa creado por Paraná Online. Más info: https://www.paranaonline.com.ar/linea-m/", "timestamp": null, "begin": null, "end": null, "altitudeMode": null, "tessellate": -1, "extrude": 0, "visibility": -1, "drawOrder": null, "icon": null }, "geometry": { "type": "Point", "coordinates": [ -60.519029, -31.767159, 0.0 ] } },
{ "type": "Feature", "properties": { "Name": "24", "description": null, "timestamp": null, "begin": null, "end": null, "altitudeMode": null, "tessellate": -1, "extrude": 0, "visibility": -1, "drawOrder": null, "icon": null }, "geometry": { "type": "Point", "coordinates": [ -60.517722, -31.76801, 0.0 ] } },
{ "type": "Feature", "properties": { "Name": "25", "description": null, "timestamp": null, "begin": null, "end": null, "altitudeMode": null, "tessellate": -1, "extrude": 0, "visibility": -1, "drawOrder": null, "icon": null }, "geometry": { "type": "Point", "coordinates": [ -60.517898, -31.769283, 0.0 ] } },
{ "type": "Feature", "properties": { "Name": "26", "description": null, "timestamp": null, "begin": null, "end": null, "altitudeMode": null, "tessellate": -1, "extrude": 0, "visibility": -1, "drawOrder": null, "icon": null }, "geometry": { "type": "Point", "coordinates": [ -60.518345, -31.771421, 0.0 ] } },
{ "type": "Feature", "properties": { "Name": "27", "description": null, "timestamp": null, "begin": null, "end": null, "altitudeMode": null, "tessellate": -1, "extrude": 0, "visibility": -1, "drawOrder": null, "icon": null }, "geometry": { "type": "Point", "coordinates": [ -60.5175, -31.772417, 0.0 ] } },
{ "type": "Feature", "properties": { "Name": "28", "description": null, "timestamp": null, "begin": null, "end": null, "altitudeMode": null, "tessellate": -1, "extrude": 0, "visibility": -1, "drawOrder": null, "icon": null }, "geometry": { "type": "Point", "coordinates": [ -60.515352, -31.772849, 0.0 ] } },
{ "type": "Feature", "properties": { "Name": "29", "description": null, "timestamp": null, "begin": null, "end": null, "altitudeMode": null, "tessellate": -1, "extrude": 0, "visibility": -1, "drawOrder": null, "icon": null }, "geometry": { "type": "Point", "coordinates": [ -60.51291, -31.773172, 0.0 ] } },
{ "type": "Feature", "properties": { "Name": "30", "description": null, "timestamp": null, "begin": null, "end": null, "altitudeMode": null, "tessellate": -1, "extrude": 0, "visibility": -1, "drawOrder": null, "icon": null }, "geometry": { "type": "Point", "coordinates": [ -60.509512, -31.7738257, 0.0 ] } },
{ "type": "Feature", "properties": { "Name": "31", "description": null, "timestamp": null, "begin": null, "end": null, "altitudeMode": null, "tessellate": -1, "extrude": 0, "visibility": -1, "drawOrder": null, "icon": null }, "geometry": { "type": "Point", "coordinates": [ -60.5073034, -31.7741915, 0.0 ] } },
{ "type": "Feature", "properties": { "Name": "32", "description": null, "timestamp": null, "begin": null, "end": null, "altitudeMode": null, "tessellate": -1, "extrude": 0, "visibility": -1, "drawOrder": null, "icon": null }, "geometry": { "type": "Point", "coordinates": [ -60.5042565, -31.7746821, 0.0 ] } },
{ "type": "Feature", "properties": { "Name": "33", "description": "Mapa creado por Paraná Online. Más info: https://www.paranaonline.com.ar/linea-m/", "timestamp": null, "begin": null, "end": null, "altitudeMode": null, "tessellate": -1, "extrude": 0, "visibility": -1, "drawOrder": null, "icon": null }, "geometry": { "type": "Point", "coordinates": [ -60.5013833, -31.7751507, 0.0 ] } },
{ "type": "Feature", "properties": { "Name": "34", "description": null, "timestamp": null, "begin": null, "end": null, "altitudeMode": null, "tessellate": -1, "extrude": 0, "visibility": -1, "drawOrder": null, "icon": null }, "geometry": { "type": "Point", "coordinates": [ -60.5005005, -31.7727766, 0.0 ] } },
{ "type": "Feature", "properties": { "Name": "Punto 36", "description": null, "timestamp": null, "begin": null, "end": null, "altitudeMode": null, "tessellate": -1, "extrude": 0, "visibility": -1, "drawOrder": null, "icon": null }, "geometry": { "type": "Point", "coordinates": [ -60.5040143, -31.7730636, 0.0 ] } },
{ "type": "Feature", "properties": { "Name": "Punto 37", "description": null, "timestamp": null, "begin": null, "end": null, "altitudeMode": null, "tessellate": -1, "extrude": 0, "visibility": -1, "drawOrder": null, "icon": null }, "geometry": { "type": "Point", "coordinates": [ -60.5485501, -31.745038, 0.0 ] } },
{ "type": "Feature", "properties": { "Name": "Punto 38", "description": null, "timestamp": null, "begin": null, "end": null, "altitudeMode": null, "tessellate": -1, "extrude": 0, "visibility": -1, "drawOrder": null, "icon": null }, "geometry": { "type": "Point", "coordinates": [ -60.5478635, -31.7428482, 0.0 ] } },
{ "type": "Feature", "properties": { "Name": "Punto 39", "description": null, "timestamp": null, "begin": null, "end": null, "altitudeMode": null, "tessellate": -1, "extrude": 0, "visibility": -1, "drawOrder": null, "icon": null }, "geometry": { "type": "Point", "coordinates": [ -60.5500254, -31.7403026, 0.0 ] } },
{ "type": "Feature", "properties": { "Name": "Punto 40", "description": null, "timestamp": null, "begin": null, "end": null, "altitudeMode": null, "tessellate": -1, "extrude": 0, "visibility": -1, "drawOrder": null, "icon": null }, "geometry": { "type": "Point", "coordinates": [ -60.5532065, -31.7404896, 0.0 ] } },
{ "type": "Feature", "properties": { "Name": "Punto 41", "description": null, "timestamp": null, "begin": null, "end": null, "altitudeMode": null, "tessellate": -1, "extrude": 0, "visibility": -1, "drawOrder": null, "icon": null }, "geometry": { "type": "Point", "coordinates": [ -60.5542472, -31.7441575, 0.0 ] } },
{ "type": "Feature", "properties": { "Name": "Punto 42", "description": null, "timestamp": null, "begin": null, "end": null, "altitudeMode": null, "tessellate": -1, "extrude": 0, "visibility": -1, "drawOrder": null, "icon": null }, "geometry": { "type": "Point", "coordinates": [ -60.5539843, -31.7433113, 0.0 ] } }
]
}
