{
"type": "FeatureCollection",
"name": "linea_b_recorridos",
"crs": { "type": "name", "properties": { "name": "urn:ogc:def:crs:OGC:1.3:CRS84" } },
"features": [
{ "type": "Feature", "properties": { "fid": 1, "Name": "Bº Capibá > Centro", "description": "Mapa creado por Paraná Online. Más info: https://www.paranaonline.com.ar/linea-b/", "timestamp": null, "begin": null, "end": null, "altitudeMode": null, "tessellate": 1, "extrude": 0, "visibility": -1, "drawOrder": null, "icon": null }, "geometry": { "type": "LineString", "coordinates": [ [ -60.5049978, -31.7933657, 0.0 ], [ -60.5021493, -31.7798548, 0.0 ], [ -60.5195193, -31.7770275, 0.0 ], [ -60.5152438, -31.7574936, 0.0 ], [ -60.5211367, -31.756586, 0.0 ], [ -60.5220982, -31.7614756, 0.0 ], [ -60.5277611, -31.7606363, 0.0 ], [ -60.5334061, -31.7597286, 0.0 ], [ -60.5333012, -31.759431, 0.0 ], [ -60.5332151, -31.759122, 0.0 ], [ -60.533137, -31.7585838, 0.0 ], [ -60.5331121, -31.7581835, 0.0 ], [ -60.5330604, -31.757822, 0.0 ], [ -60.5328505, -31.7570444, 0.0 ], [ -60.5325578, -31.7556292, 0.0 ], [ -60.5324007, -31.7548715, 0.0 ], [ -60.5308443, -31.7551129, 0.0 ], [ -60.5304952, -31.7551287, 0.0 ], [ -60.5299559, -31.7552712, 0.0 ], [ -60.528439, -31.7555043, 0.0 ], [ -60.5267794, -31.7557828, 0.0 ], [ -60.5266432, -31.7557466, 0.0 ], [ -60.5258654, -31.7520473, 0.0 ], [ -60.5267004, -31.7510169, 0.0 ], [ -60.5286403, -31.7483169, 0.0 ], [ -60.5293679, -31.7473823, 0.0 ], [ -60.5303851, -31.7465845, 0.0 ], [ -60.533994, -31.7416406, 0.0 ], [ -60.5340785, -31.7415287, 0.0 ], [ -60.533841, -31.741353, 0.0 ], [ -60.5336236, -31.7411338, 0.0 ], [ -60.5332425, -31.7405859, 0.0 ], [ -60.5313753, -31.7371634, 0.0 ], [ -60.5307098, -31.7359216, 0.0 ], [ -60.5340356, -31.734516, 0.0 ], [ -60.5314256, -31.7279479, 0.0 ], [ -60.5299866, -31.7242166, 0.0 ], [ -60.531026, -31.7239348, 0.0 ] ] } },
{ "type": "Feature", "properties": { "fid": 2, "Name": "Centro > Bº Capibá", "description": "Mapa creado por Paraná Online. Más info: https://www.paranaonline.com.ar/linea-b/", "timestamp": null, "begin": null, "end": null, "altitudeMode": null, "tessellate": 1, "extrude": 0, "visibility": -1, "drawOrder": null, "icon": null }, "geometry": { "type": "LineString", "coordinates": [ [ -60.5310783, -31.723904, 0.0 ], [ -60.531512, -31.7248942, 0.0 ], [ -60.5320557, -31.7261194, 0.0 ], [ -60.532231, -31.7265883, 0.0 ], [ -60.5325619, -31.7274496, 0.0 ], [ -60.533237, -31.728798, 0.0 ], [ -60.5337848, -31.7298589, 0.0 ], [ -60.5342226, -31.7307317, 0.0 ], [ -60.5347073, -31.7317099, 0.0 ], [ -60.5351321, -31.7325937, 0.0 ], [ -60.5356919, -31.7338055, 0.0 ], [ -60.5361685, -31.7348371, 0.0 ], [ -60.5345391, -31.7356367, 0.0 ], [ -60.533383, -31.7361831, 0.0 ], [ -60.5339415, -31.7373305, 0.0 ], [ -60.5345185, -31.7383193, 0.0 ], [ -60.5350338, -31.7392078, 0.0 ], [ -60.5355126, -31.7400975, 0.0 ], [ -60.5356903, -31.7403849, 0.0 ], [ -60.536147, -31.7408867, 0.0 ], [ -60.5353182, -31.7416052, 0.0 ], [ -60.5349923, -31.7418254, 0.0 ], [ -60.5348327, -31.7418767, 0.0 ], [ -60.5344733, -31.7417079, 0.0 ], [ -60.5342065, -31.7415733, 0.0 ], [ -60.5340415, -31.74179, 0.0 ], [ -60.5331162, -31.7430308, 0.0 ], [ -60.5322592, -31.7442717, 0.0 ], [ -60.5305465, -31.7466439, 0.0 ], [ -60.5295729, -31.7473692, 0.0 ], [ -60.5293329, -31.7475859, 0.0 ], [ -60.529007, -31.748058, 0.0 ], [ -60.5279395, -31.7494904, 0.0 ], [ -60.5260297, -31.7521726, 0.0 ], [ -60.5259797, -31.7522593, 0.0 ], [ -60.526139, -31.753126, 0.0 ], [ -60.5263395, -31.7541021, 0.0 ], [ -60.5265098, -31.7548502, 0.0 ], [ -60.526711, -31.7557419, 0.0 ], [ -60.5283336, -31.7554751, 0.0 ], [ -60.5298382, -31.7552286, 0.0 ], [ -60.5324288, -31.7548292, 0.0 ], [ -60.5329681, -31.7572873, 0.0 ], [ -60.533109, -31.7577957, 0.0 ], [ -60.5331714, -31.7585448, 0.0 ], [ -60.5332643, -31.7591634, 0.0 ], [ -60.5334484, -31.7597865, 0.0 ], [ -60.5313631, -31.7601287, 0.0 ], [ -60.5295353, -31.760423, 0.0 ], [ -60.5277239, -31.7607009, 0.0 ], [ -60.5268324, -31.7608556, 0.0 ], [ -60.5252102, -31.7611009, 0.0 ], [ -60.522921, -31.7614434, 0.0 ], [ -60.5211383, -31.7617073, 0.0 ], [ -60.5189291, -31.7620717, 0.0 ], [ -60.5163643, -31.7624513, 0.0 ], [ -60.516426, -31.7627645, 0.0 ], [ -60.51654, -31.7633444, 0.0 ], [ -60.5167519, -31.7642945, 0.0 ], [ -60.5168645, -31.7649907, 0.0 ], [ -60.5169638, -31.7654918, 0.0 ], [ -60.5171113, -31.7661652, 0.0 ], [ -60.5174788, -31.7673157, 0.0 ], [ -60.517682, -31.7680628, 0.0 ], [ -60.5177671, -31.7688121, 0.0 ], [ -60.5179348, -31.769702, 0.0 ], [ -60.5180937, -31.7703419, 0.0 ], [ -60.5181802, -31.7707903, 0.0 ], [ -60.5184739, -31.7721682, 0.0 ], [ -60.5185982, -31.7727134, 0.0 ], [ -60.5187708, -31.7734753, 0.0 ], [ -60.5190033, -31.7745636, 0.0 ], [ -60.5190766, -31.7748841, 0.0 ], [ -60.5191551, -31.7752137, 0.0 ], [ -60.5192909, -31.7758274, 0.0 ], [ -60.519573, -31.7770182, 0.0 ], [ -60.5194923, -31.7770668, 0.0 ], [ -60.5193425, -31.7770925, 0.0 ], [ -60.5188244, -31.7771771, 0.0 ], [ -60.5180482, -31.7773063, 0.0 ], [ -60.5170967, -31.777453, 0.0 ], [ -60.5165885, -31.7775139, 0.0 ], [ -60.5160296, -31.7776112, 0.0 ], [ -60.5154687, -31.7777131, 0.0 ], [ -60.5149867, -31.7777953, 0.0 ], [ -60.5145904, -31.7778559, 0.0 ], [ -60.5137161, -31.7779907, 0.0 ], [ -60.5133387, -31.7780509, 0.0 ], [ -60.5129489, -31.7781139, 0.0 ], [ -60.5122082, -31.7782331, 0.0 ], [ -60.5107911, -31.7784613, 0.0 ], [ -60.5104481, -31.7785176, 0.0 ], [ -60.5100876, -31.7785757, 0.0 ], [ -60.5094103, -31.7786849, 0.0 ], [ -60.5080355, -31.7789056, 0.0 ], [ -60.5076813, -31.7789635, 0.0 ], [ -60.5073002, -31.7790254, 0.0 ], [ -60.5065603, -31.7791445, 0.0 ], [ -60.5051266, -31.7793765, 0.0 ], [ -60.5022184, -31.7798741, 0.0 ], [ -60.5022731, -31.780162, 0.0 ], [ -60.5024524, -31.7810871, 0.0 ], [ -60.5027066, -31.7822556, 0.0 ], [ -60.5030083, -31.7836031, 0.0 ], [ -60.5031434, -31.784201, 0.0 ], [ -60.5032271, -31.7847052, 0.0 ], [ -60.5033349, -31.7852162, 0.0 ], [ -60.5036269, -31.7865061, 0.0 ], [ -60.5038841, -31.7878005, 0.0 ], [ -60.5044218, -31.7903471, 0.0 ], [ -60.5049127, -31.7927158, 0.0 ], [ -60.506408, -31.7924832, 0.0 ], [ -60.506573, -31.7932994, 0.0 ], [ -60.5050227, -31.7935274, 0.0 ], [ -60.5049898, -31.7933657, 0.0 ] ] } }
]
}
