{
"type": "FeatureCollection",
"name": "linea_l_recorridos",
"crs": { "type": "name", "properties": { "name": "urn:ogc:def:crs:OGC:1.3:CRS84" } },
"features": [
{ "type": "Feature", "properties": { "Name": "Paracao > Centro > Don Bosco", "description": "Mapa creado por Paraná Online. Más info: https://www.paranaonline.com.ar/linea-l/", "timestamp": null, "begin": null, "end": null, "altitudeMode": null, "tessellate": 1, "extrude": 0, "visibility": -1, "drawOrder": null, "icon": null }, "geometry": { "type": "LineString", "coordinates": [ [ -60.5355464, -31.7694752, 0.0 ], [ -60.5353989, -31.7687433, 0.0 ], [ -60.5351974, -31.7678846, 0.0 ], [ -60.5345845, -31.7648571, 0.0 ], [ -60.5344642, -31.7645375, 0.0 ], [ -60.5344222, -31.7642516, 0.0 ], [ -60.5341451, -31.7628952, 0.0 ], [ -60.5339448, -31.7617241, 0.0 ], [ -60.5336345, -31.760119, 0.0 ], [ -60.5333674, -31.7597603, 0.0 ], [ -60.5331324, -31.7589155, 0.0 ], [ -60.5330616, -31.7581031, 0.0 ], [ -60.533057, -31.7580264, 0.0 ], [ -60.5330063, -31.7579157, 0.0 ], [ -60.5329648, -31.7576245, 0.0 ], [ -60.5328826, -31.7571589, 0.0 ], [ -60.5327703, -31.7567057, 0.0 ], [ -60.5327206, -31.7564901, 0.0 ], [ -60.5326714, -31.7562829, 0.0 ], [ -60.5319989, -31.7533696, 0.0 ], [ -60.532412, -31.752821, 0.0 ], [ -60.533437, -31.751478, 0.0 ], [ -60.534446, -31.750163, 0.0 ], [ -60.535334, -31.749076, 0.0 ], [ -60.536191, -31.748057, 0.0 ], [ -60.537019, -31.747198, 0.0 ], [ -60.537507, -31.746712, 0.0 ], [ -60.538006, -31.746414, 0.0 ], [ -60.538285, -31.746272, 0.0 ], [ -60.539192, -31.745705, 0.0 ], [ -60.538942, -31.744357, 0.0 ], [ -60.540994, -31.744061, 0.0 ], [ -60.5406928, -31.7428667, 0.0 ], [ -60.540338, -31.741645, 0.0 ], [ -60.541624, -31.741426, 0.0 ], [ -60.543221, -31.74007, 0.0 ], [ -60.541165, -31.738376, 0.0 ], [ -60.542324, -31.737794, 0.0 ], [ -60.543501, -31.737182, 0.0 ], [ -60.544304, -31.73679, 0.0 ], [ -60.545074, -31.7364, 0.0 ], [ -60.546121, -31.737677, 0.0 ], [ -60.5464687, -31.7374058, 0.0 ], [ -60.5462306, -31.736164, 0.0 ], [ -60.546038, -31.735067, 0.0 ], [ -60.545452, -31.732698, 0.0 ], [ -60.545402, -31.732404, 0.0 ], [ -60.54527, -31.73251, 0.0 ], [ -60.544353, -31.733507, 0.0 ], [ -60.543891, -31.733891, 0.0 ], [ -60.543353, -31.7343, 0.0 ], [ -60.543115, -31.734116, 0.0 ], [ -60.542535, -31.73374, 0.0 ], [ -60.54182, -31.733305, 0.0 ], [ -60.541552, -31.73317, 0.0 ], [ -60.541189, -31.733096, 0.0 ], [ -60.540779, -31.733057, 0.0 ], [ -60.540532, -31.733074, 0.0 ], [ -60.540125, -31.733178, 0.0 ], [ -60.53998, -31.733207, 0.0 ], [ -60.538894, -31.733519, 0.0 ], [ -60.537675, -31.73411, 0.0 ], [ -60.537349, -31.733374, 0.0 ], [ -60.537242, -31.733056, 0.0 ], [ -60.537011, -31.732608, 0.0 ], [ -60.536221, -31.731194, 0.0 ], [ -60.534654, -31.731771, 0.0 ], [ -60.533154, -31.732343, 0.0 ], [ -60.532712, -31.731213, 0.0 ], [ -60.532317, -31.730255, 0.0 ], [ -60.53197, -31.729336, 0.0 ], [ -60.531388, -31.727868, 0.0 ], [ -60.531016, -31.726825, 0.0 ], [ -60.530666, -31.725905, 0.0 ], [ -60.529605, -31.727101, 0.0 ], [ -60.52645, -31.727876, 0.0 ], [ -60.521742, -31.729119, 0.0 ], [ -60.524225, -31.7338528, 0.0 ], [ -60.5251042, -31.7354294, 0.0 ], [ -60.5243678, -31.7357163, 0.0 ], [ -60.5242973, -31.7358735, 0.0 ], [ -60.5238138, -31.7363363, 0.0 ], [ -60.5227636, -31.7373054, 0.0 ], [ -60.5226274, -31.7375298, 0.0 ], [ -60.5216044, -31.7384587, 0.0 ], [ -60.5211608, -31.7389131, 0.0 ], [ -60.5196922, -31.7403315, 0.0 ], [ -60.5187674, -31.7413532, 0.0 ], [ -60.5180582, -31.742448, 0.0 ], [ -60.5178828, -31.7424889, 0.0 ], [ -60.5174343, -31.7401791, 0.0 ], [ -60.5169321, -31.7378418, 0.0 ], [ -60.5162262, -31.7346332, 0.0 ], [ -60.5158957, -31.7329575, 0.0 ], [ -60.5144839, -31.73321, 0.0 ], [ -60.5137458, -31.7332974, 0.0 ], [ -60.5130613, -31.7334031, 0.0 ], [ -60.5103074, -31.7338259, 0.0 ] ] } },
{ "type": "Feature", "properties": { "Name": "Don Bosco > Centro > Paracao", "description": "Mapa creado por Paraná Online. Más info: https://www.paranaonline.com.ar/linea-l/", "timestamp": null, "begin": null, "end": null, "altitudeMode": null, "tessellate": 1, "extrude": 0, "visibility": -1, "drawOrder": null, "icon": null }, "geometry": { "type": "LineString", "coordinates": [ [ -60.5103074, -31.7338259, 0.0 ], [ -60.5097649, -31.7313985, 0.0 ], [ -60.509373, -31.7296076, 0.0 ], [ -60.5092588, -31.7290018, 0.0 ], [ -60.50914, -31.7289453, 0.0 ], [ -60.5089086, -31.728063, 0.0 ], [ -60.5086203, -31.7265845, 0.0 ], [ -60.5099503, -31.7263461, 0.0 ], [ -60.5116022, -31.7260917, 0.0 ], [ -60.5117842, -31.7270521, 0.0 ], [ -60.5118457, -31.727254, 0.0 ], [ -60.5120911, -31.7285115, 0.0 ], [ -60.5148255, -31.7280946, 0.0 ], [ -60.5186361, -31.7274921, 0.0 ], [ -60.522039, -31.726561, 0.0 ], [ -60.531069, -31.723928, 0.0 ], [ -60.531998, -31.726002, 0.0 ], [ -60.532473, -31.727196, 0.0 ], [ -60.532587, -31.727537, 0.0 ], [ -60.532819, -31.728015, 0.0 ], [ -60.534713, -31.73176, 0.0 ], [ -60.535677, -31.733828, 0.0 ], [ -60.536182, -31.734897, 0.0 ], [ -60.53668, -31.73595, 0.0 ], [ -60.538052, -31.735257, 0.0 ], [ -60.539346, -31.734539, 0.0 ], [ -60.540091, -31.734127, 0.0 ], [ -60.540179, -31.733948, 0.0 ], [ -60.540347, -31.733853, 0.0 ], [ -60.54011, -31.733156, 0.0 ], [ -60.54053, -31.733047, 0.0 ], [ -60.540776, -31.733019, 0.0 ], [ -60.5412, -31.733053, 0.0 ], [ -60.541382, -31.733088, 0.0 ], [ -60.541566, -31.733136, 0.0 ], [ -60.541734, -31.733208, 0.0 ], [ -60.542406, -31.73361, 0.0 ], [ -60.543166, -31.734098, 0.0 ], [ -60.543339, -31.734244, 0.0 ], [ -60.543837, -31.733872, 0.0 ], [ -60.544338, -31.733467, 0.0 ], [ -60.544646, -31.733116, 0.0 ], [ -60.545186, -31.732527, 0.0 ], [ -60.545326, -31.732401, 0.0 ], [ -60.545431, -31.732341, 0.0 ], [ -60.545552, -31.732733, 0.0 ], [ -60.5457752, -31.7337951, 0.0 ], [ -60.545867, -31.7342117, 0.0 ], [ -60.5460578, -31.7350437, 0.0 ], [ -60.5460152, -31.7350887, 0.0 ], [ -60.545837, -31.735124, 0.0 ], [ -60.544575, -31.735788, 0.0 ], [ -60.545093, -31.736425, 0.0 ], [ -60.54231, -31.737861, 0.0 ], [ -60.541248, -31.738399, 0.0 ], [ -60.5403761, -31.7388267, 0.0 ], [ -60.5395129, -31.7392866, 0.0 ], [ -60.5402122, -31.7398374, 0.0 ], [ -60.5412468, -31.7406963, 0.0 ], [ -60.5412671, -31.7408276, 0.0 ], [ -60.5412442, -31.7410921, 0.0 ], [ -60.541307, -31.741603, 0.0 ], [ -60.541545, -31.742727, 0.0 ], [ -60.541744, -31.743657, 0.0 ], [ -60.5417903, -31.7439848, 0.0 ], [ -60.537716, -31.744596, 0.0 ], [ -60.5361687, -31.7448237, 0.0 ], [ -60.536631, -31.746855, 0.0 ], [ -60.536781, -31.747512, 0.0 ], [ -60.536234, -31.748086, 0.0 ], [ -60.535462, -31.748996, 0.0 ], [ -60.534708, -31.749923, 0.0 ], [ -60.53445, -31.750233, 0.0 ], [ -60.53396, -31.750869, 0.0 ], [ -60.532885, -31.752273, 0.0 ], [ -60.532298, -31.753037, 0.0 ], [ -60.532063, -31.753352, 0.0 ], [ -60.5321646, -31.7538002, 0.0 ], [ -60.5323253, -31.7545568, 0.0 ], [ -60.5328941, -31.7570803, 0.0 ], [ -60.5331141, -31.7578996, 0.0 ], [ -60.5331518, -31.758573, 0.0 ], [ -60.5332389, -31.7591462, 0.0 ], [ -60.5333556, -31.7595372, 0.0 ], [ -60.5334753, -31.7597989, 0.0 ], [ -60.5337162, -31.7600719, 0.0 ], [ -60.5338631, -31.7609721, 0.0 ], [ -60.5341123, -31.762328, 0.0 ], [ -60.5342949, -31.7633476, 0.0 ], [ -60.5345375, -31.7645911, 0.0 ], [ -60.5345767, -31.7646944, 0.0 ], [ -60.5347458, -31.7654209, 0.0 ], [ -60.5350597, -31.7670091, 0.0 ], [ -60.535596, -31.769471, 0.0 ] ] } },
{ "type": "Feature", "properties": { "Name": "Bº 500 Viviendas -> Centro", "description": "Mapa creado por Paraná Online. Más info: https://www.paranaonline.com.ar/linea-l/", "timestamp": null, "begin": null, "end": null, "altitudeMode": null, "tessellate": 1, "extrude": 0, "visibility": -1, "drawOrder": null, "icon": null }, "geometry": { "type": "LineString", "coordinates": [ [ -60.5487369, -31.7758871, 0.0 ], [ -60.5482916, -31.7739808, 0.0 ], [ -60.5479845, -31.7724987, 0.0 ], [ -60.5498653, -31.7722118, 0.0 ], [ -60.5514548, -31.7719657, 0.0 ], [ -60.5526358, -31.7717845, 0.0 ], [ -60.553806, -31.7715919, 0.0 ], [ -60.5532756, -31.7691457, 0.0 ], [ -60.5530399, -31.7679681, 0.0 ], [ -60.5529006, -31.7673121, 0.0 ], [ -60.5527479, -31.7667724, 0.0 ], [ -60.5469864, -31.7676908, 0.0 ], [ -60.543384, -31.7682342, 0.0 ], [ -60.5412999, -31.7685561, 0.0 ], [ -60.5382864, -31.7690567, 0.0 ], [ -60.5373952, -31.7691839, 0.0 ], [ -60.5365512, -31.7693672, 0.0 ], [ -60.535617, -31.7695113, 0.0 ], [ -60.5355464, -31.7694752, 0.0 ] ] } },
{ "type": "Feature", "properties": { "Name": "Bº Los Berros > Centro", "description": "Mapa creado por Paraná Online. Más info: https://www.paranaonline.com.ar/linea-l/", "timestamp": null, "begin": null, "end": null, "altitudeMode": null, "tessellate": 1, "extrude": 0, "visibility": -1, "drawOrder": null, "icon": null }, "geometry": { "type": "LineString", "coordinates": [ [ -60.5355464, -31.7694752, 0.0 ], [ -60.5344726, -31.7696555, 0.0 ], [ -60.5341802, -31.7696623, 0.0 ], [ -60.532756, -31.7698972, 0.0 ], [ -60.5308623, -31.7702028, 0.0 ], [ -60.529886, -31.7703647, 0.0 ], [ -60.5298404, -31.7704331, 0.0 ], [ -60.5301033, -31.7716051, 0.0 ], [ -60.5304224, -31.7730486, 0.0 ], [ -60.5308838, -31.7751509, 0.0 ], [ -60.5312405, -31.7767927, 0.0 ], [ -60.5314685, -31.7777275, 0.0 ], [ -60.531675, -31.7787992, 0.0 ], [ -60.5317126, -31.7790865, 0.0 ], [ -60.5318467, -31.7796611, 0.0 ], [ -60.5319808, -31.7801137, 0.0 ], [ -60.5321793, -31.7800874, 0.0 ] ] } },
{ "type": "Feature", "properties": { "Name": "Centro -> Bº 500 Viviendas", "description": "Mapa creado por Paraná Online. Más info: https://www.paranaonline.com.ar/linea-l/", "timestamp": null, "begin": null, "end": null, "altitudeMode": null, "tessellate": 1, "extrude": 0, "visibility": -1, "drawOrder": null, "icon": null }, "geometry": { "type": "LineString", "coordinates": [ [ -60.535596, -31.769471, 0.0 ], [ -60.5365415, -31.7693271, 0.0 ], [ -60.5373878, -31.7691467, 0.0 ], [ -60.5378868, -31.7690801, 0.0 ], [ -60.5410332, -31.7685592, 0.0 ], [ -60.5418052, -31.768437, 0.0 ], [ -60.5442228, -31.7680639, 0.0 ], [ -60.5466894, -31.7676893, 0.0 ], [ -60.5493425, -31.7672645, 0.0 ], [ -60.5527452, -31.7667416, 0.0 ], [ -60.5527988, -31.7668013, 0.0 ], [ -60.5529288, -31.7672441, 0.0 ], [ -60.5530923, -31.7679678, 0.0 ], [ -60.5533253, -31.7691529, 0.0 ], [ -60.5535745, -31.770326, 0.0 ], [ -60.5538478, -31.7716326, 0.0 ], [ -60.5514233, -31.7720129, 0.0 ], [ -60.5480333, -31.7725322, 0.0 ], [ -60.5483408, -31.7739898, 0.0 ], [ -60.5487851, -31.7758714, 0.0 ] ] } },
{ "type": "Feature", "properties": { "Name": "Centro > Bº Los Berros", "description": "Mapa creado por Paraná Online. Más info: https://www.paranaonline.com.ar/linea-l/", "timestamp": null, "begin": null, "end": null, "altitudeMode": null, "tessellate": 1, "extrude": 0, "visibility": -1, "drawOrder": null, "icon": null }, "geometry": { "type": "LineString", "coordinates": [ [ -60.535596, -31.769471, 0.0 ], [ -60.5355295, -31.7695244, 0.0 ], [ -60.5344861, -31.7696954, 0.0 ], [ -60.5341964, -31.7697023, 0.0 ], [ -60.5327909, -31.7699371, 0.0 ], [ -60.5298834, -31.7704115, 0.0 ], [ -60.5301302, -31.7715448, 0.0 ], [ -60.5302965, -31.7722494, 0.0 ], [ -60.5307015, -31.7740941, 0.0 ], [ -60.5310368, -31.7756515, 0.0 ], [ -60.5312782, -31.7767414, 0.0 ], [ -60.5315866, -31.7780844, 0.0 ], [ -60.5316966, -31.7787, 0.0 ], [ -60.5317636, -31.7791036, 0.0 ], [ -60.531887, -31.7796463, 0.0 ], [ -60.5320131, -31.780059, 0.0 ] ] } }
]
}
