{
"type": "FeatureCollection",
"name": "linea_e_paradas_ramirez_pmayor",
"crs": { "type": "name", "properties": { "name": "urn:ogc:def:crs:OGC:1.3:CRS84" } },
"features": [
{ "type": "Feature", "properties": { "Name": "02", "description": "Mapa creado por Paraná Online. Más info: https://www.paranaonline.com.ar/linea-e/", "timestamp": null, "begin": null, "end": null, "altitudeMode": null, "tessellate": -1, "extrude": 0, "visibility": -1, "drawOrder": null, "icon": null }, "geometry": { "type": "Point", "coordinates": [ -60.545933, -31.722108, 0.0 ] } },
{ "type": "Feature", "properties": { "Name": "03", "description": null, "timestamp": null, "begin": null, "end": null, "altitudeMode": null, "tessellate": -1, "extrude": 0, "visibility": -1, "drawOrder": null, "icon": null }, "geometry": { "type": "Point", "coordinates": [ -60.540558, -31.715884, 0.0 ] } },
{ "type": "Feature", "properties": { "Name": "04", "description": null, "timestamp": null, "begin": null, "end": null, "altitudeMode": null, "tessellate": -1, "extrude": 0, "visibility": -1, "drawOrder": null, "icon": null }, "geometry": { "type": "Point", "coordinates": [ -60.539872, -31.716997, 0.0 ] } },
{ "type": "Feature", "properties": { "Name": "05", "description": null, "timestamp": null, "begin": null, "end": null, "altitudeMode": null, "tessellate": -1, "extrude": 0, "visibility": -1, "drawOrder": null, "icon": null }, "geometry": { "type": "Point", "coordinates": [ -60.53864, -31.718652, 0.0 ] } },
{ "type": "Feature", "properties": { "Name": "06", "description": null, "timestamp": null, "begin": null, "end": null, "altitudeMode": null, "tessellate": -1, "extrude": 0, "visibility": -1, "drawOrder": null, "icon": null }, "geometry": { "type": "Point", "coordinates": [ -60.537095, -31.719048, 0.0 ] } },
{ "type": "Feature", "properties": { "Name": "07", "description": "Mapa creado por Paraná Online. Más info: https://www.paranaonline.com.ar/linea-e/", "timestamp": null, "begin": null, "end": null, "altitudeMode": null, "tessellate": -1, "extrude": 0, "visibility": -1, "drawOrder": null, "icon": null }, "geometry": { "type": "Point", "coordinates": [ -60.53424, -31.722045, 0.0 ] } },
{ "type": "Feature", "properties": { "Name": "11", "description": null, "timestamp": null, "begin": null, "end": null, "altitudeMode": null, "tessellate": -1, "extrude": 0, "visibility": -1, "drawOrder": null, "icon": null }, "geometry": { "type": "Point", "coordinates": [ -60.5311494, -31.7254931, 0.0 ] } },
{ "type": "Feature", "properties": { "Name": "12", "description": "Mapa creado por Paraná Online. Más info: https://www.paranaonline.com.ar/linea-e/", "timestamp": null, "begin": null, "end": null, "altitudeMode": null, "tessellate": -1, "extrude": 0, "visibility": -1, "drawOrder": null, "icon": null }, "geometry": { "type": "Point", "coordinates": [ -60.529121, -31.727246, 0.0 ] } },
{ "type": "Feature", "properties": { "Name": "13", "description": null, "timestamp": null, "begin": null, "end": null, "altitudeMode": null, "tessellate": -1, "extrude": 0, "visibility": -1, "drawOrder": null, "icon": null }, "geometry": { "type": "Point", "coordinates": [ -60.524851, -31.728368, 0.0 ] } },
{ "type": "Feature", "properties": { "Name": "14", "description": null, "timestamp": null, "begin": null, "end": null, "altitudeMode": null, "tessellate": -1, "extrude": 0, "visibility": -1, "drawOrder": null, "icon": null }, "geometry": { "type": "Point", "coordinates": [ -60.521879, -31.729089, 0.0 ] } },
{ "type": "Feature", "properties": { "Name": "15", "description": null, "timestamp": null, "begin": null, "end": null, "altitudeMode": null, "tessellate": -1, "extrude": 0, "visibility": -1, "drawOrder": null, "icon": null }, "geometry": { "type": "Point", "coordinates": [ -60.522232, -31.730328, 0.0 ] } },
{ "type": "Feature", "properties": { "Name": "16", "description": null, "timestamp": null, "begin": null, "end": null, "altitudeMode": null, "tessellate": -1, "extrude": 0, "visibility": -1, "drawOrder": null, "icon": null }, "geometry": { "type": "Point", "coordinates": [ -60.524216, -31.733898, 0.0 ] } },
{ "type": "Feature", "properties": { "Name": "17", "description": null, "timestamp": null, "begin": null, "end": null, "altitudeMode": null, "tessellate": -1, "extrude": 0, "visibility": -1, "drawOrder": null, "icon": null }, "geometry": { "type": "Point", "coordinates": [ -60.524218, -31.735951, 0.0 ] } },
{ "type": "Feature", "properties": { "Name": "18", "description": null, "timestamp": null, "begin": null, "end": null, "altitudeMode": null, "tessellate": -1, "extrude": 0, "visibility": -1, "drawOrder": null, "icon": null }, "geometry": { "type": "Point", "coordinates": [ -60.52322, -31.738031, 0.0 ] } },
{ "type": "Feature", "properties": { "Name": "19", "description": null, "timestamp": null, "begin": null, "end": null, "altitudeMode": null, "tessellate": -1, "extrude": 0, "visibility": -1, "drawOrder": null, "icon": null }, "geometry": { "type": "Point", "coordinates": [ -60.524811, -31.740458, 0.0 ] } },
{ "type": "Feature", "properties": { "Name": "20", "description": null, "timestamp": null, "begin": null, "end": null, "altitudeMode": null, "tessellate": -1, "extrude": 0, "visibility": -1, "drawOrder": null, "icon": null }, "geometry": { "type": "Point", "coordinates": [ -60.525237, -31.743816, 0.0 ] } },
{ "type": "Feature", "properties": { "Name": "21", "description": "Mapa creado por Paraná Online. Más info: https://www.paranaonline.com.ar/linea-e/", "timestamp": null, "begin": null, "end": null, "altitudeMode": null, "tessellate": -1, "extrude": 0, "visibility": -1, "drawOrder": null, "icon": null }, "geometry": { "type": "Point", "coordinates": [ -60.523439, -31.745453, 0.0 ] } },
{ "type": "Feature", "properties": { "Name": "22", "description": null, "timestamp": null, "begin": null, "end": null, "altitudeMode": null, "tessellate": -1, "extrude": 0, "visibility": -1, "drawOrder": null, "icon": null }, "geometry": { "type": "Point", "coordinates": [ -60.52116, -31.747146, 0.0 ] } },
{ "type": "Feature", "properties": { "Name": "23", "description": null, "timestamp": null, "begin": null, "end": null, "altitudeMode": null, "tessellate": -1, "extrude": 0, "visibility": -1, "drawOrder": null, "icon": null }, "geometry": { "type": "Point", "coordinates": [ -60.519301, -31.74835, 0.0 ] } },
{ "type": "Feature", "properties": { "Name": "24", "description": "Mapa creado por Paraná Online. Más info: https://www.paranaonline.com.ar/linea-e/", "timestamp": null, "begin": null, "end": null, "altitudeMode": null, "tessellate": -1, "extrude": 0, "visibility": -1, "drawOrder": null, "icon": null }, "geometry": { "type": "Point", "coordinates": [ -60.516589, -31.750502, 0.0 ] } },
{ "type": "Feature", "properties": { "Name": "25", "description": null, "timestamp": null, "begin": null, "end": null, "altitudeMode": null, "tessellate": -1, "extrude": 0, "visibility": -1, "drawOrder": null, "icon": null }, "geometry": { "type": "Point", "coordinates": [ -60.513498, -31.749419, 0.0 ] } },
{ "type": "Feature", "properties": { "Name": "26", "description": null, "timestamp": null, "begin": null, "end": null, "altitudeMode": null, "tessellate": -1, "extrude": 0, "visibility": -1, "drawOrder": null, "icon": null }, "geometry": { "type": "Point", "coordinates": [ -60.511865, -31.750335, 0.0 ] } },
{ "type": "Feature", "properties": { "Name": "27", "description": null, "timestamp": null, "begin": null, "end": null, "altitudeMode": null, "tessellate": -1, "extrude": 0, "visibility": -1, "drawOrder": null, "icon": null }, "geometry": { "type": "Point", "coordinates": [ -60.510659, -31.751131, 0.0 ] } },
{ "type": "Feature", "properties": { "Name": "28", "description": null, "timestamp": null, "begin": null, "end": null, "altitudeMode": null, "tessellate": -1, "extrude": 0, "visibility": -1, "drawOrder": null, "icon": null }, "geometry": { "type": "Point", "coordinates": [ -60.508535, -31.751894, 0.0 ] } },
{ "type": "Feature", "properties": { "Name": "29", "description": null, "timestamp": null, "begin": null, "end": null, "altitudeMode": null, "tessellate": -1, "extrude": 0, "visibility": -1, "drawOrder": null, "icon": null }, "geometry": { "type": "Point", "coordinates": [ -60.508612, -31.75405, 0.0 ] } },
{ "type": "Feature", "properties": { "Name": "30", "description": null, "timestamp": null, "begin": null, "end": null, "altitudeMode": null, "tessellate": -1, "extrude": 0, "visibility": -1, "drawOrder": null, "icon": null }, "geometry": { "type": "Point", "coordinates": [ -60.509177, -31.756408, 0.0 ] } },
{ "type": "Feature", "properties": { "Name": "31", "description": null, "timestamp": null, "begin": null, "end": null, "altitudeMode": null, "tessellate": -1, "extrude": 0, "visibility": -1, "drawOrder": null, "icon": null }, "geometry": { "type": "Point", "coordinates": [ -60.509495, -31.757676, 0.0 ] } },
{ "type": "Feature", "properties": { "Name": "32", "description": null, "timestamp": null, "begin": null, "end": null, "altitudeMode": null, "tessellate": -1, "extrude": 0, "visibility": -1, "drawOrder": null, "icon": null }, "geometry": { "type": "Point", "coordinates": [ -60.509981, -31.760082, 0.0 ] } },
{ "type": "Feature", "properties": { "Name": "33", "description": null, "timestamp": null, "begin": null, "end": null, "altitudeMode": null, "tessellate": -1, "extrude": 0, "visibility": -1, "drawOrder": null, "icon": null }, "geometry": { "type": "Point", "coordinates": [ -60.510736, -31.76313, 0.0 ] } },
{ "type": "Feature", "properties": { "Name": "34", "description": "Mapa creado por Paraná Online. Más info: https://www.paranaonline.com.ar/linea-e/", "timestamp": null, "begin": null, "end": null, "altitudeMode": null, "tessellate": -1, "extrude": 0, "visibility": -1, "drawOrder": null, "icon": null }, "geometry": { "type": "Point", "coordinates": [ -60.510804, -31.764191, 0.0 ] } },
{ "type": "Feature", "properties": { "Name": "35", "description": null, "timestamp": null, "begin": null, "end": null, "altitudeMode": null, "tessellate": -1, "extrude": 0, "visibility": -1, "drawOrder": null, "icon": null }, "geometry": { "type": "Point", "coordinates": [ -60.511181, -31.765991, 0.0 ] } },
{ "type": "Feature", "properties": { "Name": "36", "description": null, "timestamp": null, "begin": null, "end": null, "altitudeMode": null, "tessellate": -1, "extrude": 0, "visibility": -1, "drawOrder": null, "icon": null }, "geometry": { "type": "Point", "coordinates": [ -60.511716, -31.768127, 0.0 ] } },
{ "type": "Feature", "properties": { "Name": "37", "description": null, "timestamp": null, "begin": null, "end": null, "altitudeMode": null, "tessellate": -1, "extrude": 0, "visibility": -1, "drawOrder": null, "icon": null }, "geometry": { "type": "Point", "coordinates": [ -60.510177, -31.768571, 0.0 ] } },
{ "type": "Feature", "properties": { "Name": "38", "description": null, "timestamp": null, "begin": null, "end": null, "altitudeMode": null, "tessellate": -1, "extrude": 0, "visibility": -1, "drawOrder": null, "icon": null }, "geometry": { "type": "Point", "coordinates": [ -60.508351, -31.768868, 0.0 ] } },
{ "type": "Feature", "properties": { "Name": "39", "description": null, "timestamp": null, "begin": null, "end": null, "altitudeMode": null, "tessellate": -1, "extrude": 0, "visibility": -1, "drawOrder": null, "icon": null }, "geometry": { "type": "Point", "coordinates": [ -60.506106, -31.769218, 0.0 ] } },
{ "type": "Feature", "properties": { "Name": "40", "description": null, "timestamp": null, "begin": null, "end": null, "altitudeMode": null, "tessellate": -1, "extrude": 0, "visibility": -1, "drawOrder": null, "icon": null }, "geometry": { "type": "Point", "coordinates": [ -60.506362, -31.770753, 0.0 ] } },
{ "type": "Feature", "properties": { "Name": "41", "description": null, "timestamp": null, "begin": null, "end": null, "altitudeMode": null, "tessellate": -1, "extrude": 0, "visibility": -1, "drawOrder": null, "icon": null }, "geometry": { "type": "Point", "coordinates": [ -60.504962, -31.771066, 0.0 ] } },
{ "type": "Feature", "properties": { "Name": "42", "description": "Mapa creado por Paraná Online. Más info: https://www.paranaonline.com.ar/linea-e/", "timestamp": null, "begin": null, "end": null, "altitudeMode": null, "tessellate": -1, "extrude": 0, "visibility": -1, "drawOrder": null, "icon": null }, "geometry": { "type": "Point", "coordinates": [ -60.503579, -31.771328, 0.0 ] } },
{ "type": "Feature", "properties": { "Name": "43", "description": null, "timestamp": null, "begin": null, "end": null, "altitudeMode": null, "tessellate": -1, "extrude": 0, "visibility": -1, "drawOrder": null, "icon": null }, "geometry": { "type": "Point", "coordinates": [ -60.503773, -31.773131, 0.0 ] } }
]
}
