{
"type": "FeatureCollection",
"name": "linea_m_recorridos",
"crs": { "type": "name", "properties": { "name": "urn:ogc:def:crs:OGC:1.3:CRS84" } },
"features": [
{ "type": "Feature", "properties": { "Name": "Parque Mayor > A. Medina", "description": "Mapa creado por Paraná Online. Más info: https://www.paranaonline.com.ar/linea-m/", "timestamp": null, "begin": null, "end": null, "altitudeMode": null, "tessellate": 1, "extrude": 0, "visibility": -1, "drawOrder": null, "icon": null }, "geometry": { "type": "LineString", "coordinates": [ [ -60.5037673, -31.7731188, 0.0 ], [ -60.5036634, -31.7721228, 0.0 ], [ -60.5006298, -31.7726164, 0.0 ], [ -60.5011622, -31.7749976, 0.0 ], [ -60.5025535, -31.7747495, 0.0 ], [ -60.5040305, -31.7745173, 0.0 ], [ -60.5070088, -31.7740072, 0.0 ], [ -60.514419, -31.772818, 0.0 ], [ -60.515833, -31.772579, 0.0 ], [ -60.517304, -31.772344, 0.0 ], [ -60.518464, -31.772147, 0.0 ], [ -60.517824, -31.769447, 0.0 ], [ -60.517627, -31.768116, 0.0 ], [ -60.517444, -31.767312, 0.0 ], [ -60.522984, -31.766414, 0.0 ], [ -60.521828, -31.761404, 0.0 ], [ -60.520877, -31.756167, 0.0 ], [ -60.520574, -31.754777, 0.0 ], [ -60.520302, -31.753538, 0.0 ], [ -60.520443, -31.753519, 0.0 ], [ -60.522197, -31.754594, 0.0 ], [ -60.523857, -31.752313, 0.0 ], [ -60.524766, -31.751036, 0.0 ], [ -60.525524, -31.750324, 0.0 ], [ -60.52526, -31.749165, 0.0 ], [ -60.524718, -31.746556, 0.0 ], [ -60.528253, -31.745972, 0.0 ], [ -60.528626, -31.745882, 0.0 ], [ -60.528849, -31.745617, 0.0 ], [ -60.5305985, -31.7431576, 0.0 ], [ -60.530407, -31.74193, 0.0 ], [ -60.530113, -31.740992, 0.0 ], [ -60.529503, -31.739842, 0.0 ], [ -60.5279195, -31.7373981, 0.0 ], [ -60.5294042, -31.7365852, 0.0 ], [ -60.530787, -31.7358818, 0.0 ], [ -60.532822, -31.735029, 0.0 ], [ -60.534045, -31.734491, 0.0 ], [ -60.533153, -31.73234, 0.0 ], [ -60.532753, -31.731297, 0.0 ], [ -60.532363, -31.730354, 0.0 ], [ -60.53195, -31.729259, 0.0 ], [ -60.531394, -31.7278085, 0.0 ], [ -60.5325798, -31.727476, 0.0 ], [ -60.533215, -31.728779, 0.0 ], [ -60.534153, -31.730567, 0.0 ], [ -60.536152, -31.73484, 0.0 ], [ -60.533342, -31.736159, 0.0 ], [ -60.5338918, -31.7372448, 0.0 ], [ -60.534549, -31.7383124, 0.0 ], [ -60.5354032, -31.7398726, 0.0 ], [ -60.5356802, -31.7403972, 0.0 ], [ -60.5361288, -31.7408854, 0.0 ], [ -60.5353523, -31.7415789, 0.0 ], [ -60.5357107, -31.7423203, 0.0 ], [ -60.5361581, -31.7447712, 0.0 ], [ -60.5389621, -31.7443681, 0.0 ], [ -60.5417796, -31.7439352, 0.0 ], [ -60.5417791, -31.7441428, 0.0 ], [ -60.541843, -31.7443413, 0.0 ], [ -60.5420477, -31.7446002, 0.0 ], [ -60.5423222, -31.7448499, 0.0 ], [ -60.5427739, -31.7452833, 0.0 ], [ -60.5432283, -31.7457417, 0.0 ], [ -60.5437578, -31.746214, 0.0 ], [ -60.5447473, -31.7460372, 0.0 ], [ -60.548183, -31.7454767, 0.0 ], [ -60.5512473, -31.7450276, 0.0 ], [ -60.552597, -31.7448395, 0.0 ], [ -60.5543986, -31.7445339, 0.0 ] ] } },
{ "type": "Feature", "properties": { "Name": "A. Medina > Bº Parque Mayor", "description": "Mapa creado por Paraná Online. Más info: https://www.paranaonline.com.ar/linea-m/", "timestamp": null, "begin": null, "end": null, "altitudeMode": null, "tessellate": 1, "extrude": 0, "visibility": -1, "drawOrder": null, "icon": null }, "geometry": { "type": "LineString", "coordinates": [ [ -60.5543986, -31.7445339, 0.0 ], [ -60.5540034, -31.7432135, 0.0 ], [ -60.5536203, -31.7417691, 0.0 ], [ -60.5533016, -31.7402883, 0.0 ], [ -60.5529539, -31.7394433, 0.0 ], [ -60.5517748, -31.7396089, 0.0 ], [ -60.5507508, -31.73997, 0.0 ], [ -60.5497398, -31.7402691, 0.0 ], [ -60.5472108, -31.74068, 0.0 ], [ -60.5477365, -31.7431132, 0.0 ], [ -60.5479464, -31.7440554, 0.0 ], [ -60.5481991, -31.7455041, 0.0 ], [ -60.5437296, -31.7462288, 0.0 ], [ -60.5432974, -31.745853, 0.0 ], [ -60.5410614, -31.7471079, 0.0 ], [ -60.5391496, -31.7457303, 0.0 ], [ -60.5380156, -31.7464376, 0.0 ], [ -60.5367615, -31.7474583, 0.0 ], [ -60.5357107, -31.7423203, 0.0 ], [ -60.5339784, -31.7414308, 0.0 ], [ -60.5335814, -31.7411112, 0.0 ], [ -60.5332648, -31.7406182, 0.0 ], [ -60.5313631, -31.7372325, 0.0 ], [ -60.5302529, -31.7378467, 0.0 ], [ -60.5249945, -31.7406265, 0.0 ], [ -60.5276756, -31.7444373, 0.0 ], [ -60.5249534, -31.7458487, 0.0 ], [ -60.52472, -31.74665, 0.0 ], [ -60.523553, -31.74679, 0.0 ], [ -60.523568, -31.74814, 0.0 ], [ -60.523846, -31.749352, 0.0 ], [ -60.524325, -31.75178, 0.0 ], [ -60.522271, -31.754627, 0.0 ], [ -60.52101, -31.756198, 0.0 ], [ -60.522052, -31.76163, 0.0 ], [ -60.523139, -31.766453, 0.0 ], [ -60.517526, -31.767367, 0.0 ], [ -60.517689, -31.768088, 0.0 ], [ -60.517964, -31.769798, 0.0 ], [ -60.518566, -31.772185, 0.0 ], [ -60.512814, -31.773159, 0.0 ], [ -60.5070303, -31.7740684, 0.0 ], [ -60.5041223, -31.7745505, 0.0 ], [ -60.501126, -31.7750445, 0.0 ], [ -60.5008564, -31.7738345, 0.0 ], [ -60.5005874, -31.7725865, 0.0 ], [ -60.5037011, -31.7720856, 0.0 ], [ -60.5038161, -31.7731125, 0.0 ] ] } }
]
}
