{
"type": "FeatureCollection",
"name": "linea_b_paradas_hacia_centro",
"crs": { "type": "name", "properties": { "name": "urn:ogc:def:crs:OGC:1.3:CRS84" } },
"features": [
{ "type": "Feature", "properties": { "fid": 1, "Name": "Punto 1", "description": null, "timestamp": null, "begin": null, "end": null, "altitudeMode": null, "tessellate": -1, "extrude": 0, "visibility": -1, "drawOrder": null, "icon": null }, "geometry": { "type": "Point", "coordinates": [ -60.5049573, -31.7933516, 0.0 ] } },
{ "type": "Feature", "properties": { "fid": 2, "Name": "Punto 2", "description": "Mapa creado por Paraná Online. Más info: https://www.paranaonline.com.ar/linea-b/", "timestamp": null, "begin": null, "end": null, "altitudeMode": null, "tessellate": -1, "extrude": 0, "visibility": -1, "drawOrder": null, "icon": null }, "geometry": { "type": "Point", "coordinates": [ -60.504247, -31.7902369, 0.0 ] } },
{ "type": "Feature", "properties": { "fid": 3, "Name": "Punto 3", "description": null, "timestamp": null, "begin": null, "end": null, "altitudeMode": null, "tessellate": -1, "extrude": 0, "visibility": -1, "drawOrder": null, "icon": null }, "geometry": { "type": "Point", "coordinates": [ -60.5031493, -31.7851493, 0.0 ] } },
{ "type": "Feature", "properties": { "fid": 4, "Name": "Punto 4", "description": null, "timestamp": null, "begin": null, "end": null, "altitudeMode": null, "tessellate": -1, "extrude": 0, "visibility": -1, "drawOrder": null, "icon": null }, "geometry": { "type": "Point", "coordinates": [ -60.5036495, -31.7795042, 0.0 ] } },
{ "type": "Feature", "properties": { "fid": 5, "Name": "Punto 5", "description": null, "timestamp": null, "begin": null, "end": null, "altitudeMode": null, "tessellate": -1, "extrude": 0, "visibility": -1, "drawOrder": null, "icon": null }, "geometry": { "type": "Point", "coordinates": [ -60.5093549, -31.7785521, 0.0 ] } },
{ "type": "Feature", "properties": { "fid": 6, "Name": "Punto 6", "description": null, "timestamp": null, "begin": null, "end": null, "altitudeMode": null, "tessellate": -1, "extrude": 0, "visibility": -1, "drawOrder": null, "icon": null }, "geometry": { "type": "Point", "coordinates": [ -60.5174354, -31.7772811, 0.0 ] } },
{ "type": "Feature", "properties": { "fid": 7, "Name": "Punto 7", "description": null, "timestamp": null, "begin": null, "end": null, "altitudeMode": null, "tessellate": -1, "extrude": 0, "visibility": -1, "drawOrder": null, "icon": null }, "geometry": { "type": "Point", "coordinates": [ -60.5186556, -31.7736201, 0.0 ] } },
{ "type": "Feature", "properties": { "fid": 8, "Name": "Punto 8", "description": null, "timestamp": null, "begin": null, "end": null, "altitudeMode": null, "tessellate": -1, "extrude": 0, "visibility": -1, "drawOrder": null, "icon": null }, "geometry": { "type": "Point", "coordinates": [ -60.5179235, -31.7701452, 0.0 ] } },
{ "type": "Feature", "properties": { "fid": 9, "Name": "Punto 9", "description": null, "timestamp": null, "begin": null, "end": null, "altitudeMode": null, "tessellate": -1, "extrude": 0, "visibility": -1, "drawOrder": null, "icon": null }, "geometry": { "type": "Point", "coordinates": [ -60.5158987, -31.7611632, 0.0 ] } },
{ "type": "Feature", "properties": { "fid": 10, "Name": "Punto 10", "description": null, "timestamp": null, "begin": null, "end": null, "altitudeMode": null, "tessellate": -1, "extrude": 0, "visibility": -1, "drawOrder": null, "icon": null }, "geometry": { "type": "Point", "coordinates": [ -60.5167691, -31.7571668, 0.0 ] } },
{ "type": "Feature", "properties": { "fid": 11, "Name": "Punto 11", "description": null, "timestamp": null, "begin": null, "end": null, "altitudeMode": null, "tessellate": -1, "extrude": 0, "visibility": -1, "drawOrder": null, "icon": null }, "geometry": { "type": "Point", "coordinates": [ -60.5285403, -31.7555476, 0.0 ] } },
{ "type": "Feature", "properties": { "fid": 12, "Name": "Punto 12", "description": "Mapa creado por Paraná Online. Más info: https://www.paranaonline.com.ar/linea-b/", "timestamp": null, "begin": null, "end": null, "altitudeMode": null, "tessellate": -1, "extrude": 0, "visibility": -1, "drawOrder": null, "icon": null }, "geometry": { "type": "Point", "coordinates": [ -60.5261873, -31.7540291, 0.0 ] } },
{ "type": "Feature", "properties": { "fid": 13, "Name": "Punto 13", "description": null, "timestamp": null, "begin": null, "end": null, "altitudeMode": null, "tessellate": -1, "extrude": 0, "visibility": -1, "drawOrder": null, "icon": null }, "geometry": { "type": "Point", "coordinates": [ -60.5279323, -31.7490557, 0.0 ] } },
{ "type": "Feature", "properties": { "fid": 14, "Name": "Punto 14", "description": null, "timestamp": null, "begin": null, "end": null, "altitudeMode": null, "tessellate": -1, "extrude": 0, "visibility": -1, "drawOrder": null, "icon": null }, "geometry": { "type": "Point", "coordinates": [ -60.5305177, -31.7462747, 0.0 ] } },
{ "type": "Feature", "properties": { "fid": 15, "Name": "Punto 15", "description": null, "timestamp": null, "begin": null, "end": null, "altitudeMode": null, "tessellate": -1, "extrude": 0, "visibility": -1, "drawOrder": null, "icon": null }, "geometry": { "type": "Point", "coordinates": [ -60.5324987, -31.7434368, 0.0 ] } },
{ "type": "Feature", "properties": { "fid": 16, "Name": "Punto 16", "description": null, "timestamp": null, "begin": null, "end": null, "altitudeMode": null, "tessellate": -1, "extrude": 0, "visibility": -1, "drawOrder": null, "icon": null }, "geometry": { "type": "Point", "coordinates": [ -60.5338774, -31.7415983, 0.0 ] } },
{ "type": "Feature", "properties": { "fid": 17, "Name": "Punto 17", "description": null, "timestamp": null, "begin": null, "end": null, "altitudeMode": null, "tessellate": -1, "extrude": 0, "visibility": -1, "drawOrder": null, "icon": null }, "geometry": { "type": "Point", "coordinates": [ -60.5316099, -31.7379068, 0.0 ] } },
{ "type": "Feature", "properties": { "fid": 18, "Name": "Punto 18", "description": null, "timestamp": null, "begin": null, "end": null, "altitudeMode": null, "tessellate": -1, "extrude": 0, "visibility": -1, "drawOrder": null, "icon": null }, "geometry": { "type": "Point", "coordinates": [ -60.5319187, -31.7352884, 0.0 ] } },
{ "type": "Feature", "properties": { "fid": 19, "Name": "Punto 19", "description": null, "timestamp": null, "begin": null, "end": null, "altitudeMode": null, "tessellate": -1, "extrude": 0, "visibility": -1, "drawOrder": null, "icon": null }, "geometry": { "type": "Point", "coordinates": [ -60.5327674, -31.7315655, 0.0 ] } },
{ "type": "Feature", "properties": { "fid": 20, "Name": "Punto 20", "description": null, "timestamp": null, "begin": null, "end": null, "altitudeMode": null, "tessellate": -1, "extrude": 0, "visibility": -1, "drawOrder": null, "icon": null }, "geometry": { "type": "Point", "coordinates": [ -60.5311855, -31.7275939, 0.0 ] } },
{ "type": "Feature", "properties": { "fid": 21, "Name": "Punto 21", "description": "Mapa creado por Paraná Online. Más info: https://www.paranaonline.com.ar/linea-b/", "timestamp": null, "begin": null, "end": null, "altitudeMode": null, "tessellate": -1, "extrude": 0, "visibility": -1, "drawOrder": null, "icon": null }, "geometry": { "type": "Point", "coordinates": [ -60.5299776, -31.724481, 0.0 ] } },
{ "type": "Feature", "properties": { "fid": 22, "Name": "Punto 22", "description": null, "timestamp": null, "begin": null, "end": null, "altitudeMode": null, "tessellate": -1, "extrude": 0, "visibility": -1, "drawOrder": null, "icon": null }, "geometry": { "type": "Point", "coordinates": [ -60.5195307, -31.7566242, 0.0 ] } },
{ "type": "Feature", "properties": { "fid": 23, "Name": "Punto 23", "description": null, "timestamp": null, "begin": null, "end": null, "altitudeMode": null, "tessellate": -1, "extrude": 0, "visibility": -1, "drawOrder": null, "icon": null }, "geometry": { "type": "Point", "coordinates": [ -60.5218052, -31.7585216, 0.0 ] } },
{ "type": "Feature", "properties": { "fid": 24, "Name": "Punto 24", "description": null, "timestamp": null, "begin": null, "end": null, "altitudeMode": null, "tessellate": -1, "extrude": 0, "visibility": -1, "drawOrder": null, "icon": null }, "geometry": { "type": "Point", "coordinates": [ -60.5263864, -31.7607201, 0.0 ] } },
{ "type": "Feature", "properties": { "fid": 25, "Name": "Punto 25", "description": null, "timestamp": null, "begin": null, "end": null, "altitudeMode": null, "tessellate": -1, "extrude": 0, "visibility": -1, "drawOrder": null, "icon": null }, "geometry": { "type": "Point", "coordinates": [ -60.5317293, -31.7598444, 0.0 ] } },
{ "type": "Feature", "properties": { "fid": 26, "Name": "Punto 26", "description": null, "timestamp": null, "begin": null, "end": null, "altitudeMode": null, "tessellate": -1, "extrude": 0, "visibility": -1, "drawOrder": null, "icon": null }, "geometry": { "type": "Point", "coordinates": [ -60.5330168, -31.7584943, 0.0 ] } },
{ "type": "Feature", "properties": { "fid": 27, "Name": "Punto 27", "description": null, "timestamp": null, "begin": null, "end": null, "altitudeMode": null, "tessellate": -1, "extrude": 0, "visibility": -1, "drawOrder": null, "icon": null }, "geometry": { "type": "Point", "coordinates": [ -60.5324652, -31.7557285, 0.0 ] } }
]
}
