{
"type": "FeatureCollection",
"name": "linea_a_recorridos",
"crs": { "type": "name", "properties": { "name": "urn:ogc:def:crs:OGC:1.3:CRS84" } },
"features": [
{ "type": "Feature", "properties": { "fid": 1, "Name": "Bº Emp. de Comercio > Centro", "description": "Mapa creado por Paraná Online. Más info: https://www.paranaonline.com.ar/linea-a/", "timestamp": null, "begin": null, "end": null, "altitudeMode": null, "tessellate": 1, "extrude": 0, "visibility": -1, "drawOrder": null, "icon": null }, "geometry": { "type": "LineString", "coordinates": [ [ -60.5162202, -31.7889087, 0.0 ], [ -60.5166633, -31.7875369, 0.0 ], [ -60.515776, -31.7876972, 0.0 ], [ -60.5153831, -31.7859826, 0.0 ], [ -60.5152041, -31.7851732, 0.0 ], [ -60.5150998, -31.7847207, 0.0 ], [ -60.5149935, -31.7842299, 0.0 ], [ -60.5146886, -31.7828417, 0.0 ], [ -60.5144538, -31.7815867, 0.0 ], [ -60.5142243, -31.7803202, 0.0 ], [ -60.5136818, -31.7779559, 0.0 ], [ -60.5145651, -31.7778216, 0.0 ], [ -60.5154565, -31.777676, 0.0 ], [ -60.5165523, -31.7774844, 0.0 ], [ -60.5172901, -31.7773869, 0.0 ], [ -60.5183509, -31.7772205, 0.0 ], [ -60.5194714, -31.7770289, 0.0 ], [ -60.5199281, -31.776932, 0.0 ], [ -60.5209611, -31.7768014, 0.0 ], [ -60.5221095, -31.7766023, 0.0 ], [ -60.5225542, -31.7765248, 0.0 ], [ -60.5230163, -31.7764359, 0.0 ], [ -60.52346, -31.7763629, 0.0 ], [ -60.5238752, -31.7762966, 0.0 ], [ -60.5243819, -31.776216, 0.0 ], [ -60.525186, -31.7761011, 0.0 ], [ -60.5246238, -31.7736502, 0.0 ], [ -60.524568, -31.7733848, 0.0 ], [ -60.5245122, -31.7731079, 0.0 ], [ -60.5244017, -31.7726185, 0.0 ], [ -60.52431, -31.7720835, 0.0 ], [ -60.5242132, -31.7716369, 0.0 ], [ -60.524119, -31.7712383, 0.0 ], [ -60.529823, -31.770383, 0.0 ], [ -60.5295228, -31.7689059, 0.0 ], [ -60.529413, -31.7684012, 0.0 ], [ -60.5292723, -31.7677675, 0.0 ], [ -60.5291525, -31.7670789, 0.0 ], [ -60.5289988, -31.7663423, 0.0 ], [ -60.5288048, -31.7655647, 0.0 ], [ -60.5273994, -31.7657836, 0.0 ], [ -60.5275295, -31.7654929, 0.0 ], [ -60.5279855, -31.7647455, 0.0 ], [ -60.5280928, -31.7645477, 0.0 ], [ -60.5282658, -31.7640095, 0.0 ], [ -60.5283321, -31.7637033, 0.0 ], [ -60.5283274, -31.7636212, 0.0 ], [ -60.5276086, -31.760242, 0.0 ], [ -60.5275226, -31.7598751, 0.0 ], [ -60.5274473, -31.7595379, 0.0 ], [ -60.527329, -31.758966, 0.0 ], [ -60.5270923, -31.757877, 0.0 ], [ -60.5266537, -31.7557481, 0.0 ], [ -60.5282867, -31.7554772, 0.0 ], [ -60.5299639, -31.755213, 0.0 ], [ -60.5303231, -31.7551356, 0.0 ], [ -60.5304799, -31.7550638, 0.0 ], [ -60.5310579, -31.7545268, 0.0 ], [ -60.5317338, -31.7536875, 0.0 ], [ -60.5324097, -31.7528105, 0.0 ], [ -60.5330306, -31.7519912, 0.0 ], [ -60.5335094, -31.7513634, 0.0 ], [ -60.5340579, -31.7506564, 0.0 ], [ -60.5344261, -31.7501734, 0.0 ], [ -60.5347876, -31.74972, 0.0 ], [ -60.5353334, -31.7490346, 0.0 ], [ -60.5355728, -31.7487986, 0.0 ], [ -60.5361797, -31.7480584, 0.0 ], [ -60.5367067, -31.7474996, 0.0 ], [ -60.5373048, -31.7468974, 0.0 ], [ -60.537505, -31.746701, 0.0 ], [ -60.5376488, -31.7466095, 0.0 ], [ -60.5379901, -31.7464128, 0.0 ], [ -60.5391383, -31.7457064, 0.0 ], [ -60.5410544, -31.7470916, 0.0 ], [ -60.5419769, -31.7465987, 0.0 ], [ -60.5432696, -31.7458377, 0.0 ], [ -60.5428139, -31.7453816, 0.0 ], [ -60.5422924, -31.7448711, 0.0 ], [ -60.5419562, -31.7445249, 0.0 ], [ -60.54188, -31.7444283, 0.0 ], [ -60.5418175, -31.7442968, 0.0 ], [ -60.5417741, -31.7441841, 0.0 ], [ -60.5417617, -31.7439658, 0.0 ], [ -60.5418458, -31.7439231, 0.0 ], [ -60.5428932, -31.7437589, 0.0 ], [ -60.5447814, -31.7434795, 0.0 ], [ -60.5462613, -31.7432577, 0.0 ], [ -60.5476581, -31.7430609, 0.0 ], [ -60.5474838, -31.7422921, 0.0 ], [ -60.5473001, -31.7414206, 0.0 ], [ -60.5472177, -31.7410134, 0.0 ], [ -60.5471469, -31.7406707, 0.0 ], [ -60.547162, -31.7406496, 0.0 ], [ -60.5477481, -31.7405515, 0.0 ], [ -60.5487895, -31.7403861, 0.0 ], [ -60.5498335, -31.7402196, 0.0 ], [ -60.5509112, -31.7398803, 0.0 ], [ -60.5513708, -31.7397289, 0.0 ], [ -60.5517165, -31.739606, 0.0 ], [ -60.5514737, -31.739049, 0.0 ], [ -60.5513241, -31.7387134, 0.0 ], [ -60.5512124, -31.7384094, 0.0 ], [ -60.5510632, -31.7381372, 0.0 ], [ -60.5507192, -31.7374923, 0.0 ], [ -60.5504319, -31.736969, 0.0 ], [ -60.5503331, -31.7367867, 0.0 ], [ -60.5502223, -31.7366078, 0.0 ], [ -60.549811, -31.7359606, 0.0 ], [ -60.5493694, -31.7353232, 0.0 ], [ -60.5500487, -31.7348739, 0.0 ], [ -60.5504976, -31.7345809, 0.0 ], [ -60.5507528, -31.7344715, 0.0 ], [ -60.5511594, -31.7343796, 0.0 ], [ -60.5513864, -31.7343271, 0.0 ], [ -60.5510546, -31.733623, 0.0 ], [ -60.5507288, -31.732997, 0.0 ], [ -60.55049, -31.7325022, 0.0 ], [ -60.5503599, -31.7322275, 0.0 ], [ -60.5501667, -31.7318307, 0.0 ], [ -60.5497369, -31.7309611, 0.0 ], [ -60.5493842, -31.7303151, 0.0 ], [ -60.5490047, -31.7296685, 0.0 ], [ -60.5525332, -31.7281326, 0.0 ], [ -60.5510256, -31.7254249, 0.0 ], [ -60.5509093, -31.7252925, 0.0 ], [ -60.5506361, -31.7251464, 0.0 ], [ -60.5502614, -31.7249889, 0.0 ], [ -60.550079, -31.7248856, 0.0 ], [ -60.5499396, -31.7247242, 0.0 ], [ -60.5498819, -31.7246533, 0.0 ], [ -60.5498, -31.7243873, 0.0 ], [ -60.5496658, -31.7238689, 0.0 ], [ -60.5492943, -31.7230975, 0.0 ], [ -60.5489952, -31.7223557, 0.0 ], [ -60.5486555, -31.7212712, 0.0 ], [ -60.5476847, -31.7215856, 0.0 ], [ -60.5465248, -31.7219738, 0.0 ], [ -60.5462667, -31.7220568, 0.0 ], [ -60.5460854, -31.7221367, 0.0 ], [ -60.5459348, -31.7222211, 0.0 ], [ -60.5457115, -31.7223748, 0.0 ], [ -60.5455838, -31.7224888, 0.0 ], [ -60.5454184, -31.7226523, 0.0 ], [ -60.5449888, -31.7232719, 0.0 ], [ -60.5447605, -31.7236079, 0.0 ], [ -60.5446625, -31.7237508, 0.0 ], [ -60.544543, -31.7238755, 0.0 ], [ -60.5442874, -31.7240376, 0.0 ], [ -60.5439915, -31.7241655, 0.0 ], [ -60.5436039, -31.724287, 0.0 ], [ -60.5431895, -31.724372, 0.0 ], [ -60.5424921, -31.7245112, 0.0 ], [ -60.5427631, -31.7251922, 0.0 ], [ -60.5416742, -31.7257397, 0.0 ], [ -60.5409714, -31.7260135, 0.0 ], [ -60.53602, -31.7277336, 0.0 ], [ -60.5319484, -31.7292667, 0.0 ], [ -60.5315836, -31.7283541, 0.0 ] ] } },
{ "type": "Feature", "properties": { "fid": 2, "Name": "Centro > Bº Emp. de Comercio", "description": "Mapa creado por Paraná Online. Más info: https://www.paranaonline.com.ar/linea-a/", "timestamp": null, "begin": null, "end": null, "altitudeMode": null, "tessellate": 1, "extrude": 0, "visibility": -1, "drawOrder": null, "icon": null }, "geometry": { "type": "LineString", "coordinates": [ [ -60.5315836, -31.7283541, 0.0 ], [ -60.5313813, -31.7278089, 0.0 ], [ -60.5326544, -31.7274575, 0.0 ], [ -60.5334291, -31.7272419, 0.0 ], [ -60.5340187, -31.7270355, 0.0 ], [ -60.5414678, -31.7247493, 0.0 ], [ -60.5420445, -31.7245537, 0.0 ], [ -60.5427298, -31.7244025, 0.0 ], [ -60.5437731, -31.7241824, 0.0 ], [ -60.5439334, -31.7241322, 0.0 ], [ -60.5441124, -31.7240592, 0.0 ], [ -60.5442848, -31.7239748, 0.0 ], [ -60.5444652, -31.7238584, 0.0 ], [ -60.544614, -31.7237101, 0.0 ], [ -60.5448165, -31.7234249, 0.0 ], [ -60.5451069, -31.7229852, 0.0 ], [ -60.5453238, -31.7226655, 0.0 ], [ -60.5455668, -31.722416, 0.0 ], [ -60.545818, -31.7222246, 0.0 ], [ -60.5461469, -31.72204, 0.0 ], [ -60.5465908, -31.72189, 0.0 ], [ -60.5470944, -31.7217224, 0.0 ], [ -60.5487044, -31.7211988, 0.0 ], [ -60.5490799, -31.722412, 0.0 ], [ -60.5492197, -31.7227932, 0.0 ], [ -60.5493997, -31.723154, 0.0 ], [ -60.549741, -31.7238846, 0.0 ], [ -60.5498558, -31.7243278, 0.0 ], [ -60.5498977, -31.7245004, 0.0 ], [ -60.5499543, -31.7246672, 0.0 ], [ -60.5501065, -31.7248298, 0.0 ], [ -60.5502882, -31.7249467, 0.0 ], [ -60.5506396, -31.7250859, 0.0 ], [ -60.550826, -31.7251771, 0.0 ], [ -60.5509414, -31.725258, 0.0 ], [ -60.5509947, -31.7253013, 0.0 ], [ -60.5510507, -31.7253662, 0.0 ], [ -60.5517621, -31.7266093, 0.0 ], [ -60.5526217, -31.7281646, 0.0 ], [ -60.5490625, -31.7297011, 0.0 ], [ -60.5494118, -31.7302777, 0.0 ], [ -60.5499383, -31.7312854, 0.0 ], [ -60.5507603, -31.7329668, 0.0 ], [ -60.549961, -31.7332531, 0.0 ], [ -60.5493304, -31.7333252, 0.0 ], [ -60.5485764, -31.7333882, 0.0 ], [ -60.5483021, -31.7334886, 0.0 ], [ -60.5479754, -31.7335552, 0.0 ], [ -60.5471644, -31.7343132, 0.0 ], [ -60.548703, -31.7358467, 0.0 ], [ -60.5491912, -31.7365014, 0.0 ], [ -60.5495452, -31.7370124, 0.0 ], [ -60.5499423, -31.7377971, 0.0 ], [ -60.5505001, -31.7389878, 0.0 ], [ -60.5509776, -31.7398911, 0.0 ], [ -60.5497906, -31.7402857, 0.0 ], [ -60.5471957, -31.7406667, 0.0 ], [ -60.5477307, -31.7430981, 0.0 ], [ -60.5482411, -31.7454882, 0.0 ], [ -60.5437517, -31.7462323, 0.0 ], [ -60.5433017, -31.7458725, 0.0 ], [ -60.5419459, -31.7466691, 0.0 ], [ -60.5410547, -31.7471424, 0.0 ], [ -60.5391437, -31.7457668, 0.0 ], [ -60.5383879, -31.7462437, 0.0 ], [ -60.537541, -31.7467456, 0.0 ], [ -60.5362388, -31.7480902, 0.0 ], [ -60.5356052, -31.7488525, 0.0 ], [ -60.5353899, -31.7490709, 0.0 ], [ -60.5348387, -31.7497586, 0.0 ], [ -60.534522, -31.7501549, 0.0 ], [ -60.5342403, -31.7505193, 0.0 ], [ -60.533843, -31.7510336, 0.0 ], [ -60.5330752, -31.7520485, 0.0 ], [ -60.5325495, -31.7527242, 0.0 ], [ -60.5320439, -31.7533907, 0.0 ], [ -60.5318042, -31.7536804, 0.0 ], [ -60.5316502, -31.7539039, 0.0 ], [ -60.5311225, -31.7545619, 0.0 ], [ -60.5305726, -31.7550613, 0.0 ], [ -60.5304714, -31.7551349, 0.0 ], [ -60.5302773, -31.7552048, 0.0 ], [ -60.5300778, -31.7552495, 0.0 ], [ -60.5267169, -31.755794, 0.0 ], [ -60.527586, -31.7598587, 0.0 ], [ -60.5280447, -31.7619459, 0.0 ], [ -60.5282633, -31.7629725, 0.0 ], [ -60.5283672, -31.7634982, 0.0 ], [ -60.5284259, -31.7637486, 0.0 ], [ -60.5285034, -31.7639898, 0.0 ], [ -60.5286925, -31.764865, 0.0 ], [ -60.5290693, -31.7663581, 0.0 ], [ -60.5293788, -31.7679076, 0.0 ], [ -60.5296426, -31.769147, 0.0 ], [ -60.5298914, -31.7704115, 0.0 ], [ -60.5282472, -31.7706612, 0.0 ], [ -60.5254919, -31.7710865, 0.0 ], [ -60.5241783, -31.7712848, 0.0 ], [ -60.5243589, -31.7720864, 0.0 ], [ -60.5244465, -31.7726456, 0.0 ], [ -60.5245341, -31.7730042, 0.0 ], [ -60.5248355, -31.7743632, 0.0 ], [ -60.5250478, -31.7752993, 0.0 ], [ -60.5252414, -31.7761304, 0.0 ], [ -60.5227297, -31.7765272, 0.0 ], [ -60.5213692, -31.7767723, 0.0 ], [ -60.5209693, -31.7768389, 0.0 ], [ -60.5202716, -31.7769238, 0.0 ], [ -60.5195982, -31.7770532, 0.0 ], [ -60.5188659, -31.7771726, 0.0 ], [ -60.5180692, -31.7773079, 0.0 ], [ -60.5170496, -31.7774594, 0.0 ], [ -60.5165155, -31.7775297, 0.0 ], [ -60.5159921, -31.777621, 0.0 ], [ -60.5149263, -31.7778087, 0.0 ], [ -60.5137411, -31.7779912, 0.0 ], [ -60.5140328, -31.7792917, 0.0 ], [ -60.514301, -31.7804791, 0.0 ], [ -60.5143272, -31.7805965, 0.0 ], [ -60.5145515, -31.7818873, 0.0 ], [ -60.5147302, -31.7828463, 0.0 ], [ -60.5158084, -31.7876901, 0.0 ], [ -60.5161008, -31.7887593, 0.0 ], [ -60.5161639, -31.7889041, 0.0 ], [ -60.5162202, -31.7889087, 0.0 ] ] } }
]
}
