{
"type": "FeatureCollection",
"name": "linea_c_recorridos",
"crs": { "type": "name", "properties": { "name": "urn:ogc:def:crs:OGC:1.3:CRS84" } },
"features": [
{ "type": "Feature", "properties": { "Name": "Bº 300 Viviendas > Centro", "description": "Mapa creado por Paraná Online. Más info: https://www.paranaonline.com.ar/linea-c/", "timestamp": null, "begin": null, "end": null, "altitudeMode": null, "tessellate": 1, "extrude": 0, "visibility": -1, "drawOrder": null, "icon": null }, "geometry": { "type": "LineString", "coordinates": [ [ -60.4556311, -31.7430797, 0.0 ], [ -60.4557652, -31.7437047, 0.0 ], [ -60.4542792, -31.7439328, 0.0 ], [ -60.4544885, -31.7431984, 0.0 ], [ -60.4555828, -31.7430204, 0.0 ], [ -60.4554272, -31.7423316, 0.0 ], [ -60.4543704, -31.7425277, 0.0 ], [ -60.4539681, -31.7438553, 0.0 ], [ -60.4537964, -31.7446126, 0.0 ], [ -60.4537589, -31.7451737, 0.0 ], [ -60.4538823, -31.746045, 0.0 ], [ -60.4548961, -31.7509306, 0.0 ], [ -60.4550946, -31.7515692, 0.0 ], [ -60.4550946, -31.7517745, 0.0 ], [ -60.4550946, -31.7519159, 0.0 ], [ -60.4552663, -31.752445, 0.0 ], [ -60.4554701, -31.7534942, 0.0 ], [ -60.4519725, -31.7540735, 0.0 ], [ -60.4527665, -31.7578503, 0.0 ], [ -60.4562212, -31.7572984, 0.0 ], [ -60.4567093, -31.7594513, 0.0 ], [ -60.4568917, -31.7602814, 0.0 ], [ -60.4572511, -31.7621286, 0.0 ], [ -60.461489, -31.7614947, 0.0 ], [ -60.4665316, -31.760733, 0.0 ], [ -60.4685701, -31.7604182, 0.0 ], [ -60.4686566, -31.7603712, 0.0 ], [ -60.4687042, -31.7603606, 0.0 ], [ -60.4688007, -31.7603361, 0.0 ], [ -60.4705759, -31.7600735, 0.0 ], [ -60.4718741, -31.7599047, 0.0 ], [ -60.4742774, -31.7594805, 0.0 ], [ -60.4776838, -31.7589606, 0.0 ], [ -60.4802158, -31.7585911, 0.0 ], [ -60.4838582, -31.7580301, 0.0 ], [ -60.4856607, -31.7577564, 0.0 ], [ -60.4853817, -31.756502, 0.0 ], [ -60.4848506, -31.7540207, 0.0 ], [ -60.4846361, -31.7529259, 0.0 ], [ -60.4853147, -31.7528324, 0.0 ], [ -60.4860335, -31.7526773, 0.0 ], [ -60.4874712, -31.7524561, 0.0 ], [ -60.4888927, -31.7522189, 0.0 ], [ -60.4915588, -31.7518289, 0.0 ], [ -60.4923986, -31.7516887, 0.0 ], [ -60.4932408, -31.751618, 0.0 ], [ -60.4940401, -31.7514994, 0.0 ], [ -60.4952685, -31.7513284, 0.0 ], [ -60.4960571, -31.7511984, 0.0 ], [ -60.4958988, -31.750505, 0.0 ], [ -60.4956896, -31.7496109, 0.0 ], [ -60.4956601, -31.7493349, 0.0 ], [ -60.4956118, -31.7486895, 0.0 ], [ -60.4955394, -31.7483701, 0.0 ], [ -60.4952497, -31.7468944, 0.0 ], [ -60.4950379, -31.746258, 0.0 ], [ -60.4962475, -31.7460642, 0.0 ], [ -60.4978917, -31.7458041, 0.0 ], [ -60.4993374, -31.7455829, 0.0 ], [ -60.5008448, -31.7453126, 0.0 ], [ -60.5004827, -31.7435722, 0.0 ], [ -60.5003138, -31.7429586, 0.0 ], [ -60.5001448, -31.7421557, 0.0 ], [ -60.4997961, -31.7404792, 0.0 ], [ -60.501341, -31.740194, 0.0 ], [ -60.5018614, -31.7400549, 0.0 ], [ -60.5025454, -31.7397857, 0.0 ], [ -60.5032749, -31.7396625, 0.0 ], [ -60.5053992, -31.7393728, 0.0 ], [ -60.507022, -31.7391356, 0.0 ], [ -60.5093126, -31.738814, 0.0 ], [ -60.5112035, -31.7385539, 0.0 ], [ -60.5126439, -31.7383669, 0.0 ], [ -60.5140359, -31.7381502, 0.0 ], [ -60.514905, -31.7380384, 0.0 ], [ -60.5158437, -31.7378856, 0.0 ], [ -60.5169032, -31.737735, 0.0 ], [ -60.5167021, -31.7368203, 0.0 ], [ -60.5164097, -31.7354995, 0.0 ], [ -60.5162112, -31.7346326, 0.0 ], [ -60.5160208, -31.73367, 0.0 ], [ -60.515892, -31.7329605, 0.0 ], [ -60.5157043, -31.7321529, 0.0 ], [ -60.5166377, -31.7318997, 0.0 ], [ -60.5188076, -31.7312997, 0.0 ], [ -60.5209963, -31.7306952, 0.0 ], [ -60.5237187, -31.7299309, 0.0 ], [ -60.5255748, -31.7294747, 0.0 ], [ -60.5269481, -31.7290504, 0.0 ], [ -60.5293782, -31.7283705, 0.0 ] ] } },
{ "type": "Feature", "properties": { "Name": "Parque Industrial > Centro", "description": "Mapa creado por Paraná Online. Más info: https://www.paranaonline.com.ar/linea-c/", "timestamp": null, "begin": null, "end": null, "altitudeMode": null, "tessellate": 1, "extrude": 0, "visibility": -1, "drawOrder": null, "icon": null }, "geometry": { "type": "LineString", "coordinates": [ [ -60.4474281, -31.7712173, 0.0 ], [ -60.4532056, -31.7703417, 0.0 ], [ -60.4563706, -31.7698537, 0.0 ], [ -60.4587041, -31.7694843, 0.0 ], [ -60.458511, -31.768522, 0.0 ], [ -60.4582642, -31.7670944, 0.0 ], [ -60.4576419, -31.7643078, 0.0 ], [ -60.4571967, -31.7623328, 0.0 ], [ -60.4572511, -31.7621286, 0.0 ] ] } },
{ "type": "Feature", "properties": { "Name": "Desvío Bº Las Rosas", "description": "El cartel [Parque Industrial] se desvía para recorrer los barrios El Trébol y Las Rosas, tanto en el recorrido de ida (rojo) como de vuelta (azul). Luego retoma el recorrido principal.", "timestamp": null, "begin": null, "end": null, "altitudeMode": null, "tessellate": 1, "extrude": 0, "visibility": -1, "drawOrder": null, "icon": null }, "geometry": { "type": "LineString", "coordinates": [ [ -60.4686566, -31.7603712, 0.0 ], [ -60.46865, -31.7603394, 0.0 ], [ -60.4686008, -31.7601516, 0.0 ], [ -60.4685523, -31.7599724, 0.0 ], [ -60.4683683, -31.7592575, 0.0 ], [ -60.4681134, -31.758083, 0.0 ], [ -60.4678318, -31.7567466, 0.0 ], [ -60.4675824, -31.7556062, 0.0 ], [ -60.4663834, -31.7557955, 0.0 ], [ -60.4645407, -31.7560738, 0.0 ], [ -60.4642967, -31.7548901, 0.0 ], [ -60.4661823, -31.7546004, 0.0 ], [ -60.4664076, -31.7557499, 0.0 ], [ -60.467636, -31.7555561, 0.0 ], [ -60.4680652, -31.7576178, 0.0 ], [ -60.4682771, -31.7586167, 0.0 ], [ -60.4684541, -31.759424, 0.0 ], [ -60.4686431, -31.7601429, 0.0 ], [ -60.4686938, -31.7603282, 0.0 ], [ -60.4687042, -31.7603606, 0.0 ] ] } },
{ "type": "Feature", "properties": { "Name": "Centro > Bº 300 Viviendas", "description": "Mapa creado por Paraná Online. Más info: https://www.paranaonline.com.ar/linea-c/", "timestamp": null, "begin": null, "end": null, "altitudeMode": null, "tessellate": 1, "extrude": 0, "visibility": -1, "drawOrder": null, "icon": null }, "geometry": { "type": "LineString", "coordinates": [ [ -60.5293782, -31.7283705, 0.0 ], [ -60.5301965, -31.7281578, 0.0 ], [ -60.5313498, -31.7278179, 0.0 ], [ -60.5312184, -31.7274232, 0.0 ], [ -60.5306793, -31.7259563, 0.0 ], [ -60.5296091, -31.7271312, 0.0 ], [ -60.52782, -31.7275556, 0.0 ], [ -60.5264226, -31.7279137, 0.0 ], [ -60.5247355, -31.7283654, 0.0 ], [ -60.5237779, -31.7285936, 0.0 ], [ -60.5222142, -31.7290247, 0.0 ], [ -60.5199799, -31.7295837, 0.0 ], [ -60.5176571, -31.7301882, 0.0 ], [ -60.5155409, -31.7306833, 0.0 ], [ -60.5160237, -31.7329212, 0.0 ], [ -60.5165977, -31.7355834, 0.0 ], [ -60.5170751, -31.7377733, 0.0 ], [ -60.5158198, -31.7379535, 0.0 ], [ -60.514704, -31.7381246, 0.0 ], [ -60.5137787, -31.7382477, 0.0 ], [ -60.5127138, -31.738412, 0.0 ], [ -60.5093181, -31.7388728, 0.0 ], [ -60.5067566, -31.7392355, 0.0 ], [ -60.5053673, -31.739443, 0.0 ], [ -60.5036185, -31.7396711, 0.0 ], [ -60.5026019, -31.7398263, 0.0 ], [ -60.5018536, -31.7401137, 0.0 ], [ -60.5014593, -31.7402346, 0.0 ], [ -60.5010409, -31.7403167, 0.0 ], [ -60.4998741, -31.7405265, 0.0 ], [ -60.500212, -31.7421506, 0.0 ], [ -60.5005259, -31.7435124, 0.0 ], [ -60.500601, -31.7438226, 0.0 ], [ -60.5009175, -31.7453714, 0.0 ], [ -60.4989648, -31.7457067, 0.0 ], [ -60.4969693, -31.7460032, 0.0 ], [ -60.4971034, -31.7466783, 0.0 ], [ -60.4973153, -31.7474014, 0.0 ], [ -60.4973555, -31.7479032, 0.0 ], [ -60.4975433, -31.7484232, 0.0 ], [ -60.4976264, -31.7488224, 0.0 ], [ -60.4977042, -31.7494929, 0.0 ], [ -60.4978437, -31.7501635, 0.0 ], [ -60.4980153, -31.7508911, 0.0 ], [ -60.4965267, -31.7511557, 0.0 ], [ -60.4952178, -31.7513769, 0.0 ], [ -60.4945204, -31.7514704, 0.0 ], [ -60.4932946, -31.7516483, 0.0 ], [ -60.4927716, -31.7516985, 0.0 ], [ -60.4922942, -31.7517441, 0.0 ], [ -60.4913795, -31.7518969, 0.0 ], [ -60.4889334, -31.7522573, 0.0 ], [ -60.4867795, -31.7526017, 0.0 ], [ -60.4860044, -31.7527294, 0.0 ], [ -60.4853312, -31.7528685, 0.0 ], [ -60.4846713, -31.7529643, 0.0 ], [ -60.4849396, -31.7542187, 0.0 ], [ -60.4852856, -31.7558266, 0.0 ], [ -60.4854411, -31.7565564, 0.0 ], [ -60.4857174, -31.757886, 0.0 ], [ -60.4836575, -31.7581962, 0.0 ], [ -60.4817531, -31.758479, 0.0 ], [ -60.4798299, -31.75878, 0.0 ], [ -60.478682, -31.758967, 0.0 ], [ -60.4777861, -31.759097, 0.0 ], [ -60.4755786, -31.7594049, 0.0 ], [ -60.4736099, -31.7597196, 0.0 ], [ -60.4719121, -31.760023, 0.0 ], [ -60.4707346, -31.760194, 0.0 ], [ -60.4687685, -31.7605064, 0.0 ], [ -60.4686324, -31.7605019, 0.0 ], [ -60.4684949, -31.7604973, 0.0 ], [ -60.4652548, -31.7609876, 0.0 ], [ -60.463616, -31.7612453, 0.0 ], [ -60.461489, -31.7615623, 0.0 ], [ -60.4609231, -31.7616513, 0.0 ], [ -60.4586344, -31.7620005, 0.0 ], [ -60.4571753, -31.7622194, 0.0 ], [ -60.4570051, -31.7611441, 0.0 ], [ -60.4569086, -31.7606834, 0.0 ], [ -60.4567892, -31.7601075, 0.0 ], [ -60.4566457, -31.7594405, 0.0 ], [ -60.4564834, -31.7587415, 0.0 ], [ -60.4563145, -31.758006, 0.0 ], [ -60.4561603, -31.7573527, 0.0 ], [ -60.4554025, -31.7574781, 0.0 ], [ -60.4541781, -31.7576697, 0.0 ], [ -60.4533252, -31.7578168, 0.0 ], [ -60.452719, -31.7578897, 0.0 ], [ -60.4525259, -31.7568749, 0.0 ], [ -60.4523211, -31.7558869, 0.0 ], [ -60.4520904, -31.7548697, 0.0 ], [ -60.4519268, -31.7540418, 0.0 ], [ -60.4534959, -31.7537841, 0.0 ], [ -60.455411, -31.7534579, 0.0 ], [ -60.4551803, -31.7523654, 0.0 ], [ -60.4550221, -31.7518774, 0.0 ], [ -60.4550409, -31.7515763, 0.0 ], [ -60.4547995, -31.7507757, 0.0 ], [ -60.4544722, -31.7491609, 0.0 ], [ -60.4541316, -31.7475141, 0.0 ], [ -60.4538017, -31.7459175, 0.0 ], [ -60.4537239, -31.7453929, 0.0 ], [ -60.4537132, -31.7451009, 0.0 ], [ -60.4537239, -31.7447953, 0.0 ], [ -60.4537561, -31.744574, 0.0 ], [ -60.4538339, -31.7441429, 0.0 ], [ -60.4539519, -31.7437323, 0.0 ], [ -60.4540538, -31.7434153, 0.0 ], [ -60.4543287, -31.7425371, 0.0 ], [ -60.4545098, -31.7424761, 0.0 ], [ -60.4547123, -31.7424424, 0.0 ], [ -60.4560681, -31.7422086, 0.0 ], [ -60.4588369, -31.7417683, 0.0 ], [ -60.4585372, -31.7401191, 0.0 ], [ -60.4578298, -31.7369688, 0.0 ], [ -60.4538605, -31.7376109, 0.0 ], [ -60.4545392, -31.7388093, 0.0 ], [ -60.4548531, -31.739734, 0.0 ], [ -60.4549041, -31.7403775, 0.0 ], [ -60.4548478, -31.7409936, 0.0 ], [ -60.454542, -31.7420889, 0.0 ], [ -60.454416, -31.742478, 0.0 ], [ -60.4553823, -31.7423224, 0.0 ], [ -60.455457, -31.7423382, 0.0 ], [ -60.4554728, -31.7423699, 0.0 ], [ -60.4556311, -31.7430067, 0.0 ] ] } },
{ "type": "Feature", "properties": { "Name": "Desvío", "description": "El cartel [Parque Industrial] se desvía para recorrer los barrios El Trébol y Las Rosas, tanto en el recorrido de ida (rojo) como de vuelta (azul). Luego retoma el recorrido principal.", "timestamp": null, "begin": null, "end": null, "altitudeMode": null, "tessellate": 1, "extrude": 0, "visibility": -1, "drawOrder": null, "icon": null }, "geometry": { "type": "LineString", "coordinates": [ [ -60.4687685, -31.7605064, 0.0 ], [ -60.4687147, -31.7604894, 0.0 ], [ -60.4686891, -31.7604619, 0.0 ], [ -60.468669, -31.7603738, 0.0 ], [ -60.4686168, -31.7601743, 0.0 ], [ -60.4686008, -31.7601516, 0.0 ] ] } },
{ "type": "Feature", "properties": { "Name": "Retorno", "description": "El cartel [Parque Industrial] se desvía para recorrer los barrios El Trébol y Las Rosas, tanto en el recorrido de ida (rojo) como de vuelta (azul). Luego retoma el recorrido principal.", "timestamp": null, "begin": null, "end": null, "altitudeMode": null, "tessellate": 1, "extrude": 0, "visibility": -1, "drawOrder": null, "icon": null }, "geometry": { "type": "LineString", "coordinates": [ [ -60.4686431, -31.7601429, 0.0 ], [ -60.4686383, -31.7601712, 0.0 ], [ -60.4686694, -31.760284, 0.0 ], [ -60.468689, -31.7603521, 0.0 ], [ -60.4687043, -31.7603977, 0.0 ], [ -60.4686993, -31.7604341, 0.0 ], [ -60.4686707, -31.7604512, 0.0 ], [ -60.4686388, -31.7604643, 0.0 ], [ -60.468587, -31.7604854, 0.0 ], [ -60.4684949, -31.7604973, 0.0 ] ] } },
{ "type": "Feature", "properties": { "Name": "Centro > Parque Industrial", "description": "Mapa creado por Paraná Online. Más info: https://www.paranaonline.com.ar/linea-c/", "timestamp": null, "begin": null, "end": null, "altitudeMode": null, "tessellate": 1, "extrude": 0, "visibility": -1, "drawOrder": null, "icon": null }, "geometry": { "type": "LineString", "coordinates": [ [ -60.4572626, -31.7622118, 0.0 ], [ -60.4583301, -31.7670874, 0.0 ], [ -60.4525688, -31.7679585, 0.0 ], [ -60.4468771, -31.768784, 0.0 ], [ -60.4474281, -31.7712173, 0.0 ] ] } }
]
}
