{
"type": "FeatureCollection",
"name": "linea_h_recorridos",
"crs": { "type": "name", "properties": { "name": "urn:ogc:def:crs:OGC:1.3:CRS84" } },
"features": [
{ "type": "Feature", "properties": { "Name": "Bº Parque Mayor -> Centro", "description": "Mapa creado por Paraná Online. Más info: https://www.paranaonline.com.ar/linea-h/", "timestamp": null, "begin": null, "end": null, "altitudeMode": null, "tessellate": 1, "extrude": 0, "visibility": -1, "drawOrder": null, "icon": null }, "geometry": { "type": "LineString", "coordinates": [ [ -60.503769, -31.773128, 0.0 ], [ -60.50363, -31.772092, 0.0 ], [ -60.503448, -31.771257, 0.0 ], [ -60.506303, -31.770781, 0.0 ], [ -60.505956, -31.769168, 0.0 ], [ -60.505281, -31.766003, 0.0 ], [ -60.504908, -31.764321, 0.0 ], [ -60.5047807, -31.7635212, 0.0 ], [ -60.5045349, -31.7624839, 0.0 ], [ -60.5041668, -31.7608707, 0.0 ], [ -60.503802, -31.759286, 0.0 ], [ -60.50292, -31.755121, 0.0 ], [ -60.50577, -31.754646, 0.0 ], [ -60.508695, -31.754195, 0.0 ], [ -60.514322, -31.753304, 0.0 ], [ -60.519071, -31.752572, 0.0 ], [ -60.51993, -31.751795, 0.0 ], [ -60.519412, -31.749399, 0.0 ], [ -60.518974, -31.747393, 0.0 ], [ -60.518701, -31.7462749, 0.0 ], [ -60.5184307, -31.7448968, 0.0 ], [ -60.518278, -31.743935, 0.0 ], [ -60.5179101, -31.7426865, 0.0 ], [ -60.5181232, -31.742559, 0.0 ], [ -60.518634, -31.7423083, 0.0 ], [ -60.5194577, -31.7418223, 0.0 ], [ -60.5204097, -31.7412699, 0.0 ], [ -60.5211378, -31.7408521, 0.0 ], [ -60.5219025, -31.7404497, 0.0 ], [ -60.5226122, -31.7401077, 0.0 ], [ -60.521606, -31.7385804, 0.0 ], [ -60.5206119, -31.7371684, 0.0 ], [ -60.5196145, -31.7357328, 0.0 ], [ -60.5191295, -31.7349584, 0.0 ], [ -60.5200222, -31.7346979, 0.0 ], [ -60.5207057, -31.7345332, 0.0 ], [ -60.5222175, -31.7341673, 0.0 ], [ -60.5253224, -31.7331309, 0.0 ], [ -60.526962, -31.732619, 0.0 ], [ -60.5284714, -31.7319098, 0.0 ], [ -60.527779, -31.73058, 0.0 ], [ -60.527006, -31.729048, 0.0 ], [ -60.5292085, -31.7284277, 0.0 ] ] } },
{ "type": "Feature", "properties": { "Name": "Centro -> Bº Parque Mayor", "description": "Mapa creado por Paraná Online. Más info: https://www.paranaonline.com.ar/linea-h/", "timestamp": null, "begin": null, "end": null, "altitudeMode": null, "tessellate": 1, "extrude": 0, "visibility": -1, "drawOrder": null, "icon": null }, "geometry": { "type": "LineString", "coordinates": [ [ -60.529234, -31.7284205, 0.0 ], [ -60.5325721, -31.7274787, 0.0 ], [ -60.534714, -31.731784, 0.0 ], [ -60.531951, -31.732785, 0.0 ], [ -60.529649, -31.733667, 0.0 ], [ -60.5264103, -31.7349129, 0.0 ], [ -60.5244241, -31.7357009, 0.0 ], [ -60.5243372, -31.7358023, 0.0 ], [ -60.522736, -31.737308, 0.0 ], [ -60.52264, -31.737478, 0.0 ], [ -60.521682, -31.738344, 0.0 ], [ -60.520335, -31.739599, 0.0 ], [ -60.519807, -31.74019, 0.0 ], [ -60.5193, -31.740687, 0.0 ], [ -60.519025, -31.74094, 0.0 ], [ -60.518787, -31.741127, 0.0 ], [ -60.51821, -31.74218, 0.0 ], [ -60.518035, -31.742472, 0.0 ], [ -60.5181905, -31.7429457, 0.0 ], [ -60.5184051, -31.7438253, 0.0 ], [ -60.5185435, -31.7445287, 0.0 ], [ -60.5186309, -31.7451569, 0.0 ], [ -60.5188616, -31.7462388, 0.0 ], [ -60.5192912, -31.7481781, 0.0 ], [ -60.5196726, -31.7499736, 0.0 ], [ -60.5199999, -31.7514393, 0.0 ], [ -60.520027, -31.751792, 0.0 ], [ -60.519095, -31.752628, 0.0 ], [ -60.510974, -31.753896, 0.0 ], [ -60.506343, -31.754613, 0.0 ], [ -60.502977, -31.755162, 0.0 ], [ -60.5034437, -31.7572665, 0.0 ], [ -60.5038701, -31.7592934, 0.0 ], [ -60.504232, -31.760889, 0.0 ], [ -60.5045441, -31.7622136, 0.0 ], [ -60.5048401, -31.7635244, 0.0 ], [ -60.504958, -31.764298, 0.0 ], [ -60.505113, -31.765004, 0.0 ], [ -60.50559, -31.767222, 0.0 ], [ -60.5059688, -31.7690365, 0.0 ], [ -60.5061515, -31.7699358, 0.0 ], [ -60.5063422, -31.7708032, 0.0 ], [ -60.5035196, -31.7712793, 0.0 ], [ -60.50371, -31.772072, 0.0 ], [ -60.5038348, -31.7731376, 0.0 ] ] } }
]
}
