{
"type": "FeatureCollection",
"name": "linea_e_recorridos",
"crs": { "type": "name", "properties": { "name": "urn:ogc:def:crs:OGC:1.3:CRS84" } },
"features": [
{ "type": "Feature", "properties": { "Name": "Bº Parque Mayor > Bº Francisco Ramírez", "description": "Mapa creado por Paraná Online. Más info: https://www.paranaonline.com.ar/linea-e/", "timestamp": null, "begin": null, "end": null, "altitudeMode": null, "tessellate": 1, "extrude": 0, "visibility": -1, "drawOrder": null, "icon": null }, "geometry": { "type": "LineString", "coordinates": [ [ -60.503763, -31.773136, 0.0 ], [ -60.50365, -31.77209, 0.0 ], [ -60.503456, -31.771254, 0.0 ], [ -60.506282, -31.770761, 0.0 ], [ -60.505914, -31.769146, 0.0 ], [ -60.511626, -31.768239, 0.0 ], [ -60.510534, -31.76339, 0.0 ], [ -60.509576, -31.758737, 0.0 ], [ -60.508865, -31.755442, 0.0 ], [ -60.508568, -31.754104, 0.0 ], [ -60.508072, -31.751822, 0.0 ], [ -60.509657, -31.751566, 0.0 ], [ -60.511738, -31.750205, 0.0 ], [ -60.51253, -31.749592, 0.0 ], [ -60.512859, -31.749231, 0.0 ], [ -60.513209, -31.748523, 0.0 ], [ -60.513808, -31.74838, 0.0 ], [ -60.514278, -31.748216, 0.0 ], [ -60.518868, -31.747514, 0.0 ], [ -60.520809, -31.747217, 0.0 ], [ -60.523489, -31.746771, 0.0 ], [ -60.524419, -31.746656, 0.0 ], [ -60.524737, -31.746542, 0.0 ], [ -60.526764, -31.74619, 0.0 ], [ -60.526188, -31.745303, 0.0 ], [ -60.525513, -31.744272, 0.0 ], [ -60.523559, -31.741496, 0.0 ], [ -60.521654, -31.738665, 0.0 ], [ -60.519727, -31.735868, 0.0 ], [ -60.517837, -31.733048, 0.0 ], [ -60.521028, -31.732033, 0.0 ], [ -60.52041, -31.730891, 0.0 ], [ -60.529897, -31.728275, 0.0 ], [ -60.533097, -31.727376, 0.0 ], [ -60.537285, -31.726053, 0.0 ], [ -60.535116, -31.721017, 0.0 ], [ -60.536678, -31.71928, 0.0 ], [ -60.536628, -31.71912, 0.0 ], [ -60.536732, -31.718993, 0.0 ], [ -60.536888, -31.718968, 0.0 ], [ -60.537017, -31.719076, 0.0 ], [ -60.537022, -31.719233, 0.0 ], [ -60.536829, -31.719347, 0.0 ], [ -60.536935, -31.71995, 0.0 ], [ -60.537107, -31.720586, 0.0 ], [ -60.537535, -31.721498, 0.0 ], [ -60.539913, -31.720706, 0.0 ], [ -60.540425, -31.719848, 0.0 ], [ -60.54146, -31.720597, 0.0 ], [ -60.541883, -31.72088, 0.0 ], [ -60.542374, -31.721193, 0.0 ], [ -60.542805, -31.721762, 0.0 ], [ -60.543459, -31.722637, 0.0 ] ] } },
{ "type": "Feature", "properties": { "Name": "Bº Francisco Ramírez > Bº Parque Mayor", "description": "Mapa creado por Paraná Online. Más info: https://www.paranaonline.com.ar/linea-e/", "timestamp": null, "begin": null, "end": null, "altitudeMode": null, "tessellate": 1, "extrude": 0, "visibility": -1, "drawOrder": null, "icon": null }, "geometry": { "type": "LineString", "coordinates": [ [ -60.5458463, -31.7222224, 0.0 ], [ -60.546186, -31.72204, 0.0 ], [ -60.545824, -31.721542, 0.0 ], [ -60.545392, -31.720954, 0.0 ], [ -60.545091, -31.720718, 0.0 ], [ -60.543306, -31.719778, 0.0 ], [ -60.543054, -31.719597, 0.0 ], [ -60.542721, -31.719184, 0.0 ], [ -60.542068, -31.718217, 0.0 ], [ -60.541733, -31.717671, 0.0 ], [ -60.541669, -31.717324, 0.0 ], [ -60.541337, -31.716723, 0.0 ], [ -60.541114, -31.71642, 0.0 ], [ -60.540826, -31.716085, 0.0 ], [ -60.540554, -31.715816, 0.0 ], [ -60.540371, -31.716073, 0.0 ], [ -60.539764, -31.71698, 0.0 ], [ -60.540106, -31.717157, 0.0 ], [ -60.540394, -31.717333, 0.0 ], [ -60.54045, -31.717453, 0.0 ], [ -60.540441, -31.717562, 0.0 ], [ -60.540354, -31.717711, 0.0 ], [ -60.540193, -31.717813, 0.0 ], [ -60.540027, -31.71782, 0.0 ], [ -60.539715, -31.717725, 0.0 ], [ -60.539553, -31.717735, 0.0 ], [ -60.539459, -31.717824, 0.0 ], [ -60.539426, -31.718092, 0.0 ], [ -60.539401, -31.718306, 0.0 ], [ -60.539247, -31.71849, 0.0 ], [ -60.538837, -31.718741, 0.0 ], [ -60.53801, -31.718158, 0.0 ], [ -60.537867, -31.718124, 0.0 ], [ -60.537064, -31.719035, 0.0 ], [ -60.537081, -31.719188, 0.0 ], [ -60.536983, -31.719315, 0.0 ], [ -60.53677, -31.719365, 0.0 ], [ -60.536714, -31.719337, 0.0 ], [ -60.536589, -31.719483, 0.0 ], [ -60.533896, -31.7225018, 0.0 ], [ -60.532586, -31.7239083, 0.0 ], [ -60.5315608, -31.7249599, 0.0 ], [ -60.5311632, -31.7254018, 0.0 ], [ -60.5308878, -31.7257036, 0.0 ], [ -60.5306284, -31.7260099, 0.0 ], [ -60.529642, -31.727062, 0.0 ], [ -60.52559, -31.728097, 0.0 ], [ -60.521703, -31.729122, 0.0 ], [ -60.523833, -31.73318, 0.0 ], [ -60.525041, -31.735377, 0.0 ], [ -60.524377, -31.735671, 0.0 ], [ -60.522712, -31.737337, 0.0 ], [ -60.525744, -31.741763, 0.0 ], [ -60.526458, -31.742742, 0.0 ], [ -60.523965, -31.744917, 0.0 ], [ -60.523176, -31.745571, 0.0 ], [ -60.522387, -31.746171, 0.0 ], [ -60.520516, -31.747574, 0.0 ], [ -60.519271, -31.748335, 0.0 ], [ -60.519637, -31.750018, 0.0 ], [ -60.513883, -31.750958, 0.0 ], [ -60.513494, -31.749055, 0.0 ], [ -60.513266, -31.749155, 0.0 ], [ -60.512615, -31.749761, 0.0 ], [ -60.512008, -31.750139, 0.0 ], [ -60.509708, -31.751665, 0.0 ], [ -60.508166, -31.75191, 0.0 ], [ -60.509611, -31.758565, 0.0 ], [ -60.511706, -31.768289, 0.0 ], [ -60.506002, -31.769195, 0.0 ], [ -60.50634, -31.770808, 0.0 ], [ -60.503533, -31.771294, 0.0 ], [ -60.503706, -31.772072, 0.0 ], [ -60.503834, -31.773138, 0.0 ] ] } }
]
}
