{
"type": "FeatureCollection",
"name": "linea_d_recorridos",
"crs": { "type": "name", "properties": { "name": "urn:ogc:def:crs:OGC:1.3:CRS84" } },
"features": [
{ "type": "Feature", "properties": { "Name": "Bº Policial - Toma Vieja", "description": "Mapa creado por Paraná Online. Más info: https://www.paranaonline.com.ar/linea-d/<br><br>nombre: <br>descripción: ", "timestamp": null, "begin": null, "end": null, "altitudeMode": null, "tessellate": 1, "extrude": 0, "visibility": -1, "drawOrder": null, "icon": null, "nombre": "", "descripci__n": "" }, "geometry": { "type": "LineString", "coordinates": [ [ -60.484686, -31.752955, 0.0 ], [ -60.485444, -31.756494, 0.0 ], [ -60.488234, -31.756012, 0.0 ], [ -60.4873845, -31.7519413, 0.0 ], [ -60.4871036, -31.7504387, 0.0 ], [ -60.4869014, -31.7495202, 0.0 ], [ -60.4867449, -31.7489462, 0.0 ], [ -60.487452, -31.748827, 0.0 ], [ -60.4881967, -31.7487351, 0.0 ], [ -60.4895789, -31.7485262, 0.0 ], [ -60.489232, -31.747118, 0.0 ], [ -60.495194, -31.746224, 0.0 ], [ -60.4960149, -31.746097, 0.0 ], [ -60.4964964, -31.7460228, 0.0 ], [ -60.496925, -31.745944, 0.0 ], [ -60.500884, -31.745302, 0.0 ], [ -60.506487, -31.744402, 0.0 ], [ -60.512311, -31.743456, 0.0 ], [ -60.512911, -31.746058, 0.0 ], [ -60.51469, -31.745279, 0.0 ], [ -60.515532, -31.744706, 0.0 ], [ -60.517473, -31.74301, 0.0 ], [ -60.518124, -31.742539, 0.0 ], [ -60.521153, -31.740838, 0.0 ], [ -60.5237, -31.739494, 0.0 ], [ -60.526947, -31.737869, 0.0 ], [ -60.530654, -31.735895, 0.0 ], [ -60.534045, -31.734491, 0.0 ], [ -60.531925, -31.729205, 0.0 ], [ -60.531338, -31.727878, 0.0 ], [ -60.530688, -31.725975, 0.0 ], [ -60.529959, -31.724155, 0.0 ], [ -60.529483, -31.72299, 0.0 ], [ -60.521373, -31.725262, 0.0 ], [ -60.52088, -31.724309, 0.0 ], [ -60.5200996, -31.722803, 0.0 ], [ -60.520388, -31.722068, 0.0 ], [ -60.520578, -31.721535, 0.0 ], [ -60.520095, -31.720501, 0.0 ], [ -60.513845, -31.723268, 0.0 ], [ -60.513308, -31.720746, 0.0 ], [ -60.512735, -31.718051, 0.0 ], [ -60.509978, -31.71751, 0.0 ], [ -60.510513, -31.719964, 0.0 ], [ -60.510706, -31.721167, 0.0 ], [ -60.503675, -31.722299, 0.0 ], [ -60.496272, -31.72344, 0.0 ], [ -60.4903013, -31.7243847, 0.0 ], [ -60.4885734, -31.7161941, 0.0 ], [ -60.4883078, -31.7149477, 0.0 ], [ -60.4878169, -31.7123734, 0.0 ] ] } },
{ "type": "Feature", "properties": { "Name": "Toma Nueva - Bº Policial", "description": "Mapa creado por Paraná Online. Más info: https://www.paranaonline.com.ar/linea-d/<br><br>nombre: <br>descripción: ", "timestamp": null, "begin": null, "end": null, "altitudeMode": null, "tessellate": 1, "extrude": 0, "visibility": -1, "drawOrder": null, "icon": null, "nombre": "", "descripci__n": "" }, "geometry": { "type": "LineString", "coordinates": [ [ -60.4878718, -31.7123438, 0.0 ], [ -60.4934797, -31.7115089, 0.0 ], [ -60.495658, -31.721067, 0.0 ], [ -60.489861, -31.721922, 0.0 ], [ -60.491487, -31.729711, 0.0 ], [ -60.492629, -31.72914, 0.0 ], [ -60.494195, -31.728567, 0.0 ], [ -60.496978, -31.727319, 0.0 ], [ -60.496145, -31.723391, 0.0 ], [ -60.503424, -31.72223, 0.0 ], [ -60.510641, -31.721107, 0.0 ], [ -60.510178, -31.718786, 0.0 ], [ -60.51295, -31.718319, 0.0 ], [ -60.513956, -31.723077, 0.0 ], [ -60.520166, -31.720376, 0.0 ], [ -60.520719, -31.721545, 0.0 ], [ -60.520226, -31.722748, 0.0 ], [ -60.5209415, -31.7242938, 0.0 ], [ -60.5273558, -31.7219897, 0.0 ], [ -60.530005, -31.72105, 0.0 ], [ -60.5315716, -31.725044, 0.0 ], [ -60.532548, -31.72737, 0.0 ], [ -60.533206, -31.728737, 0.0 ], [ -60.534149, -31.730608, 0.0 ], [ -60.534693, -31.73173, 0.0 ], [ -60.524373, -31.735643, 0.0 ], [ -60.518795, -31.741147, 0.0 ], [ -60.517919, -31.742559, 0.0 ], [ -60.515148, -31.743122, 0.0 ], [ -60.500872, -31.745359, 0.0 ], [ -60.497019, -31.746012, 0.0 ], [ -60.4964737, -31.7460954, 0.0 ], [ -60.496159, -31.7461399, 0.0 ], [ -60.4956956, -31.746219, 0.0 ], [ -60.495136, -31.746317, 0.0 ], [ -60.492785, -31.746643, 0.0 ], [ -60.489315, -31.747179, 0.0 ], [ -60.4897817, -31.7492766, 0.0 ], [ -60.4870008, -31.7497268, 0.0 ], [ -60.4876197, -31.752922, 0.0 ], [ -60.4880482, -31.7549935, 0.0 ], [ -60.4882195, -31.7557623, 0.0 ], [ -60.4882688, -31.7560568, 0.0 ], [ -60.485407, -31.756546, 0.0 ], [ -60.4842984, -31.7513948, 0.0 ], [ -60.4850214, -31.7512849, 0.0 ], [ -60.4853521, -31.7528455, 0.0 ], [ -60.4847226, -31.7529522, 0.0 ] ] } },
{ "type": "Feature", "properties": { "Name": "Verano", "description": "Mapa creado por Paraná Online. Más info: https://www.paranaonline.com.ar/linea-d/<br><br>nombre: Verano<br>descripción: ", "timestamp": null, "begin": null, "end": null, "altitudeMode": null, "tessellate": 1, "extrude": 0, "visibility": -1, "drawOrder": null, "icon": null, "nombre": "Verano", "descripci__n": "" }, "geometry": { "type": "LineString", "coordinates": [ [ -60.4850027, -31.7037738, 0.0 ], [ -60.4854318, -31.7039016, 0.0 ], [ -60.4857429, -31.7041389, 0.0 ], [ -60.4859575, -31.7043215, 0.0 ], [ -60.486097, -31.7045953, 0.0 ], [ -60.4862365, -31.7050974, 0.0 ], [ -60.486954, -31.7085019, 0.0 ], [ -60.4873556, -31.7100786, 0.0 ], [ -60.487752, -31.7118744, 0.0 ], [ -60.4886263, -31.7162301, 0.0 ], [ -60.4891868, -31.7188038, 0.0 ], [ -60.4898628, -31.7218452, 0.0 ] ] } }
]
}
