{
"type": "FeatureCollection",
"name": "linea_p_paradas_aeropuerto_hospital",
"crs": { "type": "name", "properties": { "name": "urn:ogc:def:crs:OGC:1.3:CRS84" } },
"features": [
{ "type": "Feature", "properties": { "Name": "Punto 1", "description": null, "timestamp": null, "begin": null, "end": null, "altitudeMode": null, "tessellate": -1, "extrude": 0, "visibility": -1, "drawOrder": null, "icon": null }, "geometry": { "type": "Point", "coordinates": [ -60.4844414, -31.7779971, 0.0 ] } },
{ "type": "Feature", "properties": { "Name": "Punto 2", "description": null, "timestamp": null, "begin": null, "end": null, "altitudeMode": null, "tessellate": -1, "extrude": 0, "visibility": -1, "drawOrder": null, "icon": null }, "geometry": { "type": "Point", "coordinates": [ -60.4861623, -31.7777517, 0.0 ] } },
{ "type": "Feature", "properties": { "Name": "Punto 3", "description": null, "timestamp": null, "begin": null, "end": null, "altitudeMode": null, "tessellate": -1, "extrude": 0, "visibility": -1, "drawOrder": null, "icon": null }, "geometry": { "type": "Point", "coordinates": [ -60.4895903, -31.7771817, 0.0 ] } },
{ "type": "Feature", "properties": { "Name": "Punto 4", "description": null, "timestamp": null, "begin": null, "end": null, "altitudeMode": null, "tessellate": -1, "extrude": 0, "visibility": -1, "drawOrder": null, "icon": null }, "geometry": { "type": "Point", "coordinates": [ -60.4953838, -31.7762514, 0.0 ] } },
{ "type": "Feature", "properties": { "Name": "Punto 5", "description": null, "timestamp": null, "begin": null, "end": null, "altitudeMode": null, "tessellate": -1, "extrude": 0, "visibility": -1, "drawOrder": null, "icon": null }, "geometry": { "type": "Point", "coordinates": [ -60.4972126, -31.7759781, 0.0 ] } },
{ "type": "Feature", "properties": { "Name": "Punto 6", "description": null, "timestamp": null, "begin": null, "end": null, "altitudeMode": null, "tessellate": -1, "extrude": 0, "visibility": -1, "drawOrder": null, "icon": null }, "geometry": { "type": "Point", "coordinates": [ -60.5000483, -31.7755585, 0.0 ] } },
{ "type": "Feature", "properties": { "Name": "Punto 7", "description": null, "timestamp": null, "begin": null, "end": null, "altitudeMode": null, "tessellate": -1, "extrude": 0, "visibility": -1, "drawOrder": null, "icon": null }, "geometry": { "type": "Point", "coordinates": [ -60.5008851, -31.7743637, 0.0 ] } },
{ "type": "Feature", "properties": { "Name": "Punto 8", "description": null, "timestamp": null, "begin": null, "end": null, "altitudeMode": null, "tessellate": -1, "extrude": 0, "visibility": -1, "drawOrder": null, "icon": null }, "geometry": { "type": "Point", "coordinates": [ -60.5005597, -31.7727997, 0.0 ] } },
{ "type": "Feature", "properties": { "Name": "Punto 9", "description": null, "timestamp": null, "begin": null, "end": null, "altitudeMode": null, "tessellate": -1, "extrude": 0, "visibility": -1, "drawOrder": null, "icon": null }, "geometry": { "type": "Point", "coordinates": [ -60.5003263, -31.7718351, 0.0 ] } },
{ "type": "Feature", "properties": { "Name": "Punto 10", "description": null, "timestamp": null, "begin": null, "end": null, "altitudeMode": null, "tessellate": -1, "extrude": 0, "visibility": -1, "drawOrder": null, "icon": null }, "geometry": { "type": "Point", "coordinates": [ -60.4999615, -31.7702307, 0.0 ] } },
{ "type": "Feature", "properties": { "Name": "Punto 11", "description": null, "timestamp": null, "begin": null, "end": null, "altitudeMode": null, "tessellate": -1, "extrude": 0, "visibility": -1, "drawOrder": null, "icon": null }, "geometry": { "type": "Point", "coordinates": [ -60.499696, -31.7690495, 0.0 ] } },
{ "type": "Feature", "properties": { "Name": "Punto 12", "description": null, "timestamp": null, "begin": null, "end": null, "altitudeMode": null, "tessellate": -1, "extrude": 0, "visibility": -1, "drawOrder": null, "icon": null }, "geometry": { "type": "Point", "coordinates": [ -60.4991488, -31.7664204, 0.0 ] } },
{ "type": "Feature", "properties": { "Name": "Punto 13", "description": null, "timestamp": null, "begin": null, "end": null, "altitudeMode": null, "tessellate": -1, "extrude": 0, "visibility": -1, "drawOrder": null, "icon": null }, "geometry": { "type": "Point", "coordinates": [ -60.5005955, -31.764902, 0.0 ] } },
{ "type": "Feature", "properties": { "Name": "Punto 14", "description": null, "timestamp": null, "begin": null, "end": null, "altitudeMode": null, "tessellate": -1, "extrude": 0, "visibility": -1, "drawOrder": null, "icon": null }, "geometry": { "type": "Point", "coordinates": [ -60.5010783, -31.7611529, 0.0 ] } },
{ "type": "Feature", "properties": { "Name": "Punto 15", "description": null, "timestamp": null, "begin": null, "end": null, "altitudeMode": null, "tessellate": -1, "extrude": 0, "visibility": -1, "drawOrder": null, "icon": null }, "geometry": { "type": "Point", "coordinates": [ -60.5077172, -31.7585682, 0.0 ] } },
{ "type": "Feature", "properties": { "Name": "Punto 16", "description": null, "timestamp": null, "begin": null, "end": null, "altitudeMode": null, "tessellate": -1, "extrude": 0, "visibility": -1, "drawOrder": null, "icon": null }, "geometry": { "type": "Point", "coordinates": [ -60.5103675, -31.7581662, 0.0 ] } },
{ "type": "Feature", "properties": { "Name": "Punto 17", "description": null, "timestamp": null, "begin": null, "end": null, "altitudeMode": null, "tessellate": -1, "extrude": 0, "visibility": -1, "drawOrder": null, "icon": null }, "geometry": { "type": "Point", "coordinates": [ -60.5126511, -31.7578066, 0.0 ] } },
{ "type": "Feature", "properties": { "Name": "Punto 18", "description": null, "timestamp": null, "begin": null, "end": null, "altitudeMode": null, "tessellate": -1, "extrude": 0, "visibility": -1, "drawOrder": null, "icon": null }, "geometry": { "type": "Point", "coordinates": [ -60.5169237, -31.7571395, 0.0 ] } },
{ "type": "Feature", "properties": { "Name": "Punto 19", "description": null, "timestamp": null, "begin": null, "end": null, "altitudeMode": null, "tessellate": -1, "extrude": 0, "visibility": -1, "drawOrder": null, "icon": null }, "geometry": { "type": "Point", "coordinates": [ -60.5196488, -31.7567153, 0.0 ] } },
{ "type": "Feature", "properties": { "Name": "Punto 20", "description": null, "timestamp": null, "begin": null, "end": null, "altitudeMode": null, "tessellate": -1, "extrude": 0, "visibility": -1, "drawOrder": null, "icon": null }, "geometry": { "type": "Point", "coordinates": [ -60.5251378, -31.7559409, 0.0 ] } },
{ "type": "Feature", "properties": { "Name": "Punto 21", "description": null, "timestamp": null, "begin": null, "end": null, "altitudeMode": null, "tessellate": -1, "extrude": 0, "visibility": -1, "drawOrder": null, "icon": null }, "geometry": { "type": "Point", "coordinates": [ -60.5282491, -31.7553798, 0.0 ] } },
{ "type": "Feature", "properties": { "Name": "Punto 22", "description": null, "timestamp": null, "begin": null, "end": null, "altitudeMode": null, "tessellate": -1, "extrude": 0, "visibility": -1, "drawOrder": null, "icon": null }, "geometry": { "type": "Point", "coordinates": [ -60.5309389, -31.7545398, 0.0 ] } },
{ "type": "Feature", "properties": { "Name": "Punto 23", "description": null, "timestamp": null, "begin": null, "end": null, "altitudeMode": null, "tessellate": -1, "extrude": 0, "visibility": -1, "drawOrder": null, "icon": null }, "geometry": { "type": "Point", "coordinates": [ -60.5312232, -31.7534086, 0.0 ] } },
{ "type": "Feature", "properties": { "Name": "Punto 24", "description": null, "timestamp": null, "begin": null, "end": null, "altitudeMode": null, "tessellate": -1, "extrude": 0, "visibility": -1, "drawOrder": null, "icon": null }, "geometry": { "type": "Point", "coordinates": [ -60.5322249, -31.7504377, 0.0 ] } },
{ "type": "Feature", "properties": { "Name": "Punto 25", "description": null, "timestamp": null, "begin": null, "end": null, "altitudeMode": null, "tessellate": -1, "extrude": 0, "visibility": -1, "drawOrder": null, "icon": null }, "geometry": { "type": "Point", "coordinates": [ -60.5310501, -31.7519863, 0.0 ] } },
{ "type": "Feature", "properties": { "Name": "Punto 26", "description": null, "timestamp": null, "begin": null, "end": null, "altitudeMode": null, "tessellate": -1, "extrude": 0, "visibility": -1, "drawOrder": null, "icon": null }, "geometry": { "type": "Point", "coordinates": [ -60.5329989, -31.749533, 0.0 ] } },
{ "type": "Feature", "properties": { "Name": "Punto 27", "description": null, "timestamp": null, "begin": null, "end": null, "altitudeMode": null, "tessellate": -1, "extrude": 0, "visibility": -1, "drawOrder": null, "icon": null }, "geometry": { "type": "Point", "coordinates": [ -60.5336502, -31.7484279, 0.0 ] } },
{ "type": "Feature", "properties": { "Name": "Punto 28", "description": null, "timestamp": null, "begin": null, "end": null, "altitudeMode": null, "tessellate": -1, "extrude": 0, "visibility": -1, "drawOrder": null, "icon": null }, "geometry": { "type": "Point", "coordinates": [ -60.5337146, -31.7472145, 0.0 ] } },
{ "type": "Feature", "properties": { "Name": "Punto 29", "description": null, "timestamp": null, "begin": null, "end": null, "altitudeMode": null, "tessellate": -1, "extrude": 0, "visibility": -1, "drawOrder": null, "icon": null }, "geometry": { "type": "Point", "coordinates": [ -60.5343141, -31.7465975, 0.0 ] } },
{ "type": "Feature", "properties": { "Name": "Punto 30", "description": null, "timestamp": null, "begin": null, "end": null, "altitudeMode": null, "tessellate": -1, "extrude": 0, "visibility": -1, "drawOrder": null, "icon": null }, "geometry": { "type": "Point", "coordinates": [ -60.536211, -31.7456929, 0.0 ] } },
{ "type": "Feature", "properties": { "Name": "Punto 31", "description": null, "timestamp": null, "begin": null, "end": null, "altitudeMode": null, "tessellate": -1, "extrude": 0, "visibility": -1, "drawOrder": null, "icon": null }, "geometry": { "type": "Point", "coordinates": [ -60.537605, -31.7444883, 0.0 ] } },
{ "type": "Feature", "properties": { "Name": "Punto 32", "description": null, "timestamp": null, "begin": null, "end": null, "altitudeMode": null, "tessellate": -1, "extrude": 0, "visibility": -1, "drawOrder": null, "icon": null }, "geometry": { "type": "Point", "coordinates": [ -60.5385804, -31.7428322, 0.0 ] } },
{ "type": "Feature", "properties": { "Name": "Punto 33", "description": null, "timestamp": null, "begin": null, "end": null, "altitudeMode": null, "tessellate": -1, "extrude": 0, "visibility": -1, "drawOrder": null, "icon": null }, "geometry": { "type": "Point", "coordinates": [ -60.5378964, -31.7409367, 0.0 ] } },
{ "type": "Feature", "properties": { "Name": "Punto 34", "description": null, "timestamp": null, "begin": null, "end": null, "altitudeMode": null, "tessellate": -1, "extrude": 0, "visibility": -1, "drawOrder": null, "icon": null }, "geometry": { "type": "Point", "coordinates": [ -60.5371339, -31.7401218, 0.0 ] } },
{ "type": "Feature", "properties": { "Name": "Punto 35", "description": null, "timestamp": null, "begin": null, "end": null, "altitudeMode": null, "tessellate": -1, "extrude": 0, "visibility": -1, "drawOrder": null, "icon": null }, "geometry": { "type": "Point", "coordinates": [ -60.5354042, -31.7378674, 0.0 ] } },
{ "type": "Feature", "properties": { "Name": "Punto 36", "description": null, "timestamp": null, "begin": null, "end": null, "altitudeMode": null, "tessellate": -1, "extrude": 0, "visibility": -1, "drawOrder": null, "icon": null }, "geometry": { "type": "Point", "coordinates": [ -60.5344286, -31.7357342, 0.0 ] } },
{ "type": "Feature", "properties": { "Name": "Punto 37", "description": null, "timestamp": null, "begin": null, "end": null, "altitudeMode": null, "tessellate": -1, "extrude": 0, "visibility": -1, "drawOrder": null, "icon": null }, "geometry": { "type": "Point", "coordinates": [ -60.5335435, -31.7334005, 0.0 ] } },
{ "type": "Feature", "properties": { "Name": "Punto 38", "description": null, "timestamp": null, "begin": null, "end": null, "altitudeMode": null, "tessellate": -1, "extrude": 0, "visibility": -1, "drawOrder": null, "icon": null }, "geometry": { "type": "Point", "coordinates": [ -60.5327228, -31.7314305, 0.0 ] } },
{ "type": "Feature", "properties": { "Name": "Punto 39", "description": null, "timestamp": null, "begin": null, "end": null, "altitudeMode": null, "tessellate": -1, "extrude": 0, "visibility": -1, "drawOrder": null, "icon": null }, "geometry": { "type": "Point", "coordinates": [ -60.532358, -31.7305636, 0.0 ] } },
{ "type": "Feature", "properties": { "Name": "Punto 40", "description": null, "timestamp": null, "begin": null, "end": null, "altitudeMode": null, "tessellate": -1, "extrude": 0, "visibility": -1, "drawOrder": null, "icon": null }, "geometry": { "type": "Point", "coordinates": [ -60.5314836, -31.7282362, 0.0 ] } }
]
}
