{
"type": "FeatureCollection",
"name": "linea_c_paradas_desde_centro",
"crs": { "type": "name", "properties": { "name": "urn:ogc:def:crs:OGC:1.3:CRS84" } },
"features": [
{ "type": "Feature", "properties": { "Name": "Punto 1", "description": null, "timestamp": null, "begin": null, "end": null, "altitudeMode": null, "tessellate": -1, "extrude": 0, "visibility": -1, "drawOrder": null, "icon": null }, "geometry": { "type": "Point", "coordinates": [ -60.5293489, -31.7282933, 0.0 ] } },
{ "type": "Feature", "properties": { "Name": "Punto 2", "description": "Mapa creado por Paraná Online. Más info: https://www.paranaonline.com.ar/linea-c/", "timestamp": null, "begin": null, "end": null, "altitudeMode": null, "tessellate": -1, "extrude": 0, "visibility": -1, "drawOrder": null, "icon": null }, "geometry": { "type": "Point", "coordinates": [ -60.5288974, -31.7273814, 0.0 ] } },
{ "type": "Feature", "properties": { "Name": "Punto 3", "description": null, "timestamp": null, "begin": null, "end": null, "altitudeMode": null, "tessellate": -1, "extrude": 0, "visibility": -1, "drawOrder": null, "icon": null }, "geometry": { "type": "Point", "coordinates": [ -60.5250046, -31.7284319, 0.0 ] } },
{ "type": "Feature", "properties": { "Name": "Punto 4", "description": null, "timestamp": null, "begin": null, "end": null, "altitudeMode": null, "tessellate": -1, "extrude": 0, "visibility": -1, "drawOrder": null, "icon": null }, "geometry": { "type": "Point", "coordinates": [ -60.5210211, -31.729457, 0.0 ] } },
{ "type": "Feature", "properties": { "Name": "Punto 5", "description": null, "timestamp": null, "begin": null, "end": null, "altitudeMode": null, "tessellate": -1, "extrude": 0, "visibility": -1, "drawOrder": null, "icon": null }, "geometry": { "type": "Point", "coordinates": [ -60.5180045, -31.7302033, 0.0 ] } },
{ "type": "Feature", "properties": { "Name": "Punto 6", "description": null, "timestamp": null, "begin": null, "end": null, "altitudeMode": null, "tessellate": -1, "extrude": 0, "visibility": -1, "drawOrder": null, "icon": null }, "geometry": { "type": "Point", "coordinates": [ -60.5163359, -31.7340363, 0.0 ] } },
{ "type": "Feature", "properties": { "Name": "Punto 7", "description": null, "timestamp": null, "begin": null, "end": null, "altitudeMode": null, "tessellate": -1, "extrude": 0, "visibility": -1, "drawOrder": null, "icon": null }, "geometry": { "type": "Point", "coordinates": [ -60.5169933, -31.736822, 0.0 ] } },
{ "type": "Feature", "properties": { "Name": "Punto 8", "description": null, "timestamp": null, "begin": null, "end": null, "altitudeMode": null, "tessellate": -1, "extrude": 0, "visibility": -1, "drawOrder": null, "icon": null }, "geometry": { "type": "Point", "coordinates": [ -60.5114209, -31.7387102, 0.0 ] } },
{ "type": "Feature", "properties": { "Name": "Punto 9", "description": null, "timestamp": null, "begin": null, "end": null, "altitudeMode": null, "tessellate": -1, "extrude": 0, "visibility": -1, "drawOrder": null, "icon": null }, "geometry": { "type": "Point", "coordinates": [ -60.5049946, -31.7396157, 0.0 ] } },
{ "type": "Feature", "properties": { "Name": "Punto 10", "description": null, "timestamp": null, "begin": null, "end": null, "altitudeMode": null, "tessellate": -1, "extrude": 0, "visibility": -1, "drawOrder": null, "icon": null }, "geometry": { "type": "Point", "coordinates": [ -60.5002519, -31.7405775, 0.0 ] } },
{ "type": "Feature", "properties": { "Name": "Punto 11", "description": null, "timestamp": null, "begin": null, "end": null, "altitudeMode": null, "tessellate": -1, "extrude": 0, "visibility": -1, "drawOrder": null, "icon": null }, "geometry": { "type": "Point", "coordinates": [ -60.500429, -31.7424178, 0.0 ] } },
{ "type": "Feature", "properties": { "Name": "Punto 12", "description": "Mapa creado por Paraná Online. Más info: https://www.paranaonline.com.ar/linea-c/", "timestamp": null, "begin": null, "end": null, "altitudeMode": null, "tessellate": -1, "extrude": 0, "visibility": -1, "drawOrder": null, "icon": null }, "geometry": { "type": "Point", "coordinates": [ -60.499208, -31.7457659, 0.0 ] } },
{ "type": "Feature", "properties": { "Name": "Punto 13", "description": null, "timestamp": null, "begin": null, "end": null, "altitudeMode": null, "tessellate": -1, "extrude": 0, "visibility": -1, "drawOrder": null, "icon": null }, "geometry": { "type": "Point", "coordinates": [ -60.4976537, -31.748225, 0.0 ] } },
{ "type": "Feature", "properties": { "Name": "Punto 14", "description": null, "timestamp": null, "begin": null, "end": null, "altitudeMode": null, "tessellate": -1, "extrude": 0, "visibility": -1, "drawOrder": null, "icon": null }, "geometry": { "type": "Point", "coordinates": [ -60.4926252, -31.7518401, 0.0 ] } },
{ "type": "Feature", "properties": { "Name": "Punto 15", "description": null, "timestamp": null, "begin": null, "end": null, "altitudeMode": null, "tessellate": -1, "extrude": 0, "visibility": -1, "drawOrder": null, "icon": null }, "geometry": { "type": "Point", "coordinates": [ -60.484963, -31.7530661, 0.0 ] } },
{ "type": "Feature", "properties": { "Name": "Punto 16", "description": null, "timestamp": null, "begin": null, "end": null, "altitudeMode": null, "tessellate": -1, "extrude": 0, "visibility": -1, "drawOrder": null, "icon": null }, "geometry": { "type": "Point", "coordinates": [ -60.4855423, -31.7556428, 0.0 ] } },
{ "type": "Feature", "properties": { "Name": "Punto 17", "description": null, "timestamp": null, "begin": null, "end": null, "altitudeMode": null, "tessellate": -1, "extrude": 0, "visibility": -1, "drawOrder": null, "icon": null }, "geometry": { "type": "Point", "coordinates": [ -60.4846638, -31.7581914, 0.0 ] } },
{ "type": "Feature", "properties": { "Name": "Punto 18", "description": null, "timestamp": null, "begin": null, "end": null, "altitudeMode": null, "tessellate": -1, "extrude": 0, "visibility": -1, "drawOrder": null, "icon": null }, "geometry": { "type": "Point", "coordinates": [ -60.476656, -31.7593867, 0.0 ] } },
{ "type": "Feature", "properties": { "Name": "Punto 19", "description": null, "timestamp": null, "begin": null, "end": null, "altitudeMode": null, "tessellate": -1, "extrude": 0, "visibility": -1, "drawOrder": null, "icon": null }, "geometry": { "type": "Point", "coordinates": [ -60.4722378, -31.7601521, 0.0 ] } },
{ "type": "Feature", "properties": { "Name": "Punto 20", "description": null, "timestamp": null, "begin": null, "end": null, "altitudeMode": null, "tessellate": -1, "extrude": 0, "visibility": -1, "drawOrder": null, "icon": null }, "geometry": { "type": "Point", "coordinates": [ -60.466425, -31.7610022, 0.0 ] } },
{ "type": "Feature", "properties": { "Name": "Punto 21", "description": "Mapa creado por Paraná Online. Más info: https://www.paranaonline.com.ar/linea-c/", "timestamp": null, "begin": null, "end": null, "altitudeMode": null, "tessellate": -1, "extrude": 0, "visibility": -1, "drawOrder": null, "icon": null }, "geometry": { "type": "Point", "coordinates": [ -60.4588546, -31.7621519, 0.0 ] } },
{ "type": "Feature", "properties": { "Name": "Punto 22", "description": null, "timestamp": null, "begin": null, "end": null, "altitudeMode": null, "tessellate": -1, "extrude": 0, "visibility": -1, "drawOrder": null, "icon": null }, "geometry": { "type": "Point", "coordinates": [ -60.4564666, -31.7596648, 0.0 ] } },
{ "type": "Feature", "properties": { "Name": "Punto 23", "description": null, "timestamp": null, "begin": null, "end": null, "altitudeMode": null, "tessellate": -1, "extrude": 0, "visibility": -1, "drawOrder": null, "icon": null }, "geometry": { "type": "Point", "coordinates": [ -60.454131, -31.7577628, 0.0 ] } },
{ "type": "Feature", "properties": { "Name": "Punto 24", "description": "Mapa creado por Paraná Online. Más info: https://www.paranaonline.com.ar/linea-c/", "timestamp": null, "begin": null, "end": null, "altitudeMode": null, "tessellate": -1, "extrude": 0, "visibility": -1, "drawOrder": null, "icon": null }, "geometry": { "type": "Point", "coordinates": [ -60.4523164, -31.7562254, 0.0 ] } },
{ "type": "Feature", "properties": { "Name": "Punto 25", "description": null, "timestamp": null, "begin": null, "end": null, "altitudeMode": null, "tessellate": -1, "extrude": 0, "visibility": -1, "drawOrder": null, "icon": null }, "geometry": { "type": "Point", "coordinates": [ -60.4551886, -31.7534125, 0.0 ] } },
{ "type": "Feature", "properties": { "Name": "Punto 26", "description": null, "timestamp": null, "begin": null, "end": null, "altitudeMode": null, "tessellate": -1, "extrude": 0, "visibility": -1, "drawOrder": null, "icon": null }, "geometry": { "type": "Point", "coordinates": [ -60.4547722, -31.7509899, 0.0 ] } },
{ "type": "Feature", "properties": { "Name": "Punto 27", "description": null, "timestamp": null, "begin": null, "end": null, "altitudeMode": null, "tessellate": -1, "extrude": 0, "visibility": -1, "drawOrder": null, "icon": null }, "geometry": { "type": "Point", "coordinates": [ -60.4556773, -31.7430096, 0.0 ] } },
{ "type": "Feature", "properties": { "Name": "Punto 28", "description": null, "timestamp": null, "begin": null, "end": null, "altitudeMode": null, "tessellate": -1, "extrude": 0, "visibility": -1, "drawOrder": null, "icon": null }, "geometry": { "type": "Point", "coordinates": [ -60.4586735, -31.7415894, 0.0 ] } },
{ "type": "Feature", "properties": { "Name": "Punto 29", "description": null, "timestamp": null, "begin": null, "end": null, "altitudeMode": null, "tessellate": -1, "extrude": 0, "visibility": -1, "drawOrder": null, "icon": null }, "geometry": { "type": "Point", "coordinates": [ -60.4576864, -31.7371558, 0.0 ] } },
{ "type": "Feature", "properties": { "Name": "Punto 30", "description": null, "timestamp": null, "begin": null, "end": null, "altitudeMode": null, "tessellate": -1, "extrude": 0, "visibility": -1, "drawOrder": null, "icon": null }, "geometry": { "type": "Point", "coordinates": [ -60.4553744, -31.742229, 0.0 ] } }
]
}
