{
"type": "FeatureCollection",
"name": "linea_m_paradas_desde_pmayor",
"crs": { "type": "name", "properties": { "name": "urn:ogc:def:crs:OGC:1.3:CRS84" } },
"features": [
{ "type": "Feature", "properties": { "Name": "01", "description": null, "timestamp": null, "begin": null, "end": null, "altitudeMode": null, "tessellate": -1, "extrude": 0, "visibility": -1, "drawOrder": null, "icon": null }, "geometry": { "type": "Point", "coordinates": [ -60.5036989, -31.7731074, 0.0 ] } },
{ "type": "Feature", "properties": { "Name": "02", "description": "Mapa creado por Paraná Online. Más info: https://www.paranaonline.com.ar/linea-m/", "timestamp": null, "begin": null, "end": null, "altitudeMode": null, "tessellate": -1, "extrude": 0, "visibility": -1, "drawOrder": null, "icon": null }, "geometry": { "type": "Point", "coordinates": [ -60.5008552, -31.7726559, 0.0 ] } },
{ "type": "Feature", "properties": { "Name": "03", "description": null, "timestamp": null, "begin": null, "end": null, "altitudeMode": null, "tessellate": -1, "extrude": 0, "visibility": -1, "drawOrder": null, "icon": null }, "geometry": { "type": "Point", "coordinates": [ -60.5011946, -31.7748438, 0.0 ] } },
{ "type": "Feature", "properties": { "Name": "04", "description": null, "timestamp": null, "begin": null, "end": null, "altitudeMode": null, "tessellate": -1, "extrude": 0, "visibility": -1, "drawOrder": null, "icon": null }, "geometry": { "type": "Point", "coordinates": [ -60.5038131, -31.7744076, 0.0 ] } },
{ "type": "Feature", "properties": { "Name": "05", "description": null, "timestamp": null, "begin": null, "end": null, "altitudeMode": null, "tessellate": -1, "extrude": 0, "visibility": -1, "drawOrder": null, "icon": null }, "geometry": { "type": "Point", "coordinates": [ -60.5067839, -31.7738928, 0.0 ] } },
{ "type": "Feature", "properties": { "Name": "06", "description": null, "timestamp": null, "begin": null, "end": null, "altitudeMode": null, "tessellate": -1, "extrude": 0, "visibility": -1, "drawOrder": null, "icon": null }, "geometry": { "type": "Point", "coordinates": [ -60.5103025, -31.7734258, 0.0 ] } },
{ "type": "Feature", "properties": { "Name": "07", "description": null, "timestamp": null, "begin": null, "end": null, "altitudeMode": null, "tessellate": -1, "extrude": 0, "visibility": -1, "drawOrder": null, "icon": null }, "geometry": { "type": "Point", "coordinates": [ -60.513062, -31.773038, 0.0 ] } },
{ "type": "Feature", "properties": { "Name": "08", "description": null, "timestamp": null, "begin": null, "end": null, "altitudeMode": null, "tessellate": -1, "extrude": 0, "visibility": -1, "drawOrder": null, "icon": null }, "geometry": { "type": "Point", "coordinates": [ -60.515502, -31.772677, 0.0 ] } },
{ "type": "Feature", "properties": { "Name": "09", "description": null, "timestamp": null, "begin": null, "end": null, "altitudeMode": null, "tessellate": -1, "extrude": 0, "visibility": -1, "drawOrder": null, "icon": null }, "geometry": { "type": "Point", "coordinates": [ -60.518262, -31.772204, 0.0 ] } },
{ "type": "Feature", "properties": { "Name": "10", "description": null, "timestamp": null, "begin": null, "end": null, "altitudeMode": null, "tessellate": -1, "extrude": 0, "visibility": -1, "drawOrder": null, "icon": null }, "geometry": { "type": "Point", "coordinates": [ -60.517983, -31.770504, 0.0 ] } },
{ "type": "Feature", "properties": { "Name": "11", "description": null, "timestamp": null, "begin": null, "end": null, "altitudeMode": null, "tessellate": -1, "extrude": 0, "visibility": -1, "drawOrder": null, "icon": null }, "geometry": { "type": "Point", "coordinates": [ -60.517714, -31.769244, 0.0 ] } },
{ "type": "Feature", "properties": { "Name": "12", "description": "Mapa creado por Paraná Online. Más info: https://www.paranaonline.com.ar/linea-m/", "timestamp": null, "begin": null, "end": null, "altitudeMode": null, "tessellate": -1, "extrude": 0, "visibility": -1, "drawOrder": null, "icon": null }, "geometry": { "type": "Point", "coordinates": [ -60.518845, -31.767024, 0.0 ] } },
{ "type": "Feature", "properties": { "Name": "13", "description": null, "timestamp": null, "begin": null, "end": null, "altitudeMode": null, "tessellate": -1, "extrude": 0, "visibility": -1, "drawOrder": null, "icon": null }, "geometry": { "type": "Point", "coordinates": [ -60.52041, -31.766833, 0.0 ] } },
{ "type": "Feature", "properties": { "Name": "14", "description": null, "timestamp": null, "begin": null, "end": null, "altitudeMode": null, "tessellate": -1, "extrude": 0, "visibility": -1, "drawOrder": null, "icon": null }, "geometry": { "type": "Point", "coordinates": [ -60.521712, -31.766503, 0.0 ] } },
{ "type": "Feature", "properties": { "Name": "15", "description": null, "timestamp": null, "begin": null, "end": null, "altitudeMode": null, "tessellate": -1, "extrude": 0, "visibility": -1, "drawOrder": null, "icon": null }, "geometry": { "type": "Point", "coordinates": [ -60.522584, -31.765446, 0.0 ] } },
{ "type": "Feature", "properties": { "Name": "16", "description": null, "timestamp": null, "begin": null, "end": null, "altitudeMode": null, "tessellate": -1, "extrude": 0, "visibility": -1, "drawOrder": null, "icon": null }, "geometry": { "type": "Point", "coordinates": [ -60.522122, -31.763206, 0.0 ] } },
{ "type": "Feature", "properties": { "Name": "17", "description": null, "timestamp": null, "begin": null, "end": null, "altitudeMode": null, "tessellate": -1, "extrude": 0, "visibility": -1, "drawOrder": null, "icon": null }, "geometry": { "type": "Point", "coordinates": [ -60.521832, -31.761641, 0.0 ] } },
{ "type": "Feature", "properties": { "Name": "18", "description": null, "timestamp": null, "begin": null, "end": null, "altitudeMode": null, "tessellate": -1, "extrude": 0, "visibility": -1, "drawOrder": null, "icon": null }, "geometry": { "type": "Point", "coordinates": [ -60.521231, -31.758871, 0.0 ] } },
{ "type": "Feature", "properties": { "Name": "19", "description": null, "timestamp": null, "begin": null, "end": null, "altitudeMode": null, "tessellate": -1, "extrude": 0, "visibility": -1, "drawOrder": null, "icon": null }, "geometry": { "type": "Point", "coordinates": [ -60.520705, -31.756065, 0.0 ] } },
{ "type": "Feature", "properties": { "Name": "20", "description": null, "timestamp": null, "begin": null, "end": null, "altitudeMode": null, "tessellate": -1, "extrude": 0, "visibility": -1, "drawOrder": null, "icon": null }, "geometry": { "type": "Point", "coordinates": [ -60.520543, -31.754855, 0.0 ] } },
{ "type": "Feature", "properties": { "Name": "21", "description": "Mapa creado por Paraná Online. Más info: https://www.paranaonline.com.ar/linea-m/", "timestamp": null, "begin": null, "end": null, "altitudeMode": null, "tessellate": -1, "extrude": 0, "visibility": -1, "drawOrder": null, "icon": null }, "geometry": { "type": "Point", "coordinates": [ -60.521121, -31.753969, 0.0 ] } },
{ "type": "Feature", "properties": { "Name": "22", "description": null, "timestamp": null, "begin": null, "end": null, "altitudeMode": null, "tessellate": -1, "extrude": 0, "visibility": -1, "drawOrder": null, "icon": null }, "geometry": { "type": "Point", "coordinates": [ -60.522862, -31.753483, 0.0 ] } },
{ "type": "Feature", "properties": { "Name": "23", "description": null, "timestamp": null, "begin": null, "end": null, "altitudeMode": null, "tessellate": -1, "extrude": 0, "visibility": -1, "drawOrder": null, "icon": null }, "geometry": { "type": "Point", "coordinates": [ -60.523767, -31.752342, 0.0 ] } },
{ "type": "Feature", "properties": { "Name": "24", "description": "Mapa creado por Paraná Online. Más info: https://www.paranaonline.com.ar/linea-m/", "timestamp": null, "begin": null, "end": null, "altitudeMode": null, "tessellate": -1, "extrude": 0, "visibility": -1, "drawOrder": null, "icon": null }, "geometry": { "type": "Point", "coordinates": [ -60.525209, -31.750582, 0.0 ] } },
{ "type": "Feature", "properties": { "Name": "25", "description": null, "timestamp": null, "begin": null, "end": null, "altitudeMode": null, "tessellate": -1, "extrude": 0, "visibility": -1, "drawOrder": null, "icon": null }, "geometry": { "type": "Point", "coordinates": [ -60.525037, -31.749342, 0.0 ] } },
{ "type": "Feature", "properties": { "Name": "26", "description": null, "timestamp": null, "begin": null, "end": null, "altitudeMode": null, "tessellate": -1, "extrude": 0, "visibility": -1, "drawOrder": null, "icon": null }, "geometry": { "type": "Point", "coordinates": [ -60.524871, -31.747711, 0.0 ] } },
{ "type": "Feature", "properties": { "Name": "27", "description": null, "timestamp": null, "begin": null, "end": null, "altitudeMode": null, "tessellate": -1, "extrude": 0, "visibility": -1, "drawOrder": null, "icon": null }, "geometry": { "type": "Point", "coordinates": [ -60.52687, -31.746319, 0.0 ] } },
{ "type": "Feature", "properties": { "Name": "28", "description": null, "timestamp": null, "begin": null, "end": null, "altitudeMode": null, "tessellate": -1, "extrude": 0, "visibility": -1, "drawOrder": null, "icon": null }, "geometry": { "type": "Point", "coordinates": [ -60.528506, -31.745773, 0.0 ] } },
{ "type": "Feature", "properties": { "Name": "29", "description": null, "timestamp": null, "begin": null, "end": null, "altitudeMode": null, "tessellate": -1, "extrude": 0, "visibility": -1, "drawOrder": null, "icon": null }, "geometry": { "type": "Point", "coordinates": [ -60.530519, -31.743187, 0.0 ] } },
{ "type": "Feature", "properties": { "Name": "30", "description": null, "timestamp": null, "begin": null, "end": null, "altitudeMode": null, "tessellate": -1, "extrude": 0, "visibility": -1, "drawOrder": null, "icon": null }, "geometry": { "type": "Point", "coordinates": [ -60.530009, -31.74128, 0.0 ] } },
{ "type": "Feature", "properties": { "Name": "31", "description": null, "timestamp": null, "begin": null, "end": null, "altitudeMode": null, "tessellate": -1, "extrude": 0, "visibility": -1, "drawOrder": null, "icon": null }, "geometry": { "type": "Point", "coordinates": [ -60.529483, -31.739973, 0.0 ] } },
{ "type": "Feature", "properties": { "Name": "32", "description": null, "timestamp": null, "begin": null, "end": null, "altitudeMode": null, "tessellate": -1, "extrude": 0, "visibility": -1, "drawOrder": null, "icon": null }, "geometry": { "type": "Point", "coordinates": [ -60.528689, -31.736973, 0.0 ] } },
{ "type": "Feature", "properties": { "Name": "33", "description": null, "timestamp": null, "begin": null, "end": null, "altitudeMode": null, "tessellate": -1, "extrude": 0, "visibility": -1, "drawOrder": null, "icon": null }, "geometry": { "type": "Point", "coordinates": [ -60.53032, -31.736046, 0.0 ] } },
{ "type": "Feature", "properties": { "Name": "34", "description": "Mapa creado por Paraná Online. Más info: https://www.paranaonline.com.ar/linea-m/", "timestamp": null, "begin": null, "end": null, "altitudeMode": null, "tessellate": -1, "extrude": 0, "visibility": -1, "drawOrder": null, "icon": null }, "geometry": { "type": "Point", "coordinates": [ -60.533349, -31.734694, 0.0 ] } },
{ "type": "Feature", "properties": { "Name": "35", "description": null, "timestamp": null, "begin": null, "end": null, "altitudeMode": null, "tessellate": -1, "extrude": 0, "visibility": -1, "drawOrder": null, "icon": null }, "geometry": { "type": "Point", "coordinates": [ -60.533139, -31.732498, 0.0 ] } },
{ "type": "Feature", "properties": { "Name": "36", "description": null, "timestamp": null, "begin": null, "end": null, "altitudeMode": null, "tessellate": -1, "extrude": 0, "visibility": -1, "drawOrder": null, "icon": null }, "geometry": { "type": "Point", "coordinates": [ -60.531954, -31.729408, 0.0 ] } },
{ "type": "Feature", "properties": { "Name": "Punto 37", "description": null, "timestamp": null, "begin": null, "end": null, "altitudeMode": null, "tessellate": -1, "extrude": 0, "visibility": -1, "drawOrder": null, "icon": null }, "geometry": { "type": "Point", "coordinates": [ -60.5323291, -31.7274763, 0.0 ] } },
{ "type": "Feature", "properties": { "Name": "Punto 38", "description": null, "timestamp": null, "begin": null, "end": null, "altitudeMode": null, "tessellate": -1, "extrude": 0, "visibility": -1, "drawOrder": null, "icon": null }, "geometry": { "type": "Point", "coordinates": [ -60.5338456, -31.7297418, 0.0 ] } },
{ "type": "Feature", "properties": { "Name": "Punto 39", "description": null, "timestamp": null, "begin": null, "end": null, "altitudeMode": null, "tessellate": -1, "extrude": 0, "visibility": -1, "drawOrder": null, "icon": null }, "geometry": { "type": "Point", "coordinates": [ -60.5352064, -31.7324389, 0.0 ] } },
{ "type": "Feature", "properties": { "Name": "Punto 40", "description": null, "timestamp": null, "begin": null, "end": null, "altitudeMode": null, "tessellate": -1, "extrude": 0, "visibility": -1, "drawOrder": null, "icon": null }, "geometry": { "type": "Point", "coordinates": [ -60.5346731, -31.7356631, 0.0 ] } },
{ "type": "Feature", "properties": { "Name": "Punto 41", "description": null, "timestamp": null, "begin": null, "end": null, "altitudeMode": null, "tessellate": -1, "extrude": 0, "visibility": -1, "drawOrder": null, "icon": null }, "geometry": { "type": "Point", "coordinates": [ -60.5340114, -31.7372457, 0.0 ] } },
{ "type": "Feature", "properties": { "Name": "Punto 42", "description": null, "timestamp": null, "begin": null, "end": null, "altitudeMode": null, "tessellate": -1, "extrude": 0, "visibility": -1, "drawOrder": null, "icon": null }, "geometry": { "type": "Point", "coordinates": [ -60.5359995, -31.7405695, 0.0 ] } },
{ "type": "Feature", "properties": { "Name": "Punto 43", "description": null, "timestamp": null, "begin": null, "end": null, "altitudeMode": null, "tessellate": -1, "extrude": 0, "visibility": -1, "drawOrder": null, "icon": null }, "geometry": { "type": "Point", "coordinates": [ -60.5375501, -31.7444843, 0.0 ] } },
{ "type": "Feature", "properties": { "Name": "Punto 44", "description": null, "timestamp": null, "begin": null, "end": null, "altitudeMode": null, "tessellate": -1, "extrude": 0, "visibility": -1, "drawOrder": null, "icon": null }, "geometry": { "type": "Point", "coordinates": [ -60.5408439, -31.7439916, 0.0 ] } },
{ "type": "Feature", "properties": { "Name": "Punto 45", "description": null, "timestamp": null, "begin": null, "end": null, "altitudeMode": null, "tessellate": -1, "extrude": 0, "visibility": -1, "drawOrder": null, "icon": null }, "geometry": { "type": "Point", "coordinates": [ -60.5430448, -31.7453773, 0.0 ] } },
{ "type": "Feature", "properties": { "Name": "Punto 46", "description": null, "timestamp": null, "begin": null, "end": null, "altitudeMode": null, "tessellate": -1, "extrude": 0, "visibility": -1, "drawOrder": null, "icon": null }, "geometry": { "type": "Point", "coordinates": [ -60.5438066, -31.7461118, 0.0 ] } },
{ "type": "Feature", "properties": { "Name": "Punto 4", "description": null, "timestamp": null, "begin": null, "end": null, "altitudeMode": null, "tessellate": -1, "extrude": 0, "visibility": -1, "drawOrder": null, "icon": null }, "geometry": { "type": "Point", "coordinates": [ -60.5481145, -31.7454453, 0.0 ] } }
]
}
