{
"type": "FeatureCollection",
"name": "linea_d_paradas_verano",
"crs": { "type": "name", "properties": { "name": "urn:ogc:def:crs:OGC:1.3:CRS84" } },
"features": [
{ "type": "Feature", "properties": { "Name": "59", "description": "descripción: <br>Nombre: 59", "timestamp": null, "begin": null, "end": null, "altitudeMode": null, "tessellate": -1, "extrude": 0, "visibility": -1, "drawOrder": null, "icon": null, "descripci__n": "", "Nombre": "59" }, "geometry": { "type": "Point", "coordinates": [ -60.487093, -31.709966, 0.0 ] } },
{ "type": "Feature", "properties": { "Name": "06", "description": "descripción: <br>Nombre: 06", "timestamp": null, "begin": null, "end": null, "altitudeMode": null, "tessellate": -1, "extrude": 0, "visibility": -1, "drawOrder": null, "icon": null, "descripci__n": "", "Nombre": "06" }, "geometry": { "type": "Point", "coordinates": [ -60.484907, -31.703645, 0.0 ] } },
{ "type": "Feature", "properties": { "Name": "61", "description": "descripción: <br>Nombre: 61", "timestamp": null, "begin": null, "end": null, "altitudeMode": null, "tessellate": -1, "extrude": 0, "visibility": -1, "drawOrder": null, "icon": null, "descripci__n": "", "Nombre": "61" }, "geometry": { "type": "Point", "coordinates": [ -60.484725, -31.7037, 0.0 ] } },
{ "type": "Feature", "properties": { "Name": "60", "description": "descripción: <br>Nombre: 60", "timestamp": null, "begin": null, "end": null, "altitudeMode": null, "tessellate": -1, "extrude": 0, "visibility": -1, "drawOrder": null, "icon": null, "descripci__n": "", "Nombre": "60" }, "geometry": { "type": "Point", "coordinates": [ -60.486313, -31.705752, 0.0 ] } },
{ "type": "Feature", "properties": { "Name": "07", "description": "descripción: Actualizado por Paraná Online<br>Nombre: 07", "timestamp": null, "begin": null, "end": null, "altitudeMode": null, "tessellate": -1, "extrude": 0, "visibility": -1, "drawOrder": null, "icon": null, "descripci__n": "Actualizado por Paraná Online", "Nombre": "07" }, "geometry": { "type": "Point", "coordinates": [ -60.486581, -31.705533, 0.0 ] } },
{ "type": "Feature", "properties": { "Name": "08", "description": "descripción: <br>Nombre: 08", "timestamp": null, "begin": null, "end": null, "altitudeMode": null, "tessellate": -1, "extrude": 0, "visibility": -1, "drawOrder": null, "icon": null, "descripci__n": "", "Nombre": "08" }, "geometry": { "type": "Point", "coordinates": [ -60.48744, -31.709823, 0.0 ] } }
]
}
