{
"type": "FeatureCollection",
"name": "linea_c_paradas_hacia_centro",
"crs": { "type": "name", "properties": { "name": "urn:ogc:def:crs:OGC:1.3:CRS84" } },
"features": [
{ "type": "Feature", "properties": { "Name": "Punto 1", "description": null, "timestamp": null, "begin": null, "end": null, "altitudeMode": null, "tessellate": -1, "extrude": 0, "visibility": -1, "drawOrder": null, "icon": null }, "geometry": { "type": "Point", "coordinates": [ -60.4553619, -31.7424493, 0.0 ] } },
{ "type": "Feature", "properties": { "Name": "Punto 2", "description": "Mapa creado por Paraná Online. Más info: https://www.paranaonline.com.ar/linea-c/", "timestamp": null, "begin": null, "end": null, "altitudeMode": null, "tessellate": -1, "extrude": 0, "visibility": -1, "drawOrder": null, "icon": null }, "geometry": { "type": "Point", "coordinates": [ -60.4550401, -31.7508006, 0.0 ] } },
{ "type": "Feature", "properties": { "Name": "Punto 3", "description": null, "timestamp": null, "begin": null, "end": null, "altitudeMode": null, "tessellate": -1, "extrude": 0, "visibility": -1, "drawOrder": null, "icon": null }, "geometry": { "type": "Point", "coordinates": [ -60.4555498, -31.7532776, 0.0 ] } },
{ "type": "Feature", "properties": { "Name": "Punto 4", "description": null, "timestamp": null, "begin": null, "end": null, "altitudeMode": null, "tessellate": -1, "extrude": 0, "visibility": -1, "drawOrder": null, "icon": null }, "geometry": { "type": "Point", "coordinates": [ -60.4526131, -31.7567737, 0.0 ] } },
{ "type": "Feature", "properties": { "Name": "Punto 5", "description": null, "timestamp": null, "begin": null, "end": null, "altitudeMode": null, "tessellate": -1, "extrude": 0, "visibility": -1, "drawOrder": null, "icon": null }, "geometry": { "type": "Point", "coordinates": [ -60.4540347, -31.7575765, 0.0 ] } },
{ "type": "Feature", "properties": { "Name": "Punto 6", "description": null, "timestamp": null, "begin": null, "end": null, "altitudeMode": null, "tessellate": -1, "extrude": 0, "visibility": -1, "drawOrder": null, "icon": null }, "geometry": { "type": "Point", "coordinates": [ -60.4567992, -31.7593881, 0.0 ] } },
{ "type": "Feature", "properties": { "Name": "Punto 7", "description": null, "timestamp": null, "begin": null, "end": null, "altitudeMode": null, "tessellate": -1, "extrude": 0, "visibility": -1, "drawOrder": null, "icon": null }, "geometry": { "type": "Point", "coordinates": [ -60.4576789, -31.7619991, 0.0 ] } },
{ "type": "Feature", "properties": { "Name": "Punto 8", "description": null, "timestamp": null, "begin": null, "end": null, "altitudeMode": null, "tessellate": -1, "extrude": 0, "visibility": -1, "drawOrder": null, "icon": null }, "geometry": { "type": "Point", "coordinates": [ -60.4632414, -31.7611303, 0.0 ] } },
{ "type": "Feature", "properties": { "Name": "Punto 9", "description": null, "timestamp": null, "begin": null, "end": null, "altitudeMode": null, "tessellate": -1, "extrude": 0, "visibility": -1, "drawOrder": null, "icon": null }, "geometry": { "type": "Point", "coordinates": [ -60.4662733, -31.7606761, 0.0 ] } },
{ "type": "Feature", "properties": { "Name": "Punto 10", "description": null, "timestamp": null, "begin": null, "end": null, "altitudeMode": null, "tessellate": -1, "extrude": 0, "visibility": -1, "drawOrder": null, "icon": null }, "geometry": { "type": "Point", "coordinates": [ -60.469319, -31.760145, 0.0 ] } },
{ "type": "Feature", "properties": { "Name": "Punto 11", "description": null, "timestamp": null, "begin": null, "end": null, "altitudeMode": null, "tessellate": -1, "extrude": 0, "visibility": -1, "drawOrder": null, "icon": null }, "geometry": { "type": "Point", "coordinates": [ -60.476289, -31.7589924, 0.0 ] } },
{ "type": "Feature", "properties": { "Name": "Punto 12", "description": "Mapa creado por Paraná Online. Más info: https://www.paranaonline.com.ar/linea-c/", "timestamp": null, "begin": null, "end": null, "altitudeMode": null, "tessellate": -1, "extrude": 0, "visibility": -1, "drawOrder": null, "icon": null }, "geometry": { "type": "Point", "coordinates": [ -60.4834944, -31.7580007, 0.0 ] } },
{ "type": "Feature", "properties": { "Name": "Punto 13", "description": null, "timestamp": null, "begin": null, "end": null, "altitudeMode": null, "tessellate": -1, "extrude": 0, "visibility": -1, "drawOrder": null, "icon": null }, "geometry": { "type": "Point", "coordinates": [ -60.4850876, -31.7556972, 0.0 ] } },
{ "type": "Feature", "properties": { "Name": "Punto 14", "description": null, "timestamp": null, "begin": null, "end": null, "altitudeMode": null, "tessellate": -1, "extrude": 0, "visibility": -1, "drawOrder": null, "icon": null }, "geometry": { "type": "Point", "coordinates": [ -60.4845684, -31.7530569, 0.0 ] } },
{ "type": "Feature", "properties": { "Name": "Punto 15", "description": null, "timestamp": null, "begin": null, "end": null, "altitudeMode": null, "tessellate": -1, "extrude": 0, "visibility": -1, "drawOrder": null, "icon": null }, "geometry": { "type": "Point", "coordinates": [ -60.4922692, -31.7516249, 0.0 ] } },
{ "type": "Feature", "properties": { "Name": "Punto 16", "description": null, "timestamp": null, "begin": null, "end": null, "altitudeMode": null, "tessellate": -1, "extrude": 0, "visibility": -1, "drawOrder": null, "icon": null }, "geometry": { "type": "Point", "coordinates": [ -60.4957883, -31.7506621, 0.0 ] } },
{ "type": "Feature", "properties": { "Name": "Punto 17", "description": null, "timestamp": null, "begin": null, "end": null, "altitudeMode": null, "tessellate": -1, "extrude": 0, "visibility": -1, "drawOrder": null, "icon": null }, "geometry": { "type": "Point", "coordinates": [ -60.4949632, -31.7464732, 0.0 ] } },
{ "type": "Feature", "properties": { "Name": "Punto 18", "description": null, "timestamp": null, "begin": null, "end": null, "altitudeMode": null, "tessellate": -1, "extrude": 0, "visibility": -1, "drawOrder": null, "icon": null }, "geometry": { "type": "Point", "coordinates": [ -60.499059, -31.7455198, 0.0 ] } },
{ "type": "Feature", "properties": { "Name": "Punto 19", "description": null, "timestamp": null, "begin": null, "end": null, "altitudeMode": null, "tessellate": -1, "extrude": 0, "visibility": -1, "drawOrder": null, "icon": null }, "geometry": { "type": "Point", "coordinates": [ -60.5001855, -31.7431156, 0.0 ] } },
{ "type": "Feature", "properties": { "Name": "Punto 20", "description": null, "timestamp": null, "begin": null, "end": null, "altitudeMode": null, "tessellate": -1, "extrude": 0, "visibility": -1, "drawOrder": null, "icon": null }, "geometry": { "type": "Point", "coordinates": [ -60.5001936, -31.7402894, 0.0 ] } },
{ "type": "Feature", "properties": { "Name": "Punto 21", "description": "Mapa creado por Paraná Online. Más info: https://www.paranaonline.com.ar/linea-c/", "timestamp": null, "begin": null, "end": null, "altitudeMode": null, "tessellate": -1, "extrude": 0, "visibility": -1, "drawOrder": null, "icon": null }, "geometry": { "type": "Point", "coordinates": [ -60.5051588, -31.7393011, 0.0 ] } },
{ "type": "Feature", "properties": { "Name": "Punto 22", "description": null, "timestamp": null, "begin": null, "end": null, "altitudeMode": null, "tessellate": -1, "extrude": 0, "visibility": -1, "drawOrder": null, "icon": null }, "geometry": { "type": "Point", "coordinates": [ -60.5109469, -31.7384963, 0.0 ] } },
{ "type": "Feature", "properties": { "Name": "Punto 23", "description": null, "timestamp": null, "begin": null, "end": null, "altitudeMode": null, "tessellate": -1, "extrude": 0, "visibility": -1, "drawOrder": null, "icon": null }, "geometry": { "type": "Point", "coordinates": [ -60.5167268, -31.7376487, 0.0 ] } },
{ "type": "Feature", "properties": { "Name": "Punto 24", "description": "Mapa creado por Paraná Online. Más info: https://www.paranaonline.com.ar/linea-c/", "timestamp": null, "begin": null, "end": null, "altitudeMode": null, "tessellate": -1, "extrude": 0, "visibility": -1, "drawOrder": null, "icon": null }, "geometry": { "type": "Point", "coordinates": [ -60.5159167, -31.7338095, 0.0 ] } },
{ "type": "Feature", "properties": { "Name": "Punto 25", "description": null, "timestamp": null, "begin": null, "end": null, "altitudeMode": null, "tessellate": -1, "extrude": 0, "visibility": -1, "drawOrder": null, "icon": null }, "geometry": { "type": "Point", "coordinates": [ -60.5162671, -31.7318774, 0.0 ] } },
{ "type": "Feature", "properties": { "Name": "Punto 26", "description": null, "timestamp": null, "begin": null, "end": null, "altitudeMode": null, "tessellate": -1, "extrude": 0, "visibility": -1, "drawOrder": null, "icon": null }, "geometry": { "type": "Point", "coordinates": [ -60.5221228, -31.7302613, 0.0 ] } },
{ "type": "Feature", "properties": { "Name": "Punto 27", "description": null, "timestamp": null, "begin": null, "end": null, "altitudeMode": null, "tessellate": -1, "extrude": 0, "visibility": -1, "drawOrder": null, "icon": null }, "geometry": { "type": "Point", "coordinates": [ -60.5253306, -31.7293946, 0.0 ] } },
{ "type": "Feature", "properties": { "Name": "Punto 28", "description": null, "timestamp": null, "begin": null, "end": null, "altitudeMode": null, "tessellate": -1, "extrude": 0, "visibility": -1, "drawOrder": null, "icon": null }, "geometry": { "type": "Point", "coordinates": [ -60.5292262, -31.7282905, 0.0 ] } }
]
}
