{
"type": "FeatureCollection",
"name": "linea_a_paradas_desde_centro",
"crs": { "type": "name", "properties": { "name": "urn:ogc:def:crs:OGC:1.3:CRS84" } },
"features": [
{ "type": "Feature", "properties": { "fid": 1, "Name": "Punto 0", "description": null, "timestamp": null, "begin": null, "end": null, "altitudeMode": null, "tessellate": -1, "extrude": 0, "visibility": -1, "drawOrder": null, "icon": null }, "geometry": { "type": "Point", "coordinates": [ -60.5314971, -31.7283315, 0.0 ] } },
{ "type": "Feature", "properties": { "fid": 2, "Name": "Punto 1", "description": null, "timestamp": null, "begin": null, "end": null, "altitudeMode": null, "tessellate": -1, "extrude": 0, "visibility": -1, "drawOrder": null, "icon": null }, "geometry": { "type": "Point", "coordinates": [ -60.5354866, -31.7265406, 0.0 ] } },
{ "type": "Feature", "properties": { "fid": 3, "Name": "Punto 2", "description": null, "timestamp": null, "begin": null, "end": null, "altitudeMode": null, "tessellate": -1, "extrude": 0, "visibility": -1, "drawOrder": null, "icon": null }, "geometry": { "type": "Point", "coordinates": [ -60.5384363, -31.7256349, 0.0 ] } },
{ "type": "Feature", "properties": { "fid": 4, "Name": "Punto 3", "description": null, "timestamp": null, "begin": null, "end": null, "altitudeMode": null, "tessellate": -1, "extrude": 0, "visibility": -1, "drawOrder": null, "icon": null }, "geometry": { "type": "Point", "coordinates": [ -60.54232, -31.7244543, 0.0 ] } },
{ "type": "Feature", "properties": { "fid": 5, "Name": "Punto 4", "description": null, "timestamp": null, "begin": null, "end": null, "altitudeMode": null, "tessellate": -1, "extrude": 0, "visibility": -1, "drawOrder": null, "icon": null }, "geometry": { "type": "Point", "coordinates": [ -60.5441937, -31.7239703, 0.0 ] } },
{ "type": "Feature", "properties": { "fid": 6, "Name": "Punto 5", "description": null, "timestamp": null, "begin": null, "end": null, "altitudeMode": null, "tessellate": -1, "extrude": 0, "visibility": -1, "drawOrder": null, "icon": null }, "geometry": { "type": "Point", "coordinates": [ -60.5458342, -31.7221226, 0.0 ] } },
{ "type": "Feature", "properties": { "fid": 7, "Name": "Punto 6", "description": null, "timestamp": null, "begin": null, "end": null, "altitudeMode": null, "tessellate": -1, "extrude": 0, "visibility": -1, "drawOrder": null, "icon": null }, "geometry": { "type": "Point", "coordinates": [ -60.5481051, -31.7213324, 0.0 ] } },
{ "type": "Feature", "properties": { "fid": 8, "Name": "Punto 7", "description": null, "timestamp": null, "begin": null, "end": null, "altitudeMode": null, "tessellate": -1, "extrude": 0, "visibility": -1, "drawOrder": null, "icon": null }, "geometry": { "type": "Point", "coordinates": [ -60.5494396, -31.7231244, 0.0 ] } },
{ "type": "Feature", "properties": { "fid": 9, "Name": "Punto 8", "description": null, "timestamp": null, "begin": null, "end": null, "altitudeMode": null, "tessellate": -1, "extrude": 0, "visibility": -1, "drawOrder": null, "icon": null }, "geometry": { "type": "Point", "coordinates": [ -60.5507055, -31.7250658, 0.0 ] } },
{ "type": "Feature", "properties": { "fid": 10, "Name": "Punto 9", "description": null, "timestamp": null, "begin": null, "end": null, "altitudeMode": null, "tessellate": -1, "extrude": 0, "visibility": -1, "drawOrder": null, "icon": null }, "geometry": { "type": "Point", "coordinates": [ -60.5517788, -31.7285866, 0.0 ] } },
{ "type": "Feature", "properties": { "fid": 11, "Name": "Punto 10", "description": null, "timestamp": null, "begin": null, "end": null, "altitudeMode": null, "tessellate": -1, "extrude": 0, "visibility": -1, "drawOrder": null, "icon": null }, "geometry": { "type": "Point", "coordinates": [ -60.5492128, -31.7297356, 0.0 ] } },
{ "type": "Feature", "properties": { "fid": 12, "Name": "Punto 11", "description": null, "timestamp": null, "begin": null, "end": null, "altitudeMode": null, "tessellate": -1, "extrude": 0, "visibility": -1, "drawOrder": null, "icon": null }, "geometry": { "type": "Point", "coordinates": [ -60.5484331, -31.7335125, 0.0 ] } },
{ "type": "Feature", "properties": { "fid": 13, "Name": "Punto 12", "description": "Mapa creado por Paraná Online. Más info: https://www.paranaonline.com.ar/linea-a/", "timestamp": null, "begin": null, "end": null, "altitudeMode": null, "tessellate": -1, "extrude": 0, "visibility": -1, "drawOrder": null, "icon": null }, "geometry": { "type": "Point", "coordinates": [ -60.5500311, -31.7376478, 0.0 ] } },
{ "type": "Feature", "properties": { "fid": 14, "Name": "Punto 13", "description": null, "timestamp": null, "begin": null, "end": null, "altitudeMode": null, "tessellate": -1, "extrude": 0, "visibility": -1, "drawOrder": null, "icon": null }, "geometry": { "type": "Point", "coordinates": [ -60.5501837, -31.740212, 0.0 ] } },
{ "type": "Feature", "properties": { "fid": 15, "Name": "Punto 14", "description": null, "timestamp": null, "begin": null, "end": null, "altitudeMode": null, "tessellate": -1, "extrude": 0, "visibility": -1, "drawOrder": null, "icon": null }, "geometry": { "type": "Point", "coordinates": [ -60.5478213, -31.7428811, 0.0 ] } },
{ "type": "Feature", "properties": { "fid": 16, "Name": "Punto 15", "description": null, "timestamp": null, "begin": null, "end": null, "altitudeMode": null, "tessellate": -1, "extrude": 0, "visibility": -1, "drawOrder": null, "icon": null }, "geometry": { "type": "Point", "coordinates": [ -60.5483395, -31.7453103, 0.0 ] } },
{ "type": "Feature", "properties": { "fid": 17, "Name": "Punto 16", "description": null, "timestamp": null, "begin": null, "end": null, "altitudeMode": null, "tessellate": -1, "extrude": 0, "visibility": -1, "drawOrder": null, "icon": null }, "geometry": { "type": "Point", "coordinates": [ -60.5439095, -31.7462616, 0.0 ] } },
{ "type": "Feature", "properties": { "fid": 18, "Name": "Punto 17", "description": null, "timestamp": null, "begin": null, "end": null, "altitudeMode": null, "tessellate": -1, "extrude": 0, "visibility": -1, "drawOrder": null, "icon": null }, "geometry": { "type": "Point", "coordinates": [ -60.5398421, -31.7463079, 0.0 ] } },
{ "type": "Feature", "properties": { "fid": 19, "Name": "Punto 18", "description": null, "timestamp": null, "begin": null, "end": null, "altitudeMode": null, "tessellate": -1, "extrude": 0, "visibility": -1, "drawOrder": null, "icon": null }, "geometry": { "type": "Point", "coordinates": [ -60.5353791, -31.749145, 0.0 ] } },
{ "type": "Feature", "properties": { "fid": 20, "Name": "Punto 19", "description": null, "timestamp": null, "begin": null, "end": null, "altitudeMode": null, "tessellate": -1, "extrude": 0, "visibility": -1, "drawOrder": null, "icon": null }, "geometry": { "type": "Point", "coordinates": [ -60.5325954, -31.7527424, 0.0 ] } },
{ "type": "Feature", "properties": { "fid": 21, "Name": "Punto 20", "description": null, "timestamp": null, "begin": null, "end": null, "altitudeMode": null, "tessellate": -1, "extrude": 0, "visibility": -1, "drawOrder": null, "icon": null }, "geometry": { "type": "Point", "coordinates": [ -60.5288003, -31.755525, 0.0 ] } },
{ "type": "Feature", "properties": { "fid": 22, "Name": "Punto 21", "description": "Mapa creado por Paraná Online. Más info: https://www.paranaonline.com.ar/linea-a/", "timestamp": null, "begin": null, "end": null, "altitudeMode": null, "tessellate": -1, "extrude": 0, "visibility": -1, "drawOrder": null, "icon": null }, "geometry": { "type": "Point", "coordinates": [ -60.5273902, -31.7585043, 0.0 ] } },
{ "type": "Feature", "properties": { "fid": 23, "Name": "Punto 22", "description": null, "timestamp": null, "begin": null, "end": null, "altitudeMode": null, "tessellate": -1, "extrude": 0, "visibility": -1, "drawOrder": null, "icon": null }, "geometry": { "type": "Point", "coordinates": [ -60.528452, -31.7632857, 0.0 ] } },
{ "type": "Feature", "properties": { "fid": 24, "Name": "Punto 23", "description": null, "timestamp": null, "begin": null, "end": null, "altitudeMode": null, "tessellate": -1, "extrude": 0, "visibility": -1, "drawOrder": null, "icon": null }, "geometry": { "type": "Point", "coordinates": [ -60.5292936, -31.7669984, 0.0 ] } },
{ "type": "Feature", "properties": { "fid": 25, "Name": "Punto 24", "description": "Mapa creado por Paraná Online. Más info: https://www.paranaonline.com.ar/linea-a/", "timestamp": null, "begin": null, "end": null, "altitudeMode": null, "tessellate": -1, "extrude": 0, "visibility": -1, "drawOrder": null, "icon": null }, "geometry": { "type": "Point", "coordinates": [ -60.5300225, -31.7702387, 0.0 ] } },
{ "type": "Feature", "properties": { "fid": 26, "Name": "Punto 25", "description": null, "timestamp": null, "begin": null, "end": null, "altitudeMode": null, "tessellate": -1, "extrude": 0, "visibility": -1, "drawOrder": null, "icon": null }, "geometry": { "type": "Point", "coordinates": [ -60.5243325, -31.7713559, 0.0 ] } },
{ "type": "Feature", "properties": { "fid": 27, "Name": "Punto 26", "description": null, "timestamp": null, "begin": null, "end": null, "altitudeMode": null, "tessellate": -1, "extrude": 0, "visibility": -1, "drawOrder": null, "icon": null }, "geometry": { "type": "Point", "coordinates": [ -60.5248845, -31.7743163, 0.0 ] } },
{ "type": "Feature", "properties": { "fid": 28, "Name": "Punto 27", "description": null, "timestamp": null, "begin": null, "end": null, "altitudeMode": null, "tessellate": -1, "extrude": 0, "visibility": -1, "drawOrder": null, "icon": null }, "geometry": { "type": "Point", "coordinates": [ -60.5223009, -31.7767044, 0.0 ] } },
{ "type": "Feature", "properties": { "fid": 29, "Name": "Punto 28", "description": null, "timestamp": null, "begin": null, "end": null, "altitudeMode": null, "tessellate": -1, "extrude": 0, "visibility": -1, "drawOrder": null, "icon": null }, "geometry": { "type": "Point", "coordinates": [ -60.5164122, -31.7776474, 0.0 ] } },
{ "type": "Feature", "properties": { "fid": 30, "Name": "Punto 29", "description": null, "timestamp": null, "begin": null, "end": null, "altitudeMode": null, "tessellate": -1, "extrude": 0, "visibility": -1, "drawOrder": null, "icon": null }, "geometry": { "type": "Point", "coordinates": [ -60.5143172, -31.7802799, 0.0 ] } },
{ "type": "Feature", "properties": { "fid": 31, "Name": "Punto 30", "description": null, "timestamp": null, "begin": null, "end": null, "altitudeMode": null, "tessellate": -1, "extrude": 0, "visibility": -1, "drawOrder": null, "icon": null }, "geometry": { "type": "Point", "coordinates": [ -60.5151312, -31.7840747, 0.0 ] } },
{ "type": "Feature", "properties": { "fid": 32, "Name": "Punto 31", "description": null, "timestamp": null, "begin": null, "end": null, "altitudeMode": null, "tessellate": -1, "extrude": 0, "visibility": -1, "drawOrder": null, "icon": null }, "geometry": { "type": "Point", "coordinates": [ -60.5158616, -31.7875818, 0.0 ] } },
{ "type": "Feature", "properties": { "fid": 33, "Name": "Punto 33", "description": null, "timestamp": null, "begin": null, "end": null, "altitudeMode": null, "tessellate": -1, "extrude": 0, "visibility": -1, "drawOrder": null, "icon": null }, "geometry": { "type": "Point", "coordinates": [ -60.5486904, -31.7357018, 0.0 ] } }
]
}
