{
"type": "FeatureCollection",
"name": "linea_l_paradas_hacia_centro",
"crs": { "type": "name", "properties": { "name": "urn:ogc:def:crs:OGC:1.3:CRS84" } },
"features": [
{ "type": "Feature", "properties": { "Name": "13", "description": null, "timestamp": null, "begin": null, "end": null, "altitudeMode": null, "tessellate": -1, "extrude": 0, "visibility": -1, "drawOrder": null, "icon": null }, "geometry": { "type": "Point", "coordinates": [ -60.5343486, -31.7645312, 0.0 ] } },
{ "type": "Feature", "properties": { "Name": "14", "description": null, "timestamp": null, "begin": null, "end": null, "altitudeMode": null, "tessellate": -1, "extrude": 0, "visibility": -1, "drawOrder": null, "icon": null }, "geometry": { "type": "Point", "coordinates": [ -60.5340361, -31.7625775, 0.0 ] } },
{ "type": "Feature", "properties": { "Name": "15", "description": null, "timestamp": null, "begin": null, "end": null, "altitudeMode": null, "tessellate": -1, "extrude": 0, "visibility": -1, "drawOrder": null, "icon": null }, "geometry": { "type": "Point", "coordinates": [ -60.5337355, -31.7607729, 0.0 ] } },
{ "type": "Feature", "properties": { "Name": "16", "description": null, "timestamp": null, "begin": null, "end": null, "altitudeMode": null, "tessellate": -1, "extrude": 0, "visibility": -1, "drawOrder": null, "icon": null }, "geometry": { "type": "Point", "coordinates": [ -60.5331042, -31.7588596, 0.0 ] } },
{ "type": "Feature", "properties": { "Name": "17", "description": null, "timestamp": null, "begin": null, "end": null, "altitudeMode": null, "tessellate": -1, "extrude": 0, "visibility": -1, "drawOrder": null, "icon": null }, "geometry": { "type": "Point", "coordinates": [ -60.5325642, -31.7559067, 0.0 ] } },
{ "type": "Feature", "properties": { "Name": "18", "description": null, "timestamp": null, "begin": null, "end": null, "altitudeMode": null, "tessellate": -1, "extrude": 0, "visibility": -1, "drawOrder": null, "icon": null }, "geometry": { "type": "Point", "coordinates": [ -60.5322098, -31.752936, 0.0 ] } },
{ "type": "Feature", "properties": { "Name": "19", "description": null, "timestamp": null, "begin": null, "end": null, "altitudeMode": null, "tessellate": -1, "extrude": 0, "visibility": -1, "drawOrder": null, "icon": null }, "geometry": { "type": "Point", "coordinates": [ -60.5322081, -31.7529408, 0.0 ] } },
{ "type": "Feature", "properties": { "Name": "20", "description": null, "timestamp": null, "begin": null, "end": null, "altitudeMode": null, "tessellate": -1, "extrude": 0, "visibility": -1, "drawOrder": null, "icon": null }, "geometry": { "type": "Point", "coordinates": [ -60.532231, -31.752938, 0.0 ] } },
{ "type": "Feature", "properties": { "Name": "21", "description": "Mapa creado por Paraná Online. Más info: https://www.paranaonline.com.ar/linea-l/", "timestamp": null, "begin": null, "end": null, "altitudeMode": null, "tessellate": -1, "extrude": 0, "visibility": -1, "drawOrder": null, "icon": null }, "geometry": { "type": "Point", "coordinates": [ -60.533333, -31.751397, 0.0 ] } },
{ "type": "Feature", "properties": { "Name": "22", "description": null, "timestamp": null, "begin": null, "end": null, "altitudeMode": null, "tessellate": -1, "extrude": 0, "visibility": -1, "drawOrder": null, "icon": null }, "geometry": { "type": "Point", "coordinates": [ -60.535057, -31.749078, 0.0 ] } },
{ "type": "Feature", "properties": { "Name": "23", "description": null, "timestamp": null, "begin": null, "end": null, "altitudeMode": null, "tessellate": -1, "extrude": 0, "visibility": -1, "drawOrder": null, "icon": null }, "geometry": { "type": "Point", "coordinates": [ -60.536156, -31.747968, 0.0 ] } },
{ "type": "Feature", "properties": { "Name": "24", "description": "Mapa creado por Paraná Online. Más info: https://www.paranaonline.com.ar/linea-l/", "timestamp": null, "begin": null, "end": null, "altitudeMode": null, "tessellate": -1, "extrude": 0, "visibility": -1, "drawOrder": null, "icon": null }, "geometry": { "type": "Point", "coordinates": [ -60.539179, -31.745708, 0.0 ] } },
{ "type": "Feature", "properties": { "Name": "25", "description": null, "timestamp": null, "begin": null, "end": null, "altitudeMode": null, "tessellate": -1, "extrude": 0, "visibility": -1, "drawOrder": null, "icon": null }, "geometry": { "type": "Point", "coordinates": [ -60.538816, -31.744558, 0.0 ] } },
{ "type": "Feature", "properties": { "Name": "26", "description": null, "timestamp": null, "begin": null, "end": null, "altitudeMode": null, "tessellate": -1, "extrude": 0, "visibility": -1, "drawOrder": null, "icon": null }, "geometry": { "type": "Point", "coordinates": [ -60.540743, -31.744067, 0.0 ] } },
{ "type": "Feature", "properties": { "Name": "27", "description": null, "timestamp": null, "begin": null, "end": null, "altitudeMode": null, "tessellate": -1, "extrude": 0, "visibility": -1, "drawOrder": null, "icon": null }, "geometry": { "type": "Point", "coordinates": [ -60.540196, -31.741836, 0.0 ] } },
{ "type": "Feature", "properties": { "Name": "28", "description": null, "timestamp": null, "begin": null, "end": null, "altitudeMode": null, "tessellate": -1, "extrude": 0, "visibility": -1, "drawOrder": null, "icon": null }, "geometry": { "type": "Point", "coordinates": [ -60.541743, -31.741241, 0.0 ] } },
{ "type": "Feature", "properties": { "Name": "29", "description": null, "timestamp": null, "begin": null, "end": null, "altitudeMode": null, "tessellate": -1, "extrude": 0, "visibility": -1, "drawOrder": null, "icon": null }, "geometry": { "type": "Point", "coordinates": [ -60.542286, -31.73939, 0.0 ] } },
{ "type": "Feature", "properties": { "Name": "30", "description": null, "timestamp": null, "begin": null, "end": null, "altitudeMode": null, "tessellate": -1, "extrude": 0, "visibility": -1, "drawOrder": null, "icon": null }, "geometry": { "type": "Point", "coordinates": [ -60.542179, -31.737822, 0.0 ] } },
{ "type": "Feature", "properties": { "Name": "31", "description": null, "timestamp": null, "begin": null, "end": null, "altitudeMode": null, "tessellate": -1, "extrude": 0, "visibility": -1, "drawOrder": null, "icon": null }, "geometry": { "type": "Point", "coordinates": [ -60.543975, -31.736879, 0.0 ] } },
{ "type": "Feature", "properties": { "Name": "32", "description": null, "timestamp": null, "begin": null, "end": null, "altitudeMode": null, "tessellate": -1, "extrude": 0, "visibility": -1, "drawOrder": null, "icon": null }, "geometry": { "type": "Point", "coordinates": [ -60.54607, -31.737516, 0.0 ] } },
{ "type": "Feature", "properties": { "Name": "38", "description": null, "timestamp": null, "begin": null, "end": null, "altitudeMode": null, "tessellate": -1, "extrude": 0, "visibility": -1, "drawOrder": null, "icon": null }, "geometry": { "type": "Point", "coordinates": [ -60.545986, -31.7353913, 0.0 ] } },
{ "type": "Feature", "properties": { "Name": "41", "description": null, "timestamp": null, "begin": null, "end": null, "altitudeMode": null, "tessellate": -1, "extrude": 0, "visibility": -1, "drawOrder": null, "icon": null }, "geometry": { "type": "Point", "coordinates": [ -60.5454335, -31.7329101, 0.0 ] } },
{ "type": "Feature", "properties": { "Name": "42", "description": "Mapa creado por Paraná Online. Más info: https://www.paranaonline.com.ar/linea-l/", "timestamp": null, "begin": null, "end": null, "altitudeMode": null, "tessellate": -1, "extrude": 0, "visibility": -1, "drawOrder": null, "icon": null }, "geometry": { "type": "Point", "coordinates": [ -60.544312, -31.733491, 0.0 ] } },
{ "type": "Feature", "properties": { "Name": "43", "description": null, "timestamp": null, "begin": null, "end": null, "altitudeMode": null, "tessellate": -1, "extrude": 0, "visibility": -1, "drawOrder": null, "icon": null }, "geometry": { "type": "Point", "coordinates": [ -60.543398, -31.734263, 0.0 ] } },
{ "type": "Feature", "properties": { "Name": "44", "description": null, "timestamp": null, "begin": null, "end": null, "altitudeMode": null, "tessellate": -1, "extrude": 0, "visibility": -1, "drawOrder": null, "icon": null }, "geometry": { "type": "Point", "coordinates": [ -60.540223, -31.73322, 0.0 ] } },
{ "type": "Feature", "properties": { "Name": "45", "description": null, "timestamp": null, "begin": null, "end": null, "altitudeMode": null, "tessellate": -1, "extrude": 0, "visibility": -1, "drawOrder": null, "icon": null }, "geometry": { "type": "Point", "coordinates": [ -60.537222, -31.733301, 0.0 ] } },
{ "type": "Feature", "properties": { "Name": "46", "description": null, "timestamp": null, "begin": null, "end": null, "altitudeMode": null, "tessellate": -1, "extrude": 0, "visibility": -1, "drawOrder": null, "icon": null }, "geometry": { "type": "Point", "coordinates": [ -60.534808, -31.731742, 0.0 ] } },
{ "type": "Feature", "properties": { "Name": "47", "description": null, "timestamp": null, "begin": null, "end": null, "altitudeMode": null, "tessellate": -1, "extrude": 0, "visibility": -1, "drawOrder": null, "icon": null }, "geometry": { "type": "Point", "coordinates": [ -60.532755, -31.731494, 0.0 ] } },
{ "type": "Feature", "properties": { "Name": "48", "description": null, "timestamp": null, "begin": null, "end": null, "altitudeMode": null, "tessellate": -1, "extrude": 0, "visibility": -1, "drawOrder": null, "icon": null }, "geometry": { "type": "Point", "coordinates": [ -60.531568, -31.728595, 0.0 ] } },
{ "type": "Feature", "properties": { "Name": "49", "description": null, "timestamp": null, "begin": null, "end": null, "altitudeMode": null, "tessellate": -1, "extrude": 0, "visibility": -1, "drawOrder": null, "icon": null }, "geometry": { "type": "Point", "coordinates": [ -60.528914, -31.72735, 0.0 ] } },
{ "type": "Feature", "properties": { "Name": "50", "description": "Mapa creado por Paraná Online. Más info: https://www.paranaonline.com.ar/linea-l/", "timestamp": null, "begin": null, "end": null, "altitudeMode": null, "tessellate": -1, "extrude": 0, "visibility": -1, "drawOrder": null, "icon": null }, "geometry": { "type": "Point", "coordinates": [ -60.524825, -31.728394, 0.0 ] } },
{ "type": "Feature", "properties": { "Name": "51", "description": null, "timestamp": null, "begin": null, "end": null, "altitudeMode": null, "tessellate": -1, "extrude": 0, "visibility": -1, "drawOrder": null, "icon": null }, "geometry": { "type": "Point", "coordinates": [ -60.5224373, -31.730102, 0.0 ] } },
{ "type": "Feature", "properties": { "Name": "52", "description": null, "timestamp": null, "begin": null, "end": null, "altitudeMode": null, "tessellate": -1, "extrude": 0, "visibility": -1, "drawOrder": null, "icon": null }, "geometry": { "type": "Point", "coordinates": [ -60.5244654, -31.7338065, 0.0 ] } },
{ "type": "Feature", "properties": { "Name": "53", "description": null, "timestamp": null, "begin": null, "end": null, "altitudeMode": null, "tessellate": -1, "extrude": 0, "visibility": -1, "drawOrder": null, "icon": null }, "geometry": { "type": "Point", "coordinates": [ -60.5218709, -31.7384218, 0.0 ] } },
{ "type": "Feature", "properties": { "Name": "Punto 37", "description": null, "timestamp": null, "begin": null, "end": null, "altitudeMode": null, "tessellate": -1, "extrude": 0, "visibility": -1, "drawOrder": null, "icon": null }, "geometry": { "type": "Point", "coordinates": [ -60.5117488, -31.7336861, 0.0 ] } },
{ "type": "Feature", "properties": { "Name": "Punto 38", "description": null, "timestamp": null, "begin": null, "end": null, "altitudeMode": null, "tessellate": -1, "extrude": 0, "visibility": -1, "drawOrder": null, "icon": null }, "geometry": { "type": "Point", "coordinates": [ -60.5240916, -31.7362587, 0.0 ] } },
{ "type": "Feature", "properties": { "Name": "Punto 39", "description": null, "timestamp": null, "begin": null, "end": null, "altitudeMode": null, "tessellate": -1, "extrude": 0, "visibility": -1, "drawOrder": null, "icon": null }, "geometry": { "type": "Point", "coordinates": [ -60.5201166, -31.7400225, 0.0 ] } },
{ "type": "Feature", "properties": { "Name": "Punto 40", "description": null, "timestamp": null, "begin": null, "end": null, "altitudeMode": null, "tessellate": -1, "extrude": 0, "visibility": -1, "drawOrder": null, "icon": null }, "geometry": { "type": "Point", "coordinates": [ -60.5174401, -31.7404231, 0.0 ] } },
{ "type": "Feature", "properties": { "Name": "Punto 41", "description": null, "timestamp": null, "begin": null, "end": null, "altitudeMode": null, "tessellate": -1, "extrude": 0, "visibility": -1, "drawOrder": null, "icon": null }, "geometry": { "type": "Point", "coordinates": [ -60.5159584, -31.7337857, 0.0 ] } },
{ "type": "Feature", "properties": { "Name": "Punto 42", "description": null, "timestamp": null, "begin": null, "end": null, "altitudeMode": null, "tessellate": -1, "extrude": 0, "visibility": -1, "drawOrder": null, "icon": null }, "geometry": { "type": "Point", "coordinates": [ -60.5145666, -31.7332747, 0.0 ] } }
]
}
