{
"type": "FeatureCollection",
"name": "linea_p_recorridos",
"crs": { "type": "name", "properties": { "name": "urn:ogc:def:crs:OGC:1.3:CRS84" } },
"features": [
{ "type": "Feature", "properties": { "Name": "Aeropuerto > H.Baxada > Centro", "description": "Mapa creado por Paraná Online. Más info: https://www.paranaonline.com.ar/linea-p/", "timestamp": null, "begin": null, "end": null, "altitudeMode": null, "tessellate": 1, "extrude": 0, "visibility": -1, "drawOrder": null, "icon": null }, "geometry": { "type": "LineString", "coordinates": [ [ -60.484153, -31.778137, 0.0 ], [ -60.5012263, -31.7754944, 0.0 ], [ -60.4991215, -31.7653419, 0.0 ], [ -60.5020846, -31.7647313, 0.0 ], [ -60.5009259, -31.7596959, 0.0 ], [ -60.5095304, -31.7583823, 0.0 ], [ -60.5208601, -31.7566307, 0.0 ], [ -60.5251436, -31.7560093, 0.0 ], [ -60.5265947, -31.7557573, 0.0 ], [ -60.530435, -31.7551259, 0.0 ], [ -60.5310707, -31.7545763, 0.0 ], [ -60.5317413, -31.7536955, 0.0 ], [ -60.5305505, -31.7528422, 0.0 ], [ -60.5311837, -31.7520204, 0.0 ], [ -60.5322354, -31.7505319, 0.0 ], [ -60.5331265, -31.7495346, 0.0 ], [ -60.5334339, -31.7489698, 0.0 ], [ -60.5337414, -31.7483731, 0.0 ], [ -60.5335354, -31.7482152, 0.0 ], [ -60.5337953, -31.7471912, 0.0 ], [ -60.5343794, -31.746603, 0.0 ], [ -60.5353626, -31.7459238, 0.0 ], [ -60.5363015, -31.7457305, 0.0 ], [ -60.5360924, -31.7447982, 0.0 ], [ -60.5389464, -31.7443468, 0.0 ], [ -60.5382225, -31.7412063, 0.0 ], [ -60.5373325, -31.7403268, 0.0 ], [ -60.535424, -31.737692, 0.0 ], [ -60.5324654, -31.7304156, 0.0 ], [ -60.5313844, -31.7278316, 0.0 ], [ -60.5325704, -31.7274903, 0.0 ] ] } },
{ "type": "Feature", "properties": { "Name": "Aeropuerto > Almafuerte > Centro", "description": "Mapa creado por Paraná Online. Más info: https://www.paranaonline.com.ar/linea-p/", "timestamp": null, "begin": null, "end": null, "altitudeMode": null, "tessellate": 1, "extrude": 0, "visibility": -1, "drawOrder": null, "icon": null }, "geometry": { "type": "LineString", "coordinates": [ [ -60.486395, -31.789215, 0.0 ], [ -60.485251, -31.783691, 0.0 ], [ -60.484109, -31.778176, 0.0 ], [ -60.483062, -31.773324, 0.0 ], [ -60.482725, -31.771692, 0.0 ], [ -60.482401, -31.770093, 0.0 ], [ -60.482354, -31.769597, 0.0 ], [ -60.4820831, -31.7685167, 0.0 ], [ -60.4798821, -31.7688173, 0.0 ], [ -60.4779421, -31.7690679, 0.0 ], [ -60.4770937, -31.7690154, 0.0 ], [ -60.4762828, -31.7689219, 0.0 ], [ -60.4758099, -31.7666734, 0.0 ], [ -60.4753401, -31.764434, 0.0 ], [ -60.4774505, -31.7641329, 0.0 ], [ -60.4791632, -31.7638491, 0.0 ], [ -60.481023, -31.763579, 0.0 ], [ -60.483998, -31.763114, 0.0 ], [ -60.486652, -31.762709, 0.0 ], [ -60.488181, -31.762481, 0.0 ], [ -60.489628, -31.762242, 0.0 ], [ -60.4925032, -31.7618073, 0.0 ], [ -60.4930298, -31.7642397, 0.0 ], [ -60.4958, -31.763814, 0.0 ], [ -60.496022, -31.764913, 0.0 ], [ -60.496052, -31.765018, 0.0 ], [ -60.496157, -31.765494, 0.0 ], [ -60.496247, -31.765898, 0.0 ], [ -60.496327, -31.766282, 0.0 ], [ -60.497797, -31.766052, 0.0 ], [ -60.4991546, -31.7658047, 0.0 ], [ -60.4990352, -31.765289, 0.0 ], [ -60.4969203, -31.7553027, 0.0 ], [ -60.4995941, -31.7534833, 0.0 ], [ -60.5022117, -31.7517224, 0.0 ], [ -60.5054495, -31.7495227, 0.0 ], [ -60.5089791, -31.7478727, 0.0 ], [ -60.5110752, -31.7469046, 0.0 ], [ -60.5129944, -31.7460182, 0.0 ], [ -60.5144104, -31.7453964, 0.0 ], [ -60.5150886, -31.745012, 0.0 ], [ -60.5157923, -31.7444502, 0.0 ], [ -60.5165389, -31.7437971, 0.0 ], [ -60.5171944, -31.7431749, 0.0 ], [ -60.517925, -31.7426668, 0.0 ], [ -60.5211248, -31.7408297, 0.0 ], [ -60.5240228, -31.7393317, 0.0 ], [ -60.526078, -31.7383043, 0.0 ], [ -60.5279292, -31.7374047, 0.0 ], [ -60.5256616, -31.7337079, 0.0 ], [ -60.5237697, -31.7299655, 0.0 ], [ -60.5325704, -31.7274903, 0.0 ] ] } },
{ "type": "Feature", "properties": { "Name": "Centro > Almafuerte > Aeropuerto", "description": "Mapa creado por Paraná Online. Más info: https://www.paranaonline.com.ar/linea-p/", "timestamp": null, "begin": null, "end": null, "altitudeMode": null, "tessellate": 1, "extrude": 0, "visibility": -1, "drawOrder": null, "icon": null }, "geometry": { "type": "LineString", "coordinates": [ [ -60.5325704, -31.7274903, 0.0 ], [ -60.5347197, -31.731707, 0.0 ], [ -60.5258395, -31.7351023, 0.0 ], [ -60.5246885, -31.7355781, 0.0 ], [ -60.5243449, -31.7357207, 0.0 ], [ -60.5242011, -31.7359616, 0.0 ], [ -60.5233541, -31.736739, 0.0 ], [ -60.5227162, -31.7373704, 0.0 ], [ -60.5204145, -31.7396548, 0.0 ], [ -60.5188559, -31.7412258, 0.0 ], [ -60.5180537, -31.7424775, 0.0 ], [ -60.5183675, -31.743822, 0.0 ], [ -60.515553, -31.745253, 0.0 ], [ -60.5130028, -31.7461341, 0.0 ], [ -60.5075225, -31.7486447, 0.0 ], [ -60.5056464, -31.7495564, 0.0 ], [ -60.5039787, -31.7506281, 0.0 ], [ -60.502016, -31.7519735, 0.0 ], [ -60.4995388, -31.7536514, 0.0 ], [ -60.4982815, -31.7544836, 0.0 ], [ -60.4969919, -31.7553978, 0.0 ], [ -60.4974596, -31.7575977, 0.0 ], [ -60.4980318, -31.7602756, 0.0 ], [ -60.4986404, -31.763004, 0.0 ], [ -60.4991215, -31.7653419, 0.0 ], [ -60.4992292, -31.765826, 0.0 ], [ -60.498531, -31.765946, 0.0 ], [ -60.497717, -31.766089, 0.0 ], [ -60.496306, -31.766307, 0.0 ], [ -60.496028, -31.765026, 0.0 ], [ -60.496, -31.764934, 0.0 ], [ -60.495892, -31.764434, 0.0 ], [ -60.495777, -31.763841, 0.0 ], [ -60.4929811, -31.7642981, 0.0 ], [ -60.4924646, -31.7618576, 0.0 ], [ -60.488803, -31.762429, 0.0 ], [ -60.488076, -31.762541, 0.0 ], [ -60.486829, -31.762737, 0.0 ], [ -60.481086, -31.763614, 0.0 ], [ -60.4753809, -31.764485, 0.0 ], [ -60.47589, -31.7668161, 0.0 ], [ -60.476308, -31.7688704, 0.0 ], [ -60.4770966, -31.7689726, 0.0 ], [ -60.4779012, -31.7690247, 0.0 ], [ -60.4783787, -31.7689809, 0.0 ], [ -60.4789097, -31.7689098, 0.0 ], [ -60.4811123, -31.7685903, 0.0 ], [ -60.482124, -31.7684463, 0.0 ], [ -60.482406, -31.769619, 0.0 ], [ -60.48245, -31.77008, 0.0 ], [ -60.482542, -31.770556, 0.0 ], [ -60.483081, -31.773188, 0.0 ], [ -60.484153, -31.778137, 0.0 ], [ -60.48464, -31.780542, 0.0 ], [ -60.485128, -31.782937, 0.0 ], [ -60.486432, -31.789211, 0.0 ] ] } },
{ "type": "Feature", "properties": { "Name": "Centro > H.Baxada > Aeropuerto", "description": "Mapa creado por Paraná Online. Más info: https://www.paranaonline.com.ar/linea-p/", "timestamp": null, "begin": null, "end": null, "altitudeMode": null, "tessellate": 1, "extrude": 0, "visibility": -1, "drawOrder": null, "icon": null }, "geometry": { "type": "LineString", "coordinates": [ [ -60.5325704, -31.7274903, 0.0 ], [ -60.5331798, -31.7287998, 0.0 ], [ -60.5344545, -31.7312683, 0.0 ], [ -60.5361885, -31.7348091, 0.0 ], [ -60.5374721, -31.7375925, 0.0 ], [ -60.5383764, -31.7384561, 0.0 ], [ -60.5393129, -31.7391371, 0.0 ], [ -60.541261, -31.7407089, 0.0 ], [ -60.5412265, -31.741057, 0.0 ], [ -60.5413154, -31.7415511, 0.0 ], [ -60.5418042, -31.7439762, 0.0 ], [ -60.5361669, -31.7448137, 0.0 ], [ -60.5348586, -31.7450172, 0.0 ], [ -60.5343872, -31.7454031, 0.0 ], [ -60.5339425, -31.7457342, 0.0 ], [ -60.5344068, -31.7466115, 0.0 ], [ -60.5345317, -31.7472782, 0.0 ], [ -60.5339699, -31.7483098, 0.0 ], [ -60.533774, -31.7483982, 0.0 ], [ -60.5331704, -31.7495085, 0.0 ], [ -60.5323349, -31.7504795, 0.0 ], [ -60.5318426, -31.7511769, 0.0 ], [ -60.5306005, -31.7528453, 0.0 ], [ -60.5299559, -31.7537806, 0.0 ], [ -60.5286362, -31.7545195, 0.0 ], [ -60.5293803, -31.7548832, 0.0 ], [ -60.529906, -31.7551888, 0.0 ], [ -60.5299597, -31.7552755, 0.0 ], [ -60.5272534, -31.7557089, 0.0 ], [ -60.52529, -31.756035, 0.0 ], [ -60.5220499, -31.7565231, 0.0 ], [ -60.5211326, -31.7566234, 0.0 ], [ -60.5175652, -31.7572027, 0.0 ], [ -60.5151781, -31.7575676, 0.0 ], [ -60.5147006, -31.7576725, 0.0 ], [ -60.512984, -31.7579188, 0.0 ], [ -60.5093201, -31.7584662, 0.0 ], [ -60.5076035, -31.7587398, 0.0 ], [ -60.5047765, -31.7591777, 0.0 ], [ -60.502105, -31.7596293, 0.0 ], [ -60.5009597, -31.7597843, 0.0 ], [ -60.5012614, -31.7608938, 0.0 ], [ -60.5014586, -31.761846, 0.0 ], [ -60.5017067, -31.7631139, 0.0 ], [ -60.5020795, -31.7647889, 0.0 ], [ -60.5008135, -31.7650204, 0.0 ], [ -60.4991036, -31.7653397, 0.0 ], [ -60.4993503, -31.7664571, 0.0 ], [ -60.4998787, -31.7689347, 0.0 ], [ -60.5001778, -31.7703542, 0.0 ], [ -60.5004702, -31.7717464, 0.0 ], [ -60.5006646, -31.7726516, 0.0 ], [ -60.5011453, -31.7748729, 0.0 ], [ -60.5012848, -31.7755843, 0.0 ], [ -60.4966714, -31.7762684, 0.0 ], [ -60.4889949, -31.7774495, 0.0 ], [ -60.4841723, -31.778202, 0.0 ] ] } }
]
}
