{
"type": "FeatureCollection",
"name": "linea_l_paradas_desde_centro",
"crs": { "type": "name", "properties": { "name": "urn:ogc:def:crs:OGC:1.3:CRS84" } },
"features": [
{ "type": "Feature", "properties": { "Name": "08", "description": null, "timestamp": null, "begin": null, "end": null, "altitudeMode": null, "tessellate": -1, "extrude": 0, "visibility": -1, "drawOrder": null, "icon": null }, "geometry": { "type": "Point", "coordinates": [ -60.523338, -31.726068, 0.0 ] } },
{ "type": "Feature", "properties": { "Name": "09", "description": null, "timestamp": null, "begin": null, "end": null, "altitudeMode": null, "tessellate": -1, "extrude": 0, "visibility": -1, "drawOrder": null, "icon": null }, "geometry": { "type": "Point", "coordinates": [ -60.52851, -31.724581, 0.0 ] } },
{ "type": "Feature", "properties": { "Name": "10", "description": null, "timestamp": null, "begin": null, "end": null, "altitudeMode": null, "tessellate": -1, "extrude": 0, "visibility": -1, "drawOrder": null, "icon": null }, "geometry": { "type": "Point", "coordinates": [ -60.531836, -31.725512, 0.0 ] } },
{ "type": "Feature", "properties": { "Name": "11", "description": null, "timestamp": null, "begin": null, "end": null, "altitudeMode": null, "tessellate": -1, "extrude": 0, "visibility": -1, "drawOrder": null, "icon": null }, "geometry": { "type": "Point", "coordinates": [ -60.533198, -31.72866, 0.0 ] } },
{ "type": "Feature", "properties": { "Name": "12", "description": "Mapa creado por Paraná Online. Más info: https://www.paranaonline.com.ar/linea-l/", "timestamp": null, "begin": null, "end": null, "altitudeMode": null, "tessellate": -1, "extrude": 0, "visibility": -1, "drawOrder": null, "icon": null }, "geometry": { "type": "Point", "coordinates": [ -60.534706, -31.731454, 0.0 ] } },
{ "type": "Feature", "properties": { "Name": "13", "description": null, "timestamp": null, "begin": null, "end": null, "altitudeMode": null, "tessellate": -1, "extrude": 0, "visibility": -1, "drawOrder": null, "icon": null }, "geometry": { "type": "Point", "coordinates": [ -60.535796, -31.733715, 0.0 ] } },
{ "type": "Feature", "properties": { "Name": "14", "description": null, "timestamp": null, "begin": null, "end": null, "altitudeMode": null, "tessellate": -1, "extrude": 0, "visibility": -1, "drawOrder": null, "icon": null }, "geometry": { "type": "Point", "coordinates": [ -60.538011, -31.735132, 0.0 ] } },
{ "type": "Feature", "properties": { "Name": "15", "description": null, "timestamp": null, "begin": null, "end": null, "altitudeMode": null, "tessellate": -1, "extrude": 0, "visibility": -1, "drawOrder": null, "icon": null }, "geometry": { "type": "Point", "coordinates": [ -60.540137, -31.733442, 0.0 ] } },
{ "type": "Feature", "properties": { "Name": "16", "description": null, "timestamp": null, "begin": null, "end": null, "altitudeMode": null, "tessellate": -1, "extrude": 0, "visibility": -1, "drawOrder": null, "icon": null }, "geometry": { "type": "Point", "coordinates": [ -60.543333, -31.734095, 0.0 ] } },
{ "type": "Feature", "properties": { "Name": "17", "description": null, "timestamp": null, "begin": null, "end": null, "altitudeMode": null, "tessellate": -1, "extrude": 0, "visibility": -1, "drawOrder": null, "icon": null }, "geometry": { "type": "Point", "coordinates": [ -60.544284, -31.733314, 0.0 ] } },
{ "type": "Feature", "properties": { "Name": "18", "description": null, "timestamp": null, "begin": null, "end": null, "altitudeMode": null, "tessellate": -1, "extrude": 0, "visibility": -1, "drawOrder": null, "icon": null }, "geometry": { "type": "Point", "coordinates": [ -60.5456379, -31.7329167, 0.0 ] } },
{ "type": "Feature", "properties": { "Name": "19", "description": null, "timestamp": null, "begin": null, "end": null, "altitudeMode": null, "tessellate": -1, "extrude": 0, "visibility": -1, "drawOrder": null, "icon": null }, "geometry": { "type": "Point", "coordinates": [ -60.5459501, -31.7351871, 0.0 ] } },
{ "type": "Feature", "properties": { "Name": "28", "description": null, "timestamp": null, "begin": null, "end": null, "altitudeMode": null, "tessellate": -1, "extrude": 0, "visibility": -1, "drawOrder": null, "icon": null }, "geometry": { "type": "Point", "coordinates": [ -60.544682, -31.73579, 0.0 ] } },
{ "type": "Feature", "properties": { "Name": "29", "description": null, "timestamp": null, "begin": null, "end": null, "altitudeMode": null, "tessellate": -1, "extrude": 0, "visibility": -1, "drawOrder": null, "icon": null }, "geometry": { "type": "Point", "coordinates": [ -60.544353, -31.736909, 0.0 ] } },
{ "type": "Feature", "properties": { "Name": "30", "description": null, "timestamp": null, "begin": null, "end": null, "altitudeMode": null, "tessellate": -1, "extrude": 0, "visibility": -1, "drawOrder": null, "icon": null }, "geometry": { "type": "Point", "coordinates": [ -60.542122, -31.738009, 0.0 ] } },
{ "type": "Feature", "properties": { "Name": "31", "description": null, "timestamp": null, "begin": null, "end": null, "altitudeMode": null, "tessellate": -1, "extrude": 0, "visibility": -1, "drawOrder": null, "icon": null }, "geometry": { "type": "Point", "coordinates": [ -60.539676, -31.739267, 0.0 ] } },
{ "type": "Feature", "properties": { "Name": "32", "description": null, "timestamp": null, "begin": null, "end": null, "altitudeMode": null, "tessellate": -1, "extrude": 0, "visibility": -1, "drawOrder": null, "icon": null }, "geometry": { "type": "Point", "coordinates": [ -60.54115, -31.740654, 0.0 ] } },
{ "type": "Feature", "properties": { "Name": "33", "description": null, "timestamp": null, "begin": null, "end": null, "altitudeMode": null, "tessellate": -1, "extrude": 0, "visibility": -1, "drawOrder": null, "icon": null }, "geometry": { "type": "Point", "coordinates": [ -60.541664, -31.742588, 0.0 ] } },
{ "type": "Feature", "properties": { "Name": "34", "description": "Mapa creado por Paraná Online. Más info: https://www.paranaonline.com.ar/linea-l/", "timestamp": null, "begin": null, "end": null, "altitudeMode": null, "tessellate": -1, "extrude": 0, "visibility": -1, "drawOrder": null, "icon": null }, "geometry": { "type": "Point", "coordinates": [ -60.540879, -31.744171, 0.0 ] } },
{ "type": "Feature", "properties": { "Name": "35", "description": null, "timestamp": null, "begin": null, "end": null, "altitudeMode": null, "tessellate": -1, "extrude": 0, "visibility": -1, "drawOrder": null, "icon": null }, "geometry": { "type": "Point", "coordinates": [ -60.536298, -31.744848, 0.0 ] } },
{ "type": "Feature", "properties": { "Name": "36", "description": null, "timestamp": null, "begin": null, "end": null, "altitudeMode": null, "tessellate": -1, "extrude": 0, "visibility": -1, "drawOrder": null, "icon": null }, "geometry": { "type": "Point", "coordinates": [ -60.536773, -31.74728, 0.0 ] } },
{ "type": "Feature", "properties": { "Name": "37", "description": null, "timestamp": null, "begin": null, "end": null, "altitudeMode": null, "tessellate": -1, "extrude": 0, "visibility": -1, "drawOrder": null, "icon": null }, "geometry": { "type": "Point", "coordinates": [ -60.535353, -31.749156, 0.0 ] } },
{ "type": "Feature", "properties": { "Name": "38", "description": null, "timestamp": null, "begin": null, "end": null, "altitudeMode": null, "tessellate": -1, "extrude": 0, "visibility": -1, "drawOrder": null, "icon": null }, "geometry": { "type": "Point", "coordinates": [ -60.533564, -31.751364, 0.0 ] } },
{ "type": "Feature", "properties": { "Name": "39", "description": null, "timestamp": null, "begin": null, "end": null, "altitudeMode": null, "tessellate": -1, "extrude": 0, "visibility": -1, "drawOrder": null, "icon": null }, "geometry": { "type": "Point", "coordinates": [ -60.532337, -31.752923, 0.0 ] } },
{ "type": "Feature", "properties": { "Name": "40", "description": null, "timestamp": null, "begin": null, "end": null, "altitudeMode": null, "tessellate": -1, "extrude": 0, "visibility": -1, "drawOrder": null, "icon": null }, "geometry": { "type": "Point", "coordinates": [ -60.5326878, -31.7558947, 0.0 ] } },
{ "type": "Feature", "properties": { "Name": "41", "description": null, "timestamp": null, "begin": null, "end": null, "altitudeMode": null, "tessellate": -1, "extrude": 0, "visibility": -1, "drawOrder": null, "icon": null }, "geometry": { "type": "Point", "coordinates": [ -60.5332432, -31.7588418, 0.0 ] } },
{ "type": "Feature", "properties": { "Name": "42", "description": "Mapa creado por Paraná Online. Más info: https://www.paranaonline.com.ar/linea-l/", "timestamp": null, "begin": null, "end": null, "altitudeMode": null, "tessellate": -1, "extrude": 0, "visibility": -1, "drawOrder": null, "icon": null }, "geometry": { "type": "Point", "coordinates": [ -60.5339507, -31.7607505, 0.0 ] } },
{ "type": "Feature", "properties": { "Name": "43", "description": null, "timestamp": null, "begin": null, "end": null, "altitudeMode": null, "tessellate": -1, "extrude": 0, "visibility": -1, "drawOrder": null, "icon": null }, "geometry": { "type": "Point", "coordinates": [ -60.5342399, -31.7625389, 0.0 ] } },
{ "type": "Feature", "properties": { "Name": "44", "description": null, "timestamp": null, "begin": null, "end": null, "altitudeMode": null, "tessellate": -1, "extrude": 0, "visibility": -1, "drawOrder": null, "icon": null }, "geometry": { "type": "Point", "coordinates": [ -60.5346358, -31.7644881, 0.0 ] } },
{ "type": "Feature", "properties": { "Name": "Punto 38", "description": null, "timestamp": null, "begin": null, "end": null, "altitudeMode": null, "tessellate": -1, "extrude": 0, "visibility": -1, "drawOrder": null, "icon": null }, "geometry": { "type": "Point", "coordinates": [ -60.509222, -31.7290445, 0.0 ] } },
{ "type": "Feature", "properties": { "Name": "Punto 39", "description": null, "timestamp": null, "begin": null, "end": null, "altitudeMode": null, "tessellate": -1, "extrude": 0, "visibility": -1, "drawOrder": null, "icon": null }, "geometry": { "type": "Point", "coordinates": [ -60.5147338, -31.7280508, 0.0 ] } },
{ "type": "Feature", "properties": { "Name": "Punto 40", "description": null, "timestamp": null, "begin": null, "end": null, "altitudeMode": null, "tessellate": -1, "extrude": 0, "visibility": -1, "drawOrder": null, "icon": null }, "geometry": { "type": "Point", "coordinates": [ -60.5184672, -31.7274567, 0.0 ] } },
{ "type": "Feature", "properties": { "Name": "Punto 37", "description": null, "timestamp": null, "begin": null, "end": null, "altitudeMode": null, "tessellate": -1, "extrude": 0, "visibility": -1, "drawOrder": null, "icon": null }, "geometry": { "type": "Point", "coordinates": [ -60.5096879, -31.7315006, 0.0 ] } },
{ "type": "Feature", "properties": { "Name": "Punto 38", "description": null, "timestamp": null, "begin": null, "end": null, "altitudeMode": null, "tessellate": -1, "extrude": 0, "visibility": -1, "drawOrder": null, "icon": null }, "geometry": { "type": "Point", "coordinates": [ -60.5085221, -31.7267285, 0.0 ] } },
{ "type": "Feature", "properties": { "Name": "Punto 39", "description": null, "timestamp": null, "begin": null, "end": null, "altitudeMode": null, "tessellate": -1, "extrude": 0, "visibility": -1, "drawOrder": null, "icon": null }, "geometry": { "type": "Point", "coordinates": [ -60.5114403, -31.7260276, 0.0 ] } },
{ "type": "Feature", "properties": { "Name": "Punto 40", "description": null, "timestamp": null, "begin": null, "end": null, "altitudeMode": null, "tessellate": -1, "extrude": 0, "visibility": -1, "drawOrder": null, "icon": null }, "geometry": { "type": "Point", "coordinates": [ -60.5119339, -31.7273166, 0.0 ] } }
]
}
