{
"type": "FeatureCollection",
"name": "linea_g_recorridos",
"crs": { "type": "name", "properties": { "name": "urn:ogc:def:crs:OGC:1.3:CRS84" } },
"features": [
{ "type": "Feature", "properties": { "Name": "Bº Anacleto Medina -> Bº AATRA", "description": "Mapa creado por Paraná Online. Más info: https://www.paranaonline.com.ar/linea-g/", "timestamp": null, "begin": null, "end": null, "altitudeMode": null, "tessellate": 1, "extrude": 0, "visibility": -1, "drawOrder": null, "icon": null }, "geometry": { "type": "LineString", "coordinates": [ [ -60.5543112, -31.7441542, 0.0 ], [ -60.5544363, -31.7445255, 0.0 ], [ -60.5554471, -31.744346, 0.0 ], [ -60.5552559, -31.7435833, 0.0 ], [ -60.5541598, -31.7438018, 0.0 ], [ -60.5536914, -31.7420496, 0.0 ], [ -60.5533027, -31.740337, 0.0 ], [ -60.5523326, -31.7405003, 0.0 ], [ -60.5521336, -31.7405313, 0.0 ], [ -60.5512501, -31.7385291, 0.0 ], [ -60.5507736, -31.7375712, 0.0 ], [ -60.5515381, -31.7374399, 0.0 ], [ -60.5518229, -31.737493, 0.0 ], [ -60.5522854, -31.7374098, 0.0 ], [ -60.5526664, -31.7373462, 0.0 ], [ -60.5529286, -31.7373822, 0.0 ], [ -60.5544395, -31.7371746, 0.0 ], [ -60.5545702, -31.7370741, 0.0 ], [ -60.5547642, -31.7370306, 0.0 ], [ -60.5545877, -31.7360292, 0.0 ], [ -60.5523539, -31.7363622, 0.0 ], [ -60.5513948, -31.7343381, 0.0 ], [ -60.552601, -31.734098, 0.0 ], [ -60.5538094, -31.7339293, 0.0 ], [ -60.5537077, -31.7331852, 0.0 ], [ -60.5535737, -31.7325185, 0.0 ], [ -60.5548896, -31.7321568, 0.0 ], [ -60.5545426, -31.7316417, 0.0 ], [ -60.554233, -31.7311221, 0.0 ], [ -60.5539369, -31.7305785, 0.0 ], [ -60.553622, -31.730044, 0.0 ], [ -60.552707, -31.730417, 0.0 ], [ -60.551634, -31.728576, 0.0 ], [ -60.549288, -31.729602, 0.0 ], [ -60.546936, -31.73051, 0.0 ], [ -60.546769, -31.730529, 0.0 ], [ -60.546588, -31.730506, 0.0 ], [ -60.546072, -31.73036, 0.0 ], [ -60.545602, -31.730184, 0.0 ], [ -60.544979, -31.729837, 0.0 ], [ -60.544497, -31.72956, 0.0 ], [ -60.544301, -31.729475, 0.0 ], [ -60.54291, -31.729051, 0.0 ], [ -60.54271, -31.728987, 0.0 ], [ -60.541994, -31.727818, 0.0 ], [ -60.5414773, -31.7280138, 0.0 ], [ -60.5408485, -31.7282454, 0.0 ], [ -60.5394637, -31.7287549, 0.0 ], [ -60.537843, -31.7293322, 0.0 ], [ -60.5356524, -31.7301782, 0.0 ], [ -60.5342109, -31.7307355, 0.0 ], [ -60.534722, -31.73174, 0.0 ], [ -60.532101, -31.732727, 0.0 ], [ -60.5294473, -31.7337145, 0.0 ], [ -60.5263569, -31.7349331, 0.0 ], [ -60.524375, -31.735697, 0.0 ], [ -60.5242314, -31.7359699, 0.0 ], [ -60.5230256, -31.737064, 0.0 ], [ -60.5226735, -31.7373966, 0.0 ], [ -60.5225457, -31.737556, 0.0 ], [ -60.5215381, -31.7384636, 0.0 ], [ -60.519545, -31.735596, 0.0 ], [ -60.518416, -31.733906, 0.0 ], [ -60.516253, -31.734606, 0.0 ], [ -60.515915, -31.732969, 0.0 ], [ -60.511597, -31.733656, 0.0 ], [ -60.507267, -31.734331, 0.0 ], [ -60.506455, -31.730658, 0.0 ], [ -60.504031, -31.731052, 0.0 ], [ -60.503236, -31.7311, 0.0 ], [ -60.5023162, -31.7312568, 0.0 ], [ -60.502398, -31.732129, 0.0 ], [ -60.502994, -31.735032, 0.0 ], [ -60.498676, -31.735707, 0.0 ], [ -60.49293, -31.736602, 0.0 ], [ -60.484904, -31.737737, 0.0 ], [ -60.484718, -31.738153, 0.0 ], [ -60.484237, -31.738611, 0.0 ], [ -60.483908, -31.739101, 0.0 ], [ -60.483099, -31.740602, 0.0 ], [ -60.482706, -31.741777, 0.0 ], [ -60.482644, -31.742433, 0.0 ], [ -60.482567, -31.743199, 0.0 ], [ -60.482628, -31.743198, 0.0 ] ] } },
{ "type": "Feature", "properties": { "Name": "Bº AATRA -> Bº Anacleto Medina", "description": "Mapa creado por Paraná Online. Más info: https://www.paranaonline.com.ar/linea-g/", "timestamp": null, "begin": null, "end": null, "altitudeMode": null, "tessellate": 1, "extrude": 0, "visibility": -1, "drawOrder": null, "icon": null }, "geometry": { "type": "LineString", "coordinates": [ [ -60.482629, -31.743195, 0.0 ], [ -60.488231, -31.742329, 0.0 ], [ -60.487978, -31.7410563, 0.0 ], [ -60.4877304, -31.7399523, 0.0 ], [ -60.4873781, -31.738675, 0.0 ], [ -60.487101, -31.737384, 0.0 ], [ -60.490202, -31.736947, 0.0 ], [ -60.4917385, -31.736726, 0.0 ], [ -60.4929266, -31.736547, 0.0 ], [ -60.4927723, -31.7358701, 0.0 ], [ -60.4925798, -31.7349386, 0.0 ], [ -60.492285, -31.7335979, 0.0 ], [ -60.4918829, -31.7316946, 0.0 ], [ -60.4956596, -31.7310916, 0.0 ], [ -60.4977479, -31.7307809, 0.0 ], [ -60.4982209, -31.7329548, 0.0 ], [ -60.4987744, -31.7353044, 0.0 ], [ -60.4988447, -31.7356514, 0.0 ], [ -60.499478, -31.7355284, 0.0 ], [ -60.5015649, -31.7352022, 0.0 ], [ -60.502933, -31.734981, 0.0 ], [ -60.50235, -31.73213, 0.0 ], [ -60.502278, -31.731247, 0.0 ], [ -60.503278, -31.731048, 0.0 ], [ -60.504039, -31.731002, 0.0 ], [ -60.506506, -31.730607, 0.0 ], [ -60.507314, -31.734271, 0.0 ], [ -60.509789, -31.733878, 0.0 ], [ -60.515998, -31.732886, 0.0 ], [ -60.517165, -31.738421, 0.0 ], [ -60.520489, -31.737157, 0.0 ], [ -60.522124, -31.736562, 0.0 ], [ -60.5237863, -31.7358213, 0.0 ], [ -60.524349, -31.735635, 0.0 ], [ -60.526334, -31.734838, 0.0 ], [ -60.525648, -31.733683, 0.0 ], [ -60.524697, -31.73181, 0.0 ], [ -60.523765, -31.729952, 0.0 ], [ -60.528565, -31.728614, 0.0 ], [ -60.530076, -31.728221, 0.0 ], [ -60.531403, -31.727844, 0.0 ], [ -60.532598, -31.72752, 0.0 ], [ -60.533792, -31.729889, 0.0 ], [ -60.542478, -31.726514, 0.0 ], [ -60.542989, -31.727378, 0.0 ], [ -60.542019, -31.727756, 0.0 ], [ -60.542735, -31.728917, 0.0 ], [ -60.544253, -31.729399, 0.0 ], [ -60.545029, -31.72979, 0.0 ], [ -60.545734, -31.730163, 0.0 ], [ -60.546356, -31.730369, 0.0 ], [ -60.546843, -31.730474, 0.0 ], [ -60.549135, -31.729608, 0.0 ], [ -60.551662, -31.728523, 0.0 ], [ -60.5526003, -31.7281415, 0.0 ], [ -60.553637, -31.729976, 0.0 ], [ -60.5542832, -31.7311274, 0.0 ], [ -60.554605, -31.7316654, 0.0 ], [ -60.5549455, -31.7321852, 0.0 ], [ -60.5536357, -31.7325324, 0.0 ], [ -60.5537538, -31.7331632, 0.0 ], [ -60.553841, -31.7339058, 0.0 ], [ -60.5538574, -31.7339974, 0.0 ], [ -60.5544327, -31.7350523, 0.0 ], [ -60.554631, -31.7360276, 0.0 ], [ -60.5547076, -31.7364816, 0.0 ], [ -60.5547467, -31.7367306, 0.0 ], [ -60.5548106, -31.7370561, 0.0 ], [ -60.5545462, -31.7371024, 0.0 ], [ -60.5544439, -31.7371913, 0.0 ], [ -60.5536423, -31.7373058, 0.0 ], [ -60.5529665, -31.7374017, 0.0 ], [ -60.5526523, -31.7373625, 0.0 ], [ -60.551877, -31.737512, 0.0 ], [ -60.5517549, -31.7375137, 0.0 ], [ -60.5515174, -31.7374584, 0.0 ], [ -60.5508172, -31.7375919, 0.0 ], [ -60.5512396, -31.738416, 0.0 ], [ -60.5517619, -31.7396401, 0.0 ], [ -60.5521545, -31.7404985, 0.0 ], [ -60.5533459, -31.7403164, 0.0 ], [ -60.553637, -31.7416697, 0.0 ], [ -60.5538584, -31.7424869, 0.0 ], [ -60.5541844, -31.7437011, 0.0 ], [ -60.5543112, -31.7441542, 0.0 ] ] } }
]
}
