{
"type": "FeatureCollection",
"name": "linea_l_paradas_500_viv",
"crs": { "type": "name", "properties": { "name": "urn:ogc:def:crs:OGC:1.3:CRS84" } },
"features": [
{ "type": "Feature", "properties": { "Name": "Punto 1", "description": null, "timestamp": null, "begin": null, "end": null, "altitudeMode": null, "tessellate": -1, "extrude": 0, "visibility": -1, "drawOrder": null, "icon": null }, "geometry": { "type": "Point", "coordinates": [ -60.5486954, -31.7758831, 0.0 ] } },
{ "type": "Feature", "properties": { "Name": "Punto 2", "description": "Mapa creado por Paraná Online. Más info: https://www.paranaonline.com.ar/linea-l/", "timestamp": null, "begin": null, "end": null, "altitudeMode": null, "tessellate": -1, "extrude": 0, "visibility": -1, "drawOrder": null, "icon": null }, "geometry": { "type": "Point", "coordinates": [ -60.5479451, -31.772591, 0.0 ] } },
{ "type": "Feature", "properties": { "Name": "Punto 3", "description": null, "timestamp": null, "begin": null, "end": null, "altitudeMode": null, "tessellate": -1, "extrude": 0, "visibility": -1, "drawOrder": null, "icon": null }, "geometry": { "type": "Point", "coordinates": [ -60.5526291, -31.7668506, 0.0 ] } },
{ "type": "Feature", "properties": { "Name": "Punto 4", "description": null, "timestamp": null, "begin": null, "end": null, "altitudeMode": null, "tessellate": -1, "extrude": 0, "visibility": -1, "drawOrder": null, "icon": null }, "geometry": { "type": "Point", "coordinates": [ -60.5495445, -31.7673236, 0.0 ] } },
{ "type": "Feature", "properties": { "Name": "Punto 5", "description": null, "timestamp": null, "begin": null, "end": null, "altitudeMode": null, "tessellate": -1, "extrude": 0, "visibility": -1, "drawOrder": null, "icon": null }, "geometry": { "type": "Point", "coordinates": [ -60.5435834, -31.7682548, 0.0 ] } },
{ "type": "Feature", "properties": { "Name": "Punto 6", "description": null, "timestamp": null, "begin": null, "end": null, "altitudeMode": null, "tessellate": -1, "extrude": 0, "visibility": -1, "drawOrder": null, "icon": null }, "geometry": { "type": "Point", "coordinates": [ -60.5392891, -31.7689481, 0.0 ] } },
{ "type": "Feature", "properties": { "Name": "Punto 7", "description": null, "timestamp": null, "begin": null, "end": null, "altitudeMode": null, "tessellate": -1, "extrude": 0, "visibility": -1, "drawOrder": null, "icon": null }, "geometry": { "type": "Point", "coordinates": [ -60.5358881, -31.7695273, 0.0 ] } },
{ "type": "Feature", "properties": { "Name": "Punto 8", "description": null, "timestamp": null, "begin": null, "end": null, "altitudeMode": null, "tessellate": -1, "extrude": 0, "visibility": -1, "drawOrder": null, "icon": null }, "geometry": { "type": "Point", "coordinates": [ -60.5358238, -31.7693918, 0.0 ] } },
{ "type": "Feature", "properties": { "Name": "Punto 9", "description": null, "timestamp": null, "begin": null, "end": null, "altitudeMode": null, "tessellate": -1, "extrude": 0, "visibility": -1, "drawOrder": null, "icon": null }, "geometry": { "type": "Point", "coordinates": [ -60.539275, -31.7688091, 0.0 ] } },
{ "type": "Feature", "properties": { "Name": "Punto 10", "description": null, "timestamp": null, "begin": null, "end": null, "altitudeMode": null, "tessellate": -1, "extrude": 0, "visibility": -1, "drawOrder": null, "icon": null }, "geometry": { "type": "Point", "coordinates": [ -60.5435723, -31.768111, 0.0 ] } },
{ "type": "Feature", "properties": { "Name": "Punto 11", "description": null, "timestamp": null, "begin": null, "end": null, "altitudeMode": null, "tessellate": -1, "extrude": 0, "visibility": -1, "drawOrder": null, "icon": null }, "geometry": { "type": "Point", "coordinates": [ -60.5491131, -31.767109, 0.0 ] } },
{ "type": "Feature", "properties": { "Name": "Punto 12", "description": "Mapa creado por Paraná Online. Más info: https://www.paranaonline.com.ar/linea-l/", "timestamp": null, "begin": null, "end": null, "altitudeMode": null, "tessellate": -1, "extrude": 0, "visibility": -1, "drawOrder": null, "icon": null }, "geometry": { "type": "Point", "coordinates": [ -60.5523984, -31.7666272, 0.0 ] } },
{ "type": "Feature", "properties": { "Name": "Punto 13", "description": null, "timestamp": null, "begin": null, "end": null, "altitudeMode": null, "tessellate": -1, "extrude": 0, "visibility": -1, "drawOrder": null, "icon": null }, "geometry": { "type": "Point", "coordinates": [ -60.548221, -31.7726267, 0.0 ] } },
{ "type": "Feature", "properties": { "Name": "Punto 14", "description": null, "timestamp": null, "begin": null, "end": null, "altitudeMode": null, "tessellate": -1, "extrude": 0, "visibility": -1, "drawOrder": null, "icon": null }, "geometry": { "type": "Point", "coordinates": [ -60.5488711, -31.7758373, 0.0 ] } }
]
}
