{
"type": "FeatureCollection",
"name": "linea_f_recorridos",
"crs": { "type": "name", "properties": { "name": "urn:ogc:def:crs:OGC:1.3:CRS84" } },
"features": [
{ "type": "Feature", "properties": { "Name": "Bajada Grande > Bº 41 Viviendas", "description": "Mapa creado por Paraná Online. Más info: https://www.paranaonline.com.ar/linea-f/", "timestamp": null, "begin": null, "end": null, "altitudeMode": null, "tessellate": 1, "extrude": 0, "visibility": -1, "drawOrder": null, "icon": null }, "geometry": { "type": "LineString", "coordinates": [ [ -60.56586, -31.706416, 0.0 ], [ -60.5660963, -31.7064729, 0.0 ], [ -60.5665323, -31.7066805, 0.0 ], [ -60.5673786, -31.7070912, 0.0 ], [ -60.5679767, -31.7074423, 0.0 ], [ -60.5682959, -31.7076599, 0.0 ], [ -60.5684475, -31.7077434, 0.0 ], [ -60.5685883, -31.7077585, 0.0 ], [ -60.5692937, -31.7075855, 0.0 ], [ -60.5694004, -31.7076101, 0.0 ], [ -60.5695767, -31.7079952, 0.0 ], [ -60.5696178, -31.7081161, 0.0 ], [ -60.5697085, -31.7081764, 0.0 ], [ -60.5703673, -31.708053, 0.0 ], [ -60.5705101, -31.7080458, 0.0 ], [ -60.5716294, -31.708663, 0.0 ], [ -60.5719596, -31.7089244, 0.0 ], [ -60.571976, -31.7090079, 0.0 ], [ -60.5719009, -31.7090832, 0.0 ], [ -60.5717748, -31.709081, 0.0 ], [ -60.5716971, -31.709033, 0.0 ], [ -60.5701628, -31.7096309, 0.0 ], [ -60.568634, -31.7102196, 0.0 ], [ -60.5679339, -31.7104797, 0.0 ], [ -60.567325, -31.7105892, 0.0 ], [ -60.5666062, -31.7106189, 0.0 ], [ -60.5652276, -31.7106372, 0.0 ], [ -60.563122, -31.7106828, 0.0 ], [ -60.5627197, -31.7107878, 0.0 ], [ -60.5607349, -31.7114038, 0.0 ], [ -60.5595654, -31.7117552, 0.0 ], [ -60.5583504, -31.712134, 0.0 ], [ -60.5579829, -31.7122914, 0.0 ], [ -60.557712, -31.7124854, 0.0 ], [ -60.5575028, -31.7127432, 0.0 ], [ -60.5567062, -31.7139708, 0.0 ], [ -60.5560625, -31.7149451, 0.0 ], [ -60.5550486, -31.7165765, 0.0 ], [ -60.5547321, -31.7170625, 0.0 ], [ -60.5543673, -31.7174937, 0.0 ], [ -60.553906, -31.7179135, 0.0 ], [ -60.5525729, -31.7188923, 0.0 ], [ -60.5513954, -31.7198072, 0.0 ], [ -60.5508053, -31.7202772, 0.0 ], [ -60.5502179, -31.720697, 0.0 ], [ -60.5499765, -31.7208225, 0.0 ], [ -60.5487052, -31.721256, 0.0 ], [ -60.5462724, -31.72205, 0.0 ], [ -60.546165, -31.7220687, 0.0 ] ] } },
{ "type": "Feature", "properties": { "Name": "Bajada Grande > Seminario", "description": "Mapa creado por Paraná Online. Más info: https://www.paranaonline.com.ar/linea-f/", "timestamp": null, "begin": null, "end": null, "altitudeMode": null, "tessellate": 1, "extrude": 0, "visibility": -1, "drawOrder": null, "icon": null }, "geometry": { "type": "LineString", "coordinates": [ [ -60.56586, -31.706416, 0.0 ], [ -60.5658381, -31.7063615, 0.0 ], [ -60.5655316, -31.7061881, 0.0 ], [ -60.5650985, -31.7060363, 0.0 ], [ -60.5646881, -31.7059793, 0.0 ], [ -60.5633497, -31.7059838, 0.0 ], [ -60.5627247, -31.7059656, 0.0 ], [ -60.561625, -31.7058264, 0.0 ], [ -60.5613085, -31.7058492, 0.0 ], [ -60.559313, -31.7060819, 0.0 ], [ -60.5579075, -31.7062394, 0.0 ], [ -60.5566737, -31.7065178, 0.0 ], [ -60.5560272, -31.7066547, 0.0 ], [ -60.555633, -31.7068213, 0.0 ], [ -60.5549222, -31.7072366, 0.0 ], [ -60.5541604, -31.7076177, 0.0 ], [ -60.5537098, -31.7077226, 0.0 ], [ -60.5532726, -31.7078116, 0.0 ], [ -60.552999, -31.7079348, 0.0 ], [ -60.5515828, -31.7087905, 0.0 ], [ -60.5502471, -31.7095595, 0.0 ], [ -60.550003, -31.709685, 0.0 ], [ -60.549421, -31.7098653, 0.0 ], [ -60.5485519, -31.7101231, 0.0 ], [ -60.5478626, -31.710333, 0.0 ], [ -60.5473315, -31.7105384, 0.0 ], [ -60.5467253, -31.7108077, 0.0 ], [ -60.5463311, -31.711013, 0.0 ], [ -60.5452475, -31.7116679, 0.0 ], [ -60.5445313, -31.7121402, 0.0 ], [ -60.5435174, -31.7128841, 0.0 ], [ -60.5428549, -31.713434, 0.0 ], [ -60.5412188, -31.714949, 0.0 ], [ -60.5408167, -31.7155331, 0.0 ], [ -60.5406289, -31.7158548, 0.0 ], [ -60.5408677, -31.7160921, 0.0 ], [ -60.5412043, -31.7164914, 0.0 ], [ -60.541384, -31.7167572, 0.0 ], [ -60.5415919, -31.7171017, 0.0 ], [ -60.5416951, -31.7173219, 0.0 ], [ -60.5417501, -31.7175227, 0.0 ], [ -60.5417984, -31.7177075, 0.0 ], [ -60.5419365, -31.7179334, 0.0 ], [ -60.5423442, -31.7185677, 0.0 ], [ -60.5428216, -31.7192521, 0.0 ], [ -60.5430456, -31.7195442, 0.0 ], [ -60.5431462, -31.7196377, 0.0 ], [ -60.5432776, -31.7197256, 0.0 ], [ -60.543747, -31.7199845, 0.0 ], [ -60.5449795, -31.7206234, 0.0 ], [ -60.5451659, -31.7207363, 0.0 ], [ -60.5454422, -31.7209713, 0.0 ], [ -60.5456366, -31.7212223, 0.0 ], [ -60.5458338, -31.7215074, 0.0 ], [ -60.5462173, -31.7220025, 0.0 ], [ -60.546165, -31.7220687, 0.0 ] ] } },
{ "type": "Feature", "properties": { "Name": "Bajada Grande > Circunvalación", "description": "Mapa creado por Paraná Online. Más info: https://www.paranaonline.com.ar/linea-f/", "timestamp": null, "begin": null, "end": null, "altitudeMode": null, "tessellate": 1, "extrude": 0, "visibility": -1, "drawOrder": null, "icon": null }, "geometry": { "type": "LineString", "coordinates": [ [ -60.546165, -31.7220687, 0.0 ], [ -60.5459123, -31.7222187, 0.0 ], [ -60.5456986, -31.7223813, 0.0 ], [ -60.54548, -31.722577, 0.0 ], [ -60.544931, -31.723404, 0.0 ], [ -60.544678, -31.723764, 0.0 ], [ -60.544382, -31.724007, 0.0 ], [ -60.544008, -31.724182, 0.0 ], [ -60.543588, -31.724296, 0.0 ], [ -60.542642, -31.724488, 0.0 ], [ -60.542455, -31.724531, 0.0 ], [ -60.542766, -31.725201, 0.0 ], [ -60.542089, -31.725552, 0.0 ], [ -60.540928, -31.726002, 0.0 ], [ -60.539035, -31.726701, 0.0 ], [ -60.53774, -31.727116, 0.0 ], [ -60.536092, -31.727702, 0.0 ], [ -60.534602, -31.728271, 0.0 ], [ -60.533215, -31.728779, 0.0 ], [ -60.533807, -31.729965, 0.0 ], [ -60.534707, -31.73175, 0.0 ], [ -60.532354, -31.732641, 0.0 ], [ -60.529552, -31.733694, 0.0 ], [ -60.524373, -31.735643, 0.0 ], [ -60.522686, -31.737402, 0.0 ], [ -60.520712, -31.739296, 0.0 ], [ -60.518837, -31.741148, 0.0 ], [ -60.51772, -31.741292, 0.0 ], [ -60.517427, -31.740047, 0.0 ], [ -60.516614, -31.740196, 0.0 ], [ -60.515453, -31.740446, 0.0 ], [ -60.514586, -31.740616, 0.0 ], [ -60.514069, -31.738188, 0.0 ], [ -60.508263, -31.739015, 0.0 ], [ -60.507551, -31.735614, 0.0 ], [ -60.507286, -31.734341, 0.0 ], [ -60.502985, -31.735035, 0.0 ], [ -60.498805, -31.735672, 0.0 ], [ -60.493003, -31.736596, 0.0 ], [ -60.493629, -31.739571, 0.0 ], [ -60.494083, -31.74147, 0.0 ], [ -60.491438, -31.741828, 0.0 ], [ -60.488991, -31.742231, 0.0 ], [ -60.482594, -31.743244, 0.0 ] ] } },
{ "type": "Feature", "properties": { "Name": "Circunvalación > Bº 41 Viviendas", "description": "Mapa creado por Paraná Online. Más info: https://www.paranaonline.com.ar/linea-f/", "timestamp": null, "begin": null, "end": null, "altitudeMode": null, "tessellate": 1, "extrude": 0, "visibility": -1, "drawOrder": null, "icon": null }, "geometry": { "type": "LineString", "coordinates": [ [ -60.482594, -31.743244, 0.0 ], [ -60.4825592, -31.7437339, 0.0 ], [ -60.4825727, -31.7441604, 0.0 ], [ -60.4826183, -31.744774, 0.0 ], [ -60.4827014, -31.7457115, 0.0 ], [ -60.482739, -31.7460832, 0.0 ], [ -60.4827497, -31.7463684, 0.0 ], [ -60.4827068, -31.7473423, 0.0 ], [ -60.4826799, -31.7478258, 0.0 ], [ -60.4826558, -31.7480129, 0.0 ], [ -60.4825485, -31.7482227, 0.0 ], [ -60.4821194, -31.7482889, 0.0 ], [ -60.4812155, -31.7484143, 0.0 ], [ -60.4786325, -31.748818, 0.0 ], [ -60.4788068, -31.7495775, 0.0 ], [ -60.4795471, -31.7494795, 0.0 ], [ -60.4796249, -31.7494909, 0.0 ], [ -60.479664, -31.749564, 0.0 ] ] } },
{ "type": "Feature", "properties": { "Name": "Circunvalación > Seminario", "description": "Mapa creado por Paraná Online. Más info: https://www.paranaonline.com.ar/linea-f/", "timestamp": null, "begin": null, "end": null, "altitudeMode": null, "tessellate": 1, "extrude": 0, "visibility": -1, "drawOrder": null, "icon": null }, "geometry": { "type": "LineString", "coordinates": [ [ -60.482594, -31.743244, 0.0 ], [ -60.4819507, -31.7433345, 0.0 ], [ -60.4819788, -31.7427927, 0.0 ], [ -60.4820512, -31.7422613, 0.0 ], [ -60.4822752, -31.7412816, 0.0 ], [ -60.4826252, -31.7404535, 0.0 ], [ -60.4838711, -31.7379033, 0.0 ], [ -60.4838014, -31.7378919, 0.0 ], [ -60.4799363, -31.7384827, 0.0 ], [ -60.4802528, -31.7398833, 0.0 ], [ -60.4806042, -31.7415963, 0.0 ], [ -60.4794213, -31.7418085, 0.0 ] ] } },
{ "type": "Feature", "properties": { "Name": "Bº 41 Viviendas > Circunvalación", "description": "Mapa creado por Paraná Online. Más info: https://www.paranaonline.com.ar/linea-f/", "timestamp": null, "begin": null, "end": null, "altitudeMode": null, "tessellate": 1, "extrude": 0, "visibility": -1, "drawOrder": null, "icon": null }, "geometry": { "type": "LineString", "coordinates": [ [ -60.479664, -31.749564, 0.0 ], [ -60.479647, -31.7496493, 0.0 ], [ -60.4795538, -31.7496836, 0.0 ], [ -60.4787813, -31.7497925, 0.0 ], [ -60.4787485, -31.749553, 0.0 ], [ -60.4786372, -31.7490683, 0.0 ], [ -60.4785748, -31.748786, 0.0 ], [ -60.479816, -31.7485927, 0.0 ], [ -60.4808989, -31.7484222, 0.0 ], [ -60.4815775, -31.7483179, 0.0 ], [ -60.4823963, -31.7481856, 0.0 ], [ -60.482527, -31.7481634, 0.0 ], [ -60.4826035, -31.7479912, 0.0 ], [ -60.4826377, -31.7477836, 0.0 ], [ -60.4826578, -31.7473269, 0.0 ], [ -60.4826967, -31.7466084, 0.0 ], [ -60.482702, -31.7462046, 0.0 ], [ -60.482592, -31.7449954, 0.0 ], [ -60.4825263, -31.744221, 0.0 ], [ -60.4825061, -31.7439063, 0.0 ], [ -60.4825129, -31.7436656, 0.0 ], [ -60.482537, -31.7432608, 0.0 ], [ -60.4825937, -31.7431799, 0.0 ] ] } },
{ "type": "Feature", "properties": { "Name": "Seminario > Circunvalación", "description": "Mapa creado por Paraná Online. Más info: https://www.paranaonline.com.ar/linea-f/", "timestamp": null, "begin": null, "end": null, "altitudeMode": null, "tessellate": 1, "extrude": 0, "visibility": -1, "drawOrder": null, "icon": null }, "geometry": { "type": "LineString", "coordinates": [ [ -60.4794213, -31.7418085, 0.0 ], [ -60.4793557, -31.7416363, 0.0 ], [ -60.478708, -31.7386516, 0.0 ], [ -60.4849012, -31.737689, 0.0 ], [ -60.4848851, -31.7378441, 0.0 ], [ -60.48481, -31.7380175, 0.0 ], [ -60.4846437, -31.738241, 0.0 ], [ -60.4842012, -31.7386471, 0.0 ], [ -60.4840081, -31.7389482, 0.0 ], [ -60.4832329, -31.7403647, 0.0 ], [ -60.4830746, -31.7406567, 0.0 ], [ -60.4828788, -31.7411676, 0.0 ], [ -60.4826991, -31.7418337, 0.0 ], [ -60.4825673, -31.7431409, 0.0 ], [ -60.4825937, -31.7431799, 0.0 ] ] } },
{ "type": "Feature", "properties": { "Name": "Cartel (Seminario)", "description": null, "timestamp": null, "begin": null, "end": null, "altitudeMode": null, "tessellate": 1, "extrude": 0, "visibility": -1, "drawOrder": null, "icon": null }, "geometry": { "type": "LineString", "coordinates": [ [ -60.494004, -31.741423, 0.0 ], [ -60.5006002, -31.7403628, 0.0 ], [ -60.5018448, -31.7400708, 0.0 ], [ -60.5026173, -31.7397788, 0.0 ], [ -60.5063831, -31.7392313, 0.0 ], [ -60.508323, -31.738966, 0.0 ] ] } },
{ "type": "Feature", "properties": { "Name": "Circunvalación > Bajada Grande", "description": "Mapa creado por Paraná Online. Más info: https://www.paranaonline.com.ar/linea-f/", "timestamp": null, "begin": null, "end": null, "altitudeMode": null, "tessellate": 1, "extrude": 0, "visibility": -1, "drawOrder": null, "icon": null }, "geometry": { "type": "LineString", "coordinates": [ [ -60.4825937, -31.7431799, 0.0 ], [ -60.483895, -31.742982, 0.0 ], [ -60.485926, -31.742665, 0.0 ], [ -60.488519, -31.742251, 0.0 ], [ -60.490907, -31.741853, 0.0 ], [ -60.492705, -31.741593, 0.0 ], [ -60.494004, -31.741423, 0.0 ], [ -60.493447, -31.739072, 0.0 ], [ -60.492906, -31.736556, 0.0 ], [ -60.507318, -31.734299, 0.0 ], [ -60.508323, -31.738966, 0.0 ], [ -60.511303, -31.738552, 0.0 ], [ -60.512261, -31.7435, 0.0 ], [ -60.512862, -31.746109, 0.0 ], [ -60.514528, -31.745368, 0.0 ], [ -60.514974, -31.74511, 0.0 ], [ -60.515558, -31.744667, 0.0 ], [ -60.517545, -31.742929, 0.0 ], [ -60.517964, -31.742648, 0.0 ], [ -60.518617, -31.742306, 0.0 ], [ -60.521278, -31.740793, 0.0 ], [ -60.52405, -31.739351, 0.0 ], [ -60.5269, -31.737916, 0.0 ], [ -60.527968, -31.737388, 0.0 ], [ -60.529411, -31.736603, 0.0 ], [ -60.530728, -31.735932, 0.0 ], [ -60.53268, -31.735098, 0.0 ], [ -60.53405, -31.734513, 0.0 ], [ -60.53271, -31.7312, 0.0 ], [ -60.531402, -31.727861, 0.0 ], [ -60.532579, -31.727537, 0.0 ], [ -60.53394, -31.727102, 0.0 ], [ -60.535524, -31.726623, 0.0 ], [ -60.537294, -31.726059, 0.0 ], [ -60.53851, -31.725677, 0.0 ], [ -60.540429, -31.725084, 0.0 ], [ -60.541687, -31.724703, 0.0 ], [ -60.542428, -31.724484, 0.0 ], [ -60.543132, -31.724352, 0.0 ], [ -60.543857, -31.724177, 0.0 ], [ -60.544322, -31.723977, 0.0 ], [ -60.54461, -31.723745, 0.0 ], [ -60.545451, -31.722523, 0.0 ], [ -60.545848, -31.722204, 0.0 ], [ -60.546018, -31.722097, 0.0 ], [ -60.546205, -31.722031, 0.0 ], [ -60.546672, -31.721871, 0.0 ], [ -60.549688, -31.72088, 0.0 ], [ -60.550098, -31.720709, 0.0 ], [ -60.550369, -31.720538, 0.0 ], [ -60.55114, -31.71994, 0.0 ], [ -60.5532311, -31.7183306, 0.0 ], [ -60.5538881, -31.7178493, 0.0 ], [ -60.5539872, -31.7177558, 0.0 ], [ -60.5544157, -31.7173579, 0.0 ], [ -60.5549831, -31.7165753, 0.0 ], [ -60.5560001, -31.7149368, 0.0 ], [ -60.557634, -31.712486, 0.0 ], [ -60.557933, -31.712262, 0.0 ], [ -60.558379, -31.712071, 0.0 ], [ -60.560022, -31.711549, 0.0 ], [ -60.562718, -31.710733, 0.0 ], [ -60.562942, -31.710681, 0.0 ], [ -60.562722, -31.710123, 0.0 ], [ -60.562382, -31.709513, 0.0 ], [ -60.562272, -31.709173, 0.0 ], [ -60.562086, -31.708212, 0.0 ], [ -60.563245, -31.708064, 0.0 ], [ -60.562993, -31.706686, 0.0 ], [ -60.563821, -31.706567, 0.0 ], [ -60.5649459, -31.7065174, 0.0 ], [ -60.565545, -31.70655, 0.0 ], [ -60.56586, -31.706416, 0.0 ] ] } },
{ "type": "Feature", "properties": { "Name": "Desvío Cartel Seminario", "description": "Mapa creado por Paraná Online. Más info: https://www.paranaonline.com.ar/linea-f/", "timestamp": null, "begin": null, "end": null, "altitudeMode": null, "tessellate": 1, "extrude": 0, "visibility": -1, "drawOrder": null, "icon": null }, "geometry": { "type": "LineString", "coordinates": [ [ -60.5538881, -31.7178493, 0.0 ], [ -60.5539766, -31.7178937, 0.0 ], [ -60.5542019, -31.7190163, 0.0 ], [ -60.5542824, -31.7193106, 0.0 ], [ -60.5543226, -31.7194384, 0.0 ], [ -60.5545184, -31.719719, 0.0 ], [ -60.5548724, -31.7201822, 0.0 ], [ -60.5550629, -31.7204628, 0.0 ], [ -60.5553821, -31.7208461, 0.0 ], [ -60.5555993, -31.7211518, 0.0 ], [ -60.557088, -31.7206088, 0.0 ], [ -60.5570458, -31.7207029, 0.0 ], [ -60.5571531, -31.7208854, 0.0 ], [ -60.5571585, -31.7210292, 0.0 ], [ -60.5570452, -31.7211991, 0.0 ], [ -60.5571129, -31.7216429, 0.0 ], [ -60.5570968, -31.7217216, 0.0 ], [ -60.5570592, -31.7217707, 0.0 ], [ -60.5563155, -31.722019, 0.0 ], [ -60.5562444, -31.7219574, 0.0 ], [ -60.5555792, -31.7211965, 0.0 ], [ -60.5553606, -31.7208942, 0.0 ], [ -60.5549824, -31.7204356, 0.0 ], [ -60.5547558, -31.7201036, 0.0 ], [ -60.5544366, -31.7196907, 0.0 ], [ -60.5543494, -31.7195709, 0.0 ], [ -60.5542582, -31.7194066, 0.0 ], [ -60.5541563, -31.7190176, 0.0 ], [ -60.5539431, -31.7179818, 0.0 ], [ -60.5539296, -31.7179076, 0.0 ], [ -60.5539872, -31.7177558, 0.0 ] ] } }
]
}
