{
"type": "FeatureCollection",
"name": "rm_400_viv_c_gobierno",
"crs": { "type": "name", "properties": { "name": "urn:ogc:def:crs:OGC:1.3:CRS84" } },
"features": [
{ "type": "Feature", "properties": { "Name": "ida - 16.7 KM", "description": null, "timestamp": null, "begin": null, "end": null, "altitudeMode": null, "tessellate": 1, "extrude": 0, "visibility": 0, "drawOrder": null, "icon": null }, "geometry": { "type": "LineString", "coordinates": [ [ -60.409880808747459, -31.768798542883498, 0.0 ], [ -60.405658293744303, -31.760089505989171, 0.0 ], [ -60.408610979877309, -31.759559384334221, 0.0 ], [ -60.411725089276082, -31.759123956380769, 0.0 ], [ -60.412700471371402, -31.763961521836819, 0.0 ], [ -60.413711840756157, -31.76903140408773, 0.0 ], [ -60.432590641770489, -31.766117296726691, 0.0 ], [ -60.445848162184852, -31.763929970475299, 0.0 ], [ -60.457209017582237, -31.762189906243091, 0.0 ], [ -60.462972948960513, -31.761311455838388, 0.0 ], [ -60.468620005538327, -31.76042213994365, 0.0 ], [ -60.474302916429863, -31.75954817642463, 0.0 ], [ -60.479990649182866, -31.758677884663271, 0.0 ], [ -60.485673771559348, -31.757821861388919, 0.0 ], [ -60.495404679871413, -31.756318863830241, 0.0 ], [ -60.496941836355582, -31.755313194293251, 0.0 ], [ -60.502243770181082, -31.75170571158921, 0.0 ], [ -60.505434665485062, -31.7495411157138, 0.0 ], [ -60.50743522241401, -31.748626913737109, 0.0 ], [ -60.512834609140199, -31.746051209147652, 0.0 ], [ -60.514382084039013, -31.74534349193658, 0.0 ], [ -60.515010271099982, -31.745039749464379, 0.0 ], [ -60.51599857563928, -31.744280764456722, 0.0 ], [ -60.517518930020287, -31.742880459115881, 0.0 ], [ -60.51806227720251, -31.742668587564111, 0.0 ], [ -60.519513659315152, -31.741835314353249, 0.0 ], [ -60.52119232396899, -31.740828719741248, 0.0 ], [ -60.522610944307687, -31.74008909165477, 0.0 ], [ -60.525366561634293, -31.738608239614582, 0.0 ], [ -60.527865104690193, -31.737384861486309, 0.0 ], [ -60.526887557789159, -31.73582264837799, 0.0 ], [ -60.525672033298797, -31.733664255126211, 0.0 ], [ -60.522029063980789, -31.726554384315609, 0.0 ], [ -60.531085301999219, -31.72391344283621, 0.0 ], [ -60.53153889380301, -31.725020881759718, 0.0 ] ] } },
{ "type": "Feature", "properties": { "Name": "vta - 16.6 KM", "description": null, "timestamp": null, "begin": null, "end": null, "altitudeMode": null, "tessellate": 1, "extrude": 0, "visibility": 0, "drawOrder": null, "icon": null }, "geometry": { "type": "LineString", "coordinates": [ [ -60.531570750574019, -31.72502083593081, 0.0 ], [ -60.53203035352616, -31.726220501465129, 0.0 ], [ -60.532685644359653, -31.727389097416879, 0.0 ], [ -60.534785970347592, -31.73178011916319, 0.0 ], [ -60.533502235283002, -31.732237814305751, 0.0 ], [ -60.53183523163748, -31.73282413934842, 0.0 ], [ -60.528343387756642, -31.734080433508559, 0.0 ], [ -60.52504407040022, -31.73542232959678, 0.0 ], [ -60.526023158982909, -31.736726724185068, 0.0 ], [ -60.526955599253533, -31.738074935484921, 0.0 ], [ -60.527296320960467, -31.738489003722339, 0.0 ], [ -60.527551311274571, -31.738873454303199, 0.0 ], [ -60.527718785438722, -31.739159965155771, 0.0 ], [ -60.52626633647003, -31.73991143228973, 0.0 ], [ -60.524920787281232, -31.740573271311089, 0.0 ], [ -60.523444430747297, -31.741325456047768, 0.0 ], [ -60.521955166363682, -31.742062849694999, 0.0 ], [ -60.520518942715142, -31.742786624978439, 0.0 ], [ -60.518383332902303, -31.74385673803523, 0.0 ], [ -60.515518400424973, -31.745250279479752, 0.0 ], [ -60.513137863290773, -31.746065020135351, 0.0 ], [ -60.507476957536639, -31.74871151731546, 0.0 ], [ -60.5054241849001, -31.749656583788489, 0.0 ], [ -60.502244856822827, -31.75182405988847, 0.0 ], [ -60.495472022024913, -31.75636093000902, 0.0 ], [ -60.491353538768088, -31.75702677209409, 0.0 ], [ -60.479984362669903, -31.758736559433078, 0.0 ], [ -60.474329129748881, -31.759633902943349, 0.0 ], [ -60.468632027601423, -31.76048836075104, 0.0 ], [ -60.462958840375762, -31.761373710917951, 0.0 ], [ -60.457136947768163, -31.762275936174539, 0.0 ], [ -60.451552956760743, -31.76312798677769, 0.0 ], [ -60.445832630544658, -31.763984833534479, 0.0 ], [ -60.442587443027527, -31.764547413312179, 0.0 ], [ -60.434614465703952, -31.765910561437622, 0.0 ], [ -60.432534341610321, -31.766242695828531, 0.0 ], [ -60.42552648395305, -31.767368065159399, 0.0 ], [ -60.416113221028027, -31.768766233064419, 0.0 ], [ -60.415053334773212, -31.763646334851249, 0.0 ], [ -60.412769952670267, -31.763990780472309, 0.0 ], [ -60.411838718797611, -31.759105695992449, 0.0 ], [ -60.407965411948958, -31.759795098770329, 0.0 ], [ -60.405805142025763, -31.76003835220568, 0.0 ], [ -60.409999847654483, -31.769332206941719, 0.0 ] ] } }
]
}
