{
"type": "FeatureCollection",
"name": "rm_c_avellaneda_c_gobierno",
"crs": { "type": "name", "properties": { "name": "urn:ogc:def:crs:OGC:1.3:CRS84" } },
"features": [
{ "type": "Feature", "properties": { "Name": "ida - 18.3 KM", "description": null, "timestamp": null, "begin": null, "end": null, "altitudeMode": null, "tessellate": 1, "extrude": 0, "visibility": 0, "drawOrder": null, "icon": null }, "geometry": { "type": "LineString", "coordinates": [ [ -60.410305793564063, -31.769712149367951, 0.0 ], [ -60.406429149110593, -31.770237652537691, 0.0 ], [ -60.404041339066033, -31.77055929116186, 0.0 ], [ -60.403743200046087, -31.770484858067221, 0.0 ], [ -60.403522238409558, -31.770322487188331, 0.0 ], [ -60.403454825431893, -31.770081478364979, 0.0 ], [ -60.403606326700469, -31.769717680499451, 0.0 ], [ -60.403712416948352, -31.769383490099411, 0.0 ], [ -60.403682084342627, -31.769081665386441, 0.0 ], [ -60.399733102194823, -31.766955392787011, 0.0 ], [ -60.399972237273893, -31.766457526415049, 0.0 ], [ -60.400321179420537, -31.766356183958969, 0.0 ], [ -60.400087434574552, -31.76509208139603, 0.0 ], [ -60.407464780336412, -31.764061488384161, 0.0 ], [ -60.405654598957781, -31.76008295495858, 0.0 ], [ -60.41178191592833, -31.75912287045438, 0.0 ], [ -60.41377732590589, -31.769053342975031, 0.0 ], [ -60.418645134247029, -31.76832182736754, 0.0 ], [ -60.432590641770489, -31.766117296726691, 0.0 ], [ -60.445848162184852, -31.763929970475299, 0.0 ], [ -60.457209017582237, -31.762189906243091, 0.0 ], [ -60.462972948960513, -31.761311455838388, 0.0 ], [ -60.468620005538327, -31.76042213994365, 0.0 ], [ -60.474302916429863, -31.75954817642463, 0.0 ], [ -60.479990649182866, -31.758677884663271, 0.0 ], [ -60.485673771559348, -31.757821861388919, 0.0 ], [ -60.495404679871413, -31.756318863830241, 0.0 ], [ -60.496941836355582, -31.755313194293251, 0.0 ], [ -60.502243770181082, -31.75170571158921, 0.0 ], [ -60.505434665485062, -31.7495411157138, 0.0 ], [ -60.50743522241401, -31.748626913737109, 0.0 ], [ -60.512834609140199, -31.746051209147652, 0.0 ], [ -60.514382084039013, -31.74534349193658, 0.0 ], [ -60.515010271099982, -31.745039749464379, 0.0 ], [ -60.51599857563928, -31.744280764456722, 0.0 ], [ -60.517518930020287, -31.742880459115881, 0.0 ], [ -60.51806227720251, -31.742668587564111, 0.0 ], [ -60.519513659315152, -31.741835314353249, 0.0 ], [ -60.52119232396899, -31.740828719741248, 0.0 ], [ -60.522610944307687, -31.74008909165477, 0.0 ], [ -60.525366561634293, -31.738608239614582, 0.0 ], [ -60.527865104690193, -31.737384861486309, 0.0 ], [ -60.526887557789159, -31.73582264837799, 0.0 ], [ -60.525672033298797, -31.733664255126211, 0.0 ], [ -60.522029063980789, -31.726554384315609, 0.0 ], [ -60.531085301999219, -31.72391344283621, 0.0 ], [ -60.53153889380301, -31.725020881759718, 0.0 ] ] } },
{ "type": "Feature", "properties": { "Name": "vta - 18.1 KM", "description": null, "timestamp": null, "begin": null, "end": null, "altitudeMode": null, "tessellate": 1, "extrude": 0, "visibility": 0, "drawOrder": null, "icon": null }, "geometry": { "type": "LineString", "coordinates": [ [ -60.531570750574019, -31.72502083593081, 0.0 ], [ -60.53203035352616, -31.726220501465129, 0.0 ], [ -60.532685644359653, -31.727389097416879, 0.0 ], [ -60.534785970347592, -31.73178011916319, 0.0 ], [ -60.533502235283002, -31.732237814305751, 0.0 ], [ -60.53183523163748, -31.73282413934842, 0.0 ], [ -60.528343387756642, -31.734080433508559, 0.0 ], [ -60.52504407040022, -31.73542232959678, 0.0 ], [ -60.526023158982909, -31.736726724185068, 0.0 ], [ -60.526955599253533, -31.738074935484921, 0.0 ], [ -60.527296320960467, -31.738489003722339, 0.0 ], [ -60.527551311274571, -31.738873454303199, 0.0 ], [ -60.527718785438722, -31.739159965155771, 0.0 ], [ -60.52626633647003, -31.73991143228973, 0.0 ], [ -60.524920787281232, -31.740573271311089, 0.0 ], [ -60.523444430747297, -31.741325456047768, 0.0 ], [ -60.521955166363682, -31.742062849694999, 0.0 ], [ -60.520518942715142, -31.742786624978439, 0.0 ], [ -60.518383332902303, -31.74385673803523, 0.0 ], [ -60.515518400424973, -31.745250279479752, 0.0 ], [ -60.513137863290773, -31.746065020135351, 0.0 ], [ -60.507476957536639, -31.74871151731546, 0.0 ], [ -60.5054241849001, -31.749656583788489, 0.0 ], [ -60.502244856822827, -31.75182405988847, 0.0 ], [ -60.495472022024913, -31.75636093000902, 0.0 ], [ -60.491353538768088, -31.75702677209409, 0.0 ], [ -60.479984362669903, -31.758736559433078, 0.0 ], [ -60.474329129748881, -31.759633902943349, 0.0 ], [ -60.468632027601423, -31.76048836075104, 0.0 ], [ -60.462958840375762, -31.761373710917951, 0.0 ], [ -60.457136947768163, -31.762275936174539, 0.0 ], [ -60.451552956760743, -31.76312798677769, 0.0 ], [ -60.445832630544658, -31.763984833534479, 0.0 ], [ -60.442587443027527, -31.764547413312179, 0.0 ], [ -60.434543052657823, -31.765833857103232, 0.0 ], [ -60.420226720964969, -31.768214192221389, 0.0 ], [ -60.418207041546417, -31.768475975910679, 0.0 ], [ -60.41613951754924, -31.76877193254743, 0.0 ], [ -60.415034533423331, -31.763617340241829, 0.0 ], [ -60.412706143771921, -31.76399554253053, 0.0 ], [ -60.411825664545127, -31.75916366013011, 0.0 ], [ -60.405595171261879, -31.760082875745439, 0.0 ], [ -60.407498857651852, -31.764032973528561, 0.0 ], [ -60.400106053679231, -31.76511269472779, 0.0 ], [ -60.400378236252948, -31.76634151922995, 0.0 ], [ -60.400114905288802, -31.76641246360062, 0.0 ], [ -60.39994531162327, -31.76661181226094, 0.0 ], [ -60.399746211798863, -31.766898918546161, 0.0 ], [ -60.403713955794721, -31.769015195047022, 0.0 ], [ -60.404720065298243, -31.769473437123391, 0.0 ], [ -60.405810974834623, -31.76982603196943, 0.0 ], [ -60.406684576839723, -31.769972606582229, 0.0 ], [ -60.407534068775817, -31.77000739258153, 0.0 ], [ -60.410237569002867, -31.76961196578393, 0.0 ], [ -60.40985983524407, -31.768746510945501, 0.0 ] ] } }
]
}
