{
"type": "FeatureCollection",
"name": "rm_colonia_avellaneda",
"crs": { "type": "name", "properties": { "name": "urn:ogc:def:crs:OGC:1.3:CRS84" } },
"features": [
{ "type": "Feature", "properties": { "Name": "Ida", "description": null, "timestamp": null, "begin": null, "end": null, "altitudeMode": null, "tessellate": 1, "extrude": 0, "visibility": 0, "drawOrder": null, "icon": null }, "geometry": { "type": "LineString", "coordinates": [ [ -60.412677900000013, -31.763987, 0.0 ], [ -60.411763, -31.759136, 0.0 ], [ -60.4086282, -31.7596018, 0.0 ], [ -60.4055716, -31.7601192, 0.0 ], [ -60.4075408, -31.7640528, 0.0 ], [ -60.4063717, -31.7642699, 0.0 ], [ -60.4039151, -31.7646056, 0.0 ], [ -60.4001473, -31.7651343, 0.0 ], [ -60.4004007, -31.7663622, 0.0 ], [ -60.4001336, -31.7664099, 0.0 ], [ -60.4000194, -31.7664759, 0.0 ], [ -60.3999359, -31.7666056, 0.0 ], [ -60.3997393, -31.7669538, 0.0 ], [ -60.395552, -31.764723, 0.0 ], [ -60.3951254, -31.7646919, 0.0 ], [ -60.3947941, -31.7648143, 0.0 ], [ -60.3940993, -31.7651306, 0.0 ], [ -60.3937096, -31.7652057, 0.0 ], [ -60.3934223, -31.7652033, 0.0 ], [ -60.3932223, -31.7651132, 0.0 ], [ -60.3930223, -31.7649843, 0.0 ], [ -60.3928908, -31.7647454, 0.0 ], [ -60.392864, -31.7645278, 0.0 ], [ -60.3929082, -31.7643341, 0.0 ], [ -60.3930061, -31.7641815, 0.0 ], [ -60.3932158, -31.763933, 0.0 ], [ -60.3935194, -31.763672, 0.0 ], [ -60.3940997, -31.7631626, 0.0 ], [ -60.395357, -31.7620456, 0.0 ], [ -60.3962663, -31.7611971, 0.0 ], [ -60.3972052, -31.7603576, 0.0 ], [ -60.3981642, -31.7595159, 0.0 ], [ -60.3985116, -31.75916, 0.0 ], [ -60.3989139, -31.7586502, 0.0 ], [ -60.3992141, -31.7581761, 0.0 ], [ -60.3994553, -31.7576495, 0.0 ], [ -60.3996829, -31.7570251, 0.0 ], [ -60.3999172, -31.7561499, 0.0 ], [ -60.400187699999989, -31.7552576, 0.0 ], [ -60.40073180000001, -31.7534278, 0.0 ], [ -60.4012679, -31.7515593, 0.0 ], [ -60.4015556, -31.7508577, 0.0 ], [ -60.4018957, -31.7502261, 0.0 ], [ -60.4022934, -31.7496983, 0.0 ], [ -60.4025945, -31.7493603, 0.0 ], [ -60.4031491, -31.748889, 0.0 ], [ -60.4038114, -31.7484304, 0.0 ], [ -60.4042389, -31.7481912, 0.0 ], [ -60.404645, -31.748, 0.0 ], [ -60.4052645, -31.7477763, 0.0 ], [ -60.405884, -31.747589, 0.0 ], [ -60.4080961, -31.7469751, 0.0 ], [ -60.409460900000013, -31.7465883, 0.0 ], [ -60.4115267, -31.7460116, 0.0 ], [ -60.4135415, -31.7454349, 0.0 ], [ -60.415377, -31.7449091, 0.0 ], [ -60.4224472, -31.7428757, 0.0 ], [ -60.4236489, -31.7425349, 0.0 ], [ -60.424129, -31.74242, 0.0 ], [ -60.425316, -31.7422091, 0.0 ], [ -60.426452, -31.7420255, 0.0 ], [ -60.427829, -31.741816, 0.0 ], [ -60.4317184, -31.7412313, 0.0 ], [ -60.4350994, -31.7407067, 0.0 ], [ -60.4388267, -31.7401444, 0.0 ], [ -60.4431254, -31.7394826, 0.0 ], [ -60.4462459, -31.7389981, 0.0 ], [ -60.4475586, -31.7387945, 0.0 ], [ -60.4482062, -31.7387, 0.0 ], [ -60.4488458, -31.7385919, 0.0 ], [ -60.4491054, -31.7385285, 0.0 ], [ -60.4493328, -31.7384582, 0.0 ], [ -60.4498194, -31.7382644, 0.0 ], [ -60.4502281, -31.7380763, 0.0 ], [ -60.450745, -31.737792, 0.0 ], [ -60.4512899, -31.7374313, 0.0 ], [ -60.4520458, -31.736847, 0.0 ], [ -60.4527869, -31.7362843, 0.0 ], [ -60.454326599999987, -31.7351566, 0.0 ], [ -60.4549107, -31.7347486, 0.0 ], [ -60.4557094, -31.7341467, 0.0 ], [ -60.4572094, -31.7330322, 0.0 ], [ -60.4580731, -31.7323977, 0.0 ], [ -60.4585921, -31.7321142, 0.0 ], [ -60.459306, -31.7317982, 0.0 ], [ -60.460035499999989, -31.7315882, 0.0 ], [ -60.4606746, -31.731465, 0.0 ], [ -60.4625167, -31.7311765, 0.0 ], [ -60.4644634, -31.7308853, 0.0 ], [ -60.4663847, -31.7305849, 0.0 ], [ -60.4684816, -31.730262, 0.0 ], [ -60.4711643, -31.7298929, 0.0 ], [ -60.4738792, -31.7295225, 0.0 ], [ -60.4754825, -31.7292943, 0.0 ], [ -60.4768094, -31.7290912, 0.0 ], [ -60.4785277, -31.7286908, 0.0 ], [ -60.4791177, -31.7285361, 0.0 ], [ -60.4795747, -31.7284621, 0.0 ], [ -60.480235, -31.7283875, 0.0 ], [ -60.4807912, -31.7283691, 0.0 ], [ -60.4814358, -31.7283962, 0.0 ], [ -60.4820648, -31.7284867, 0.0 ], [ -60.4826616, -31.7286411, 0.0 ], [ -60.4834372, -31.7288985, 0.0 ], [ -60.4838503, -31.7291031, 0.0 ], [ -60.484271500000013, -31.7293328, 0.0 ], [ -60.484875800000012, -31.7297391, 0.0 ], [ -60.4853324, -31.7301274, 0.0 ], [ -60.485805, -31.730575, 0.0 ], [ -60.4868563, -31.731702, 0.0 ], [ -60.4874231, -31.7322637, 0.0 ], [ -60.4875349, -31.7324145, 0.0 ], [ -60.4881482, -31.7330763, 0.0 ], [ -60.4885214, -31.7334954, 0.0 ], [ -60.4886803, -31.7337412, 0.0 ], [ -60.4887503, -31.7340888, 0.0 ], [ -60.4887197, -31.7343394, 0.0 ], [ -60.4885981, -31.7345396, 0.0 ], [ -60.4883692, -31.7347443, 0.0 ], [ -60.4880734, -31.7348303, 0.0 ], [ -60.4877753, -31.7348288, 0.0 ], [ -60.4874074, -31.7346768, 0.0 ], [ -60.4870806, -31.7344867, 0.0 ], [ -60.4869193, -31.7344343, 0.0 ], [ -60.4866603, -31.734424, 0.0 ], [ -60.48642, -31.734489, 0.0 ], [ -60.4862112, -31.7345823, 0.0 ], [ -60.4860775, -31.7346961, 0.0 ], [ -60.4853971, -31.7355694, 0.0 ], [ -60.4850975, -31.7360292, 0.0 ], [ -60.484627, -31.736931, 0.0 ], [ -60.4846281, -31.7370141, 0.0 ], [ -60.4846051, -31.7371211, 0.0 ], [ -60.4845765, -31.737259, 0.0 ], [ -60.484592500000012, -31.7373693, 0.0 ], [ -60.4846421, -31.7374534, 0.0 ], [ -60.4847346, -31.7375664, 0.0 ], [ -60.485051, -31.737704, 0.0 ], [ -60.4849304, -31.7377233, 0.0 ], [ -60.4848701, -31.7379315, 0.0 ], [ -60.4847482, -31.7381288, 0.0 ], [ -60.4846848, -31.7382093, 0.0 ], [ -60.4844792, -31.7384165, 0.0 ], [ -60.484233, -31.7386431, 0.0 ], [ -60.4840687, -31.7388773, 0.0 ], [ -60.4838756, -31.7392067, 0.0 ], [ -60.48354830000001, -31.7398222, 0.0 ], [ -60.483179, -31.7404827, 0.0 ], [ -60.4831147, -31.7405966, 0.0 ], [ -60.4830879, -31.7406615, 0.0 ], [ -60.4829753, -31.7409571, 0.0 ], [ -60.4828868, -31.7412236, 0.0 ], [ -60.4828044, -31.7415043, 0.0 ], [ -60.4827286, -31.7417794, 0.0 ], [ -60.482653, -31.7424556, 0.0 ], [ -60.482615, -31.7428128, 0.0 ], [ -60.482587, -31.7431871, 0.0 ], [ -60.4853314, -31.742756, 0.0 ], [ -60.4867834, -31.7425296, 0.0 ], [ -60.4880725, -31.7423249, 0.0 ], [ -60.4886999, -31.7422098, 0.0 ], [ -60.4898799, -31.7420126, 0.0 ], [ -60.4911696, -31.7418061, 0.0 ], [ -60.4927758, -31.7415722, 0.0 ], [ -60.4963471, -31.7410376, 0.0 ], [ -60.498298, -31.7407308, 0.0 ], [ -60.500034, -31.7404433, 0.0 ], [ -60.5014301, -31.7401791, 0.0 ], [ -60.5018615, -31.7400567, 0.0 ], [ -60.5023117, -31.739867, 0.0 ], [ -60.5025265, -31.7397788, 0.0 ], [ -60.5039773, -31.739558, 0.0 ], [ -60.505471, -31.7393601, 0.0 ], [ -60.511277, -31.738532, 0.0 ], [ -60.5141248, -31.7381308, 0.0 ], [ -60.516935399999987, -31.7377382, 0.0 ], [ -60.515743, -31.732171, 0.0 ], [ -60.5173329, -31.7317459, 0.0 ], [ -60.518543, -31.731412, 0.0 ], [ -60.520352, -31.730899, 0.0 ], [ -60.523859, -31.7299283, 0.0 ], [ -60.5299603, -31.7282478, 0.0 ], [ -60.531383899999987, -31.7278499, 0.0 ] ] } },
{ "type": "Feature", "properties": { "Name": "Vuelta", "description": null, "timestamp": null, "begin": null, "end": null, "altitudeMode": null, "tessellate": 1, "extrude": 0, "visibility": 0, "drawOrder": null, "icon": null }, "geometry": { "type": "LineString", "coordinates": [ [ -60.531383899999987, -31.7278499, 0.0 ], [ -60.5306656, -31.7258868, 0.0 ], [ -60.5296118, -31.7270955, 0.0 ], [ -60.5257634, -31.728046, 0.0 ], [ -60.5236112, -31.7286056, 0.0 ], [ -60.5217647, -31.7291287, 0.0 ], [ -60.5198519, -31.7295785, 0.0 ], [ -60.5174921, -31.7301987, 0.0 ], [ -60.5155079, -31.730666, 0.0 ], [ -60.5161361, -31.7335414, 0.0 ], [ -60.5170497, -31.7377819, 0.0 ], [ -60.5128554, -31.7383928, 0.0 ], [ -60.5110857, -31.7386249, 0.0 ], [ -60.502568, -31.7398256, 0.0 ], [ -60.5024167, -31.7398949, 0.0 ], [ -60.5018659, -31.7401115, 0.0 ], [ -60.5017187, -31.7401567, 0.0 ], [ -60.5014436, -31.7402294, 0.0 ], [ -60.4998006, -31.7405392, 0.0 ], [ -60.4939652, -31.7414733, 0.0 ], [ -60.4905855, -31.7419587, 0.0 ], [ -60.4846201, -31.7429366, 0.0 ], [ -60.482541, -31.7432448, 0.0 ], [ -60.4825877, -31.7427381, 0.0 ], [ -60.482641, -31.7422668, 0.0 ], [ -60.4826998, -31.7417713, 0.0 ], [ -60.482772100000012, -31.7414907, 0.0 ], [ -60.4828426, -31.7412462, 0.0 ], [ -60.4829265, -31.7409982, 0.0 ], [ -60.4830829, -31.7405867, 0.0 ], [ -60.4833784, -31.7400667, 0.0 ], [ -60.4836573, -31.7395491, 0.0 ], [ -60.4838888, -31.7391106, 0.0 ], [ -60.4840309, -31.7388686, 0.0 ], [ -60.4842011, -31.738626700000012, 0.0 ], [ -60.484323200000013, -31.7385068, 0.0 ], [ -60.4844507, -31.7384017, 0.0 ], [ -60.484659, -31.73819, 0.0 ], [ -60.4847754, -31.7380187, 0.0 ], [ -60.4848367, -31.7379111, 0.0 ], [ -60.484899899999988, -31.7377208, 0.0 ], [ -60.4838739, -31.7378789, 0.0 ], [ -60.4843236, -31.7371467, 0.0 ], [ -60.4847492, -31.736427, 0.0 ], [ -60.4850366, -31.735922200000012, 0.0 ], [ -60.4853481, -31.7354265, 0.0 ], [ -60.4857559, -31.7348932, 0.0 ], [ -60.4861637, -31.7344237, 0.0 ], [ -60.4869293, -31.73369, 0.0 ], [ -60.48708, -31.733397, 0.0 ], [ -60.4871937, -31.7331814, 0.0 ], [ -60.4872605, -31.7326796, 0.0 ], [ -60.487214, -31.7324334, 0.0 ], [ -60.4871059, -31.7322032, 0.0 ], [ -60.4869262, -31.7319433, 0.0 ], [ -60.4867282, -31.7316939, 0.0 ], [ -60.4861142, -31.7310741, 0.0 ], [ -60.4855686, -31.7305228, 0.0 ], [ -60.4851252, -31.7301097, 0.0 ], [ -60.4848079, -31.7298632, 0.0 ], [ -60.4843518, -31.7295368, 0.0 ], [ -60.4839439, -31.7293086, 0.0 ], [ -60.4834904, -31.7290863, 0.0 ], [ -60.482783, -31.7288275, 0.0 ], [ -60.48228730000001, -31.7286923, 0.0 ], [ -60.4817004, -31.7285777, 0.0 ], [ -60.4811928, -31.7285199, 0.0 ], [ -60.4804492, -31.7285042, 0.0 ], [ -60.4799227, -31.7285381, 0.0 ], [ -60.4793183, -31.7286289, 0.0 ], [ -60.4779085, -31.7289414, 0.0 ], [ -60.4766412, -31.7292498, 0.0 ], [ -60.4743597, -31.7296964, 0.0 ], [ -60.4719136, -31.7300526, 0.0 ], [ -60.468302, -31.7305696, 0.0 ], [ -60.4625909, -31.731371, 0.0 ], [ -60.4613498, -31.7315297, 0.0 ], [ -60.4606528, -31.7316296, 0.0 ], [ -60.4601435, -31.7317386, 0.0 ], [ -60.459717, -31.731852, 0.0 ], [ -60.459159, -31.732041, 0.0 ], [ -60.4586843, -31.7322551, 0.0 ], [ -60.4579083, -31.7327028, 0.0 ], [ -60.4570652, -31.7333171, 0.0 ], [ -60.455273700000014, -31.7346515, 0.0 ], [ -60.4545039, -31.7352275, 0.0 ], [ -60.4541298, -31.7355211, 0.0 ], [ -60.4538569, -31.7357638, 0.0 ], [ -60.4535786, -31.7360521, 0.0 ], [ -60.4532655, -31.7364435, 0.0 ], [ -60.45282550000001, -31.7367775, 0.0 ], [ -60.4522366, -31.7370487, 0.0 ], [ -60.4518953, -31.7372172, 0.0 ], [ -60.4514427, -31.7375192, 0.0 ], [ -60.4507729, -31.7379166, 0.0 ], [ -60.4502734, -31.7381638, 0.0 ], [ -60.4494143, -31.7384883, 0.0 ], [ -60.4489136, -31.7386404, 0.0 ], [ -60.4478537, -31.7388114, 0.0 ], [ -60.445700900000013, -31.7391418, 0.0 ], [ -60.440768, -31.7398906, 0.0 ], [ -60.4378947, -31.7403424, 0.0 ], [ -60.4351447, -31.7407577, 0.0 ], [ -60.431387, -31.7413471, 0.0 ], [ -60.4274307, -31.7419317, 0.0 ], [ -60.4257882, -31.742187, 0.0 ], [ -60.4241617, -31.7424742, 0.0 ], [ -60.4221306, -31.7430361, 0.0 ], [ -60.4188111, -31.7439864, 0.0 ], [ -60.4147458, -31.7451693, 0.0 ], [ -60.4120286, -31.7459426, 0.0 ], [ -60.4092819, -31.7467022, 0.0 ], [ -60.4072374, -31.7473015, 0.0 ], [ -60.405970700000012, -31.7476404, 0.0 ], [ -60.4052958, -31.7478467, 0.0 ], [ -60.4047326, -31.7480542, 0.0 ], [ -60.4043805, -31.7481968, 0.0 ], [ -60.4039142, -31.7484523, 0.0 ], [ -60.4036029, -31.7486465, 0.0 ], [ -60.4032086, -31.7489314, 0.0 ], [ -60.4027349, -31.7493307, 0.0 ], [ -60.4023891, -31.7496988, 0.0 ], [ -60.402002, -31.7501991, 0.0 ], [ -60.4018128, -31.7505343, 0.0 ], [ -60.4016377, -31.7508718, 0.0 ], [ -60.4014742, -31.7512674, 0.0 ], [ -60.401335200000013, -31.7515728, 0.0 ], [ -60.405697517994447, -31.760014226044991, 0.0 ], [ -60.407863186412001, -31.764756148744311, 0.0 ], [ -60.412548133323099, -31.764061031145019, 0.0 ] ] } }
]
}
