{
"type": "FeatureCollection",
"name": "rm_esc_alberdi_c_gobierno",
"crs": { "type": "name", "properties": { "name": "urn:ogc:def:crs:OGC:1.3:CRS84" } },
"features": [
{ "type": "Feature", "properties": { "Name": "IDA - 16.0 KM", "description": null, "timestamp": null, "begin": null, "end": null, "altitudeMode": null, "tessellate": 1, "extrude": 0, "visibility": 0, "drawOrder": null, "icon": null }, "geometry": { "type": "LineString", "coordinates": [ [ -60.517693545946052, -31.842734022233849, 0.0 ], [ -60.516434901405788, -31.834744960842819, 0.0 ], [ -60.516778479153849, -31.83377157352707, 0.0 ], [ -60.517695118738253, -31.832927486843371, 0.0 ], [ -60.517733321606457, -31.832895016221681, 0.0 ], [ -60.517947355671367, -31.83190607081783, 0.0 ], [ -60.517989558138041, -31.8312330253931, 0.0 ], [ -60.518038876001363, -31.831132135846239, 0.0 ], [ -60.518261717747919, -31.830805437520869, 0.0 ], [ -60.518366767793509, -31.830801469699399, 0.0 ], [ -60.518687363382043, -31.83094858885498, 0.0 ], [ -60.518712619017023, -31.830999956600611, 0.0 ], [ -60.518883320773561, -31.831287759223379, 0.0 ], [ -60.518873610272777, -31.831339326981649, 0.0 ], [ -60.518963185303598, -31.83140601280763, 0.0 ], [ -60.519235252610642, -31.831657649855138, 0.0 ], [ -60.519252232324277, -31.831657353929369, 0.0 ], [ -60.519523077260047, -31.831890575907931, 0.0 ], [ -60.519621845077097, -31.831974108680601, 0.0 ], [ -60.520070353193589, -31.832190869741709, 0.0 ], [ -60.520255437119133, -31.83232120144039, 0.0 ], [ -60.520671776999762, -31.832578242800722, 0.0 ], [ -60.520754683449532, -31.8326418598765, 0.0 ], [ -60.52111103575848, -31.832784111016181, 0.0 ], [ -60.521264776576828, -31.833005097275802, 0.0 ], [ -60.521206636602713, -31.833494121733079, 0.0 ], [ -60.521439960361477, -31.833775456211331, 0.0 ], [ -60.52160773614326, -31.83386350595244, 0.0 ], [ -60.521857136976102, -31.83375955697861, 0.0 ], [ -60.522060451187102, -31.833547398149939, 0.0 ], [ -60.521358371708693, -31.83314444544791, 0.0 ], [ -60.520229590593132, -31.832434587776529, 0.0 ], [ -60.519316638717292, -31.83199414919924, 0.0 ], [ -60.518476404325881, -31.831849655850061, 0.0 ], [ -60.51841475277056, -31.83181762369847, 0.0 ], [ -60.518127867635073, -31.831420208572531, 0.0 ], [ -60.517935951811211, -31.830322057959261, 0.0 ], [ -60.517350690127202, -31.828607372731959, 0.0 ], [ -60.517044671158907, -31.827404400154709, 0.0 ], [ -60.517350526736983, -31.827209186937321, 0.0 ], [ -60.51643221714037, -31.824014669766608, 0.0 ], [ -60.516049447308561, -31.82404767920141, 0.0 ], [ -60.515091993282923, -31.821352579077981, 0.0 ], [ -60.514785537159817, -31.819761181797091, 0.0 ], [ -60.514368997554072, -31.81046385708278, 0.0 ], [ -60.512461264085474, -31.81059803604381, 0.0 ], [ -60.512084326755172, -31.809145916483381, 0.0 ], [ -60.509031266297058, -31.803108111967578, 0.0 ], [ -60.512439141811249, -31.803862950443669, 0.0 ], [ -60.51416127689302, -31.797234872378791, 0.0 ], [ -60.520985995142723, -31.77451778442429, 0.0 ], [ -60.522165585763609, -31.771601678202821, 0.0 ], [ -60.523713146043953, -31.769731326236101, 0.0 ], [ -60.523264135919682, -31.767707077522481, 0.0 ], [ -60.522580616892462, -31.764489567396289, 0.0 ], [ -60.5189990523237, -31.747458479308101, 0.0 ], [ -60.517922829054307, -31.742732238297361, 0.0 ], [ -60.515808709564148, -31.73217318209182, 0.0 ], [ -60.522413614681547, -31.730292348834929, 0.0 ], [ -60.523774341524998, -31.729867533112579, 0.0 ], [ -60.525510245239523, -31.729379806047771, 0.0 ], [ -60.53002441775736, -31.72815154964789, 0.0 ], [ -60.531370451591627, -31.727751898707488, 0.0 ] ] } },
{ "type": "Feature", "properties": { "Name": "VTA - 15.6 KM", "description": null, "timestamp": null, "begin": null, "end": null, "altitudeMode": null, "tessellate": 1, "extrude": 0, "visibility": 0, "drawOrder": null, "icon": null }, "geometry": { "type": "LineString", "coordinates": [ [ -60.531383468767473, -31.72779545555969, 0.0 ], [ -60.530703054730417, -31.725812279136431, 0.0 ], [ -60.529669517758023, -31.726991923588329, 0.0 ], [ -60.523022789495769, -31.728688315285989, 0.0 ], [ -60.515593413459783, -31.730666212909519, 0.0 ], [ -60.517603712571258, -31.740258719384151, 0.0 ], [ -60.517997763817647, -31.742438770718142, 0.0 ], [ -60.519941996465988, -31.75138558920305, 0.0 ], [ -60.52115527405482, -31.756655851021922, 0.0 ], [ -60.523847322138153, -31.769855694807632, 0.0 ], [ -60.522265433799589, -31.771601858194941, 0.0 ], [ -60.52158882544331, -31.772837103413771, 0.0 ], [ -60.518849496306892, -31.78045386745271, 0.0 ], [ -60.51681136874339, -31.787356186547711, 0.0 ], [ -60.514831972636237, -31.794781781375779, 0.0 ], [ -60.514103252990772, -31.797326371821899, 0.0 ], [ -60.514017019600352, -31.798480226412781, 0.0 ], [ -60.512100254490292, -31.80564561810893, 0.0 ], [ -60.5121992479204, -31.80887918529378, 0.0 ], [ -60.512689183791103, -31.810370928210698, 0.0 ], [ -60.514558050782192, -31.810370615875659, 0.0 ], [ -60.515089271875553, -31.81901888232202, 0.0 ], [ -60.515204232032232, -31.820352349138972, 0.0 ], [ -60.515548867558529, -31.82113257718791, 0.0 ], [ -60.515970167588733, -31.82204260072179, 0.0 ], [ -60.518110700879717, -31.829289879419079, 0.0 ], [ -60.518340417360371, -31.830361395221001, 0.0 ], [ -60.51872293618684, -31.83098023863224, 0.0 ], [ -60.518876066221793, -31.831532477753711, 0.0 ], [ -60.518827463197333, -31.831535339490241, 0.0 ], [ -60.519236585135182, -31.83177625073268, 0.0 ], [ -60.519334777407522, -31.83183899622059, 0.0 ], [ -60.519590452136264, -31.832014110108609, 0.0 ], [ -60.519650878765702, -31.83205222425347, 0.0 ], [ -60.519927121331953, -31.83220350264024, 0.0 ], [ -60.520094611462959, -31.832264937938149, 0.0 ], [ -60.521151050833112, -31.832888943855121, 0.0 ], [ -60.5211937139076, -31.832958701061969, 0.0 ], [ -60.52127609669764, -31.833131613196262, 0.0 ], [ -60.521262889684607, -31.83315453153492, 0.0 ], [ -60.521122379227542, -31.83335705506418, 0.0 ], [ -60.521118996538597, -31.833412912368811, 0.0 ], [ -60.521127823137178, -31.833457511782999, 0.0 ], [ -60.521119833764871, -31.833589891999829, 0.0 ], [ -60.521195037704977, -31.833676390145211, 0.0 ], [ -60.521516112265367, -31.833827635013328, 0.0 ], [ -60.521637335252287, -31.833881103190581, 0.0 ], [ -60.521890955232237, -31.833847418688599, 0.0 ], [ -60.521927307859272, -31.833825225241871, 0.0 ], [ -60.522112031073178, -31.8335714580097, 0.0 ], [ -60.520699989090858, -31.83271197294253, 0.0 ], [ -60.519420231051157, -31.83202958358612, 0.0 ], [ -60.519347324033873, -31.832017352796228, 0.0 ], [ -60.518514064799092, -31.831782897702031, 0.0 ], [ -60.518281923977817, -31.831787340952481, 0.0 ], [ -60.51826460663947, -31.83198183376409, 0.0 ], [ -60.517883033870959, -31.833083148570012, 0.0 ], [ -60.517004766038681, -31.833796616188, 0.0 ], [ -60.516700017276932, -31.834766774722031, 0.0 ], [ -60.51794056423639, -31.842687369375771, 0.0 ] ] } }
]
}
