{
"type": "FeatureCollection",
"name": "rm_inta_c_gobierno",
"crs": { "type": "name", "properties": { "name": "urn:ogc:def:crs:OGC:1.3:CRS84" } },
"features": [
{ "type": "Feature", "properties": { "Name": "IDA - 16.2 KM", "description": null, "timestamp": null, "begin": null, "end": null, "altitudeMode": null, "tessellate": 1, "extrude": 0, "visibility": 0, "drawOrder": null, "icon": null }, "geometry": { "type": "LineString", "coordinates": [ [ -60.541125632924427, -31.844533272767709, 0.0 ], [ -60.518048371673757, -31.831704854721799, 0.0 ], [ -60.517350690127202, -31.828607372731959, 0.0 ], [ -60.517044671158907, -31.827404400154709, 0.0 ], [ -60.517350526736983, -31.827209186937321, 0.0 ], [ -60.51643221714037, -31.824014669766608, 0.0 ], [ -60.516049447308561, -31.82404767920141, 0.0 ], [ -60.515091993282923, -31.821352579077981, 0.0 ], [ -60.514785537159817, -31.819761181797091, 0.0 ], [ -60.514368997554072, -31.81046385708278, 0.0 ], [ -60.512461264085474, -31.81059803604381, 0.0 ], [ -60.512084326755172, -31.809145916483381, 0.0 ], [ -60.509031266297058, -31.803108111967578, 0.0 ], [ -60.512439141811249, -31.803862950443669, 0.0 ], [ -60.51416127689302, -31.797234872378791, 0.0 ], [ -60.520985995142723, -31.77451778442429, 0.0 ], [ -60.522165585763609, -31.771601678202821, 0.0 ], [ -60.523713146043953, -31.769731326236101, 0.0 ], [ -60.523264135919682, -31.767707077522481, 0.0 ], [ -60.522580616892462, -31.764489567396289, 0.0 ], [ -60.5189990523237, -31.747458479308101, 0.0 ], [ -60.517922829054307, -31.742732238297361, 0.0 ], [ -60.515808709564148, -31.73217318209182, 0.0 ], [ -60.522413614681547, -31.730292348834929, 0.0 ], [ -60.523774341524998, -31.729867533112579, 0.0 ], [ -60.525510245239523, -31.729379806047771, 0.0 ], [ -60.53002441775736, -31.72815154964789, 0.0 ], [ -60.531370451591627, -31.727751898707488, 0.0 ] ] } },
{ "type": "Feature", "properties": { "Name": "VTA - 16.0 KM", "description": null, "timestamp": null, "begin": null, "end": null, "altitudeMode": null, "tessellate": 1, "extrude": 0, "visibility": 0, "drawOrder": null, "icon": null }, "geometry": { "type": "LineString", "coordinates": [ [ -60.531383468767473, -31.72779545555969, 0.0 ], [ -60.530703054730417, -31.725812279136431, 0.0 ], [ -60.529669517758023, -31.726991923588329, 0.0 ], [ -60.523022789495769, -31.728688315285989, 0.0 ], [ -60.515593413459783, -31.730666212909519, 0.0 ], [ -60.517603712571258, -31.740258719384151, 0.0 ], [ -60.517997763817647, -31.742438770718142, 0.0 ], [ -60.519941996465988, -31.75138558920305, 0.0 ], [ -60.52115527405482, -31.756655851021922, 0.0 ], [ -60.523847322138153, -31.769855694807632, 0.0 ], [ -60.522265433799589, -31.771601858194941, 0.0 ], [ -60.52158882544331, -31.772837103413771, 0.0 ], [ -60.518849496306892, -31.78045386745271, 0.0 ], [ -60.51681136874339, -31.787356186547711, 0.0 ], [ -60.514831972636237, -31.794781781375779, 0.0 ], [ -60.514103252990772, -31.797326371821899, 0.0 ], [ -60.514017019600352, -31.798480226412781, 0.0 ], [ -60.512100254490292, -31.80564561810893, 0.0 ], [ -60.5121992479204, -31.80887918529378, 0.0 ], [ -60.512689183791103, -31.810370928210698, 0.0 ], [ -60.514558050782192, -31.810370615875659, 0.0 ], [ -60.515089271875553, -31.81901888232202, 0.0 ], [ -60.515204232032232, -31.820352349138972, 0.0 ], [ -60.515548867558529, -31.82113257718791, 0.0 ], [ -60.515970167588733, -31.82204260072179, 0.0 ], [ -60.518110700879717, -31.829289879419079, 0.0 ], [ -60.518340417360371, -31.830361395221001, 0.0 ], [ -60.51872293618684, -31.83098023863224, 0.0 ], [ -60.518841027860688, -31.831168707532061, 0.0 ], [ -60.51931457594533, -31.831687928375189, 0.0 ], [ -60.520186262824623, -31.83234636642279, 0.0 ], [ -60.525129535874058, -31.835208415046822, 0.0 ], [ -60.531543834418528, -31.838909918798059, 0.0 ], [ -60.54148396512516, -31.844717957503988, 0.0 ] ] } }
]
}
