{
"type": "FeatureCollection",
"name": "rm_linea_20",
"crs": { "type": "name", "properties": { "name": "urn:ogc:def:crs:OGC:1.3:CRS84" } },
"features": [
{ "type": "Feature", "properties": { "Name": "IDA - 20.0 KM", "description": null, "timestamp": null, "begin": null, "end": null, "altitudeMode": null, "tessellate": 1, "extrude": 0, "visibility": 0, "drawOrder": null, "icon": null }, "geometry": { "type": "LineString", "coordinates": [ [ -60.436351119137349, -31.780496666318829, 0.0 ], [ -60.441416471559499, -31.77975452949817, 0.0 ], [ -60.442142740497907, -31.783362771425999, 0.0 ], [ -60.440974726587683, -31.78368772731643, 0.0 ], [ -60.441119562003223, -31.784750749028301, 0.0 ], [ -60.459152007787793, -31.781846017869629, 0.0 ], [ -60.460704813844821, -31.779197141699459, 0.0 ], [ -60.461562626996063, -31.77762284479542, 0.0 ], [ -60.462137445262869, -31.77657687930197, 0.0 ], [ -60.466431160822168, -31.77593390960547, 0.0 ], [ -60.477085160164243, -31.774327129415859, 0.0 ], [ -60.483099621720733, -31.773432954562079, 0.0 ], [ -60.479495810826393, -31.756523800077371, 0.0 ], [ -60.479322707248052, -31.756060187798809, 0.0 ], [ -60.479863401076301, -31.75365231292481, 0.0 ], [ -60.480120339396201, -31.75255861449909, 0.0 ], [ -60.48025252863394, -31.75187680704364, 0.0 ], [ -60.480713151303704, -31.751221325242192, 0.0 ], [ -60.480862430652287, -31.751102244529289, 0.0 ], [ -60.48129388798548, -31.75016587216923, 0.0 ], [ -60.481796684982683, -31.749530645992621, 0.0 ], [ -60.481840244220741, -31.749479245340432, 0.0 ], [ -60.482578408535467, -31.74826532893341, 0.0 ], [ -60.482744255234302, -31.746984110887961, 0.0 ], [ -60.482488278226199, -31.744530050446791, 0.0 ], [ -60.482562253419871, -31.743250318388569, 0.0 ], [ -60.482643219637367, -31.741908777297589, 0.0 ], [ -60.482836696700282, -31.741147893921891, 0.0 ], [ -60.48311322649672, -31.740481788259199, 0.0 ], [ -60.483156562409, -31.740389963850419, 0.0 ], [ -60.483769108401432, -31.739381509276129, 0.0 ], [ -60.48378296576913, -31.73937016347125, 0.0 ], [ -60.4842390098297, -31.738634051344651, 0.0 ], [ -60.484579267744827, -31.738234972104792, 0.0 ], [ -60.484797025938349, -31.738039191768561, 0.0 ], [ -60.484949977379181, -31.73772415103134, 0.0 ], [ -60.492971176660461, -31.736566807979809, 0.0 ], [ -60.498779928639607, -31.735667251546172, 0.0 ], [ -60.51589428591906, -31.7329326629857, 0.0 ], [ -60.515744449796308, -31.732133403881608, 0.0 ], [ -60.523747019171019, -31.729942114393911, 0.0 ], [ -60.53147221884668, -31.727834706054558, 0.0 ], [ -60.535577237220608, -31.72656599725174, 0.0 ], [ -60.540387851412412, -31.725065591768921, 0.0 ], [ -60.54169278409055, -31.72464361018206, 0.0 ], [ -60.5437779506574, -31.724151453302571, 0.0 ], [ -60.544293678526252, -31.723982825540709, 0.0 ], [ -60.545047977565609, -31.723183829020119, 0.0 ], [ -60.545524827408151, -31.72241675434395, 0.0 ], [ -60.546171823150807, -31.72202762416973, 0.0 ], [ -60.548656271337002, -31.72123276404503, 0.0 ], [ -60.549970659349, -31.724674081458922, 0.0 ], [ -60.550240797399951, -31.72491918853936, 0.0 ], [ -60.550684538151273, -31.725124125592, 0.0 ], [ -60.552605726921144, -31.728270118313599, 0.0 ], [ -60.546979837509319, -31.730570430167191, 0.0 ], [ -60.545538467829218, -31.732423731349879, 0.0 ], [ -60.54659780486017, -31.73737229500718, 0.0 ], [ -60.546470437271552, -31.7374031646509, 0.0 ], [ -60.548263730303773, -31.74550886452079, 0.0 ], [ -60.543744466938172, -31.746262365020041, 0.0 ], [ -60.543359022829151, -31.745849089464329, 0.0 ], [ -60.541882394609097, -31.746644527817178, 0.0 ], [ -60.541042328993043, -31.747085735108609, 0.0 ] ] } },
{ "type": "Feature", "properties": { "Name": "VTA - 21.1KM", "description": null, "timestamp": null, "begin": null, "end": null, "altitudeMode": null, "tessellate": 1, "extrude": 0, "visibility": 0, "drawOrder": null, "icon": null }, "geometry": { "type": "LineString", "coordinates": [ [ -60.541063062080568, -31.747123906090739, 0.0 ], [ -60.539168947810573, -31.745758100783689, 0.0 ], [ -60.538980621168349, -31.74444866236604, 0.0 ], [ -60.541719518456212, -31.743975489347658, 0.0 ], [ -60.545614128556593, -31.743380617843389, 0.0 ], [ -60.547673260390262, -31.743067405901431, 0.0 ], [ -60.547180215506948, -31.740612175229941, 0.0 ], [ -60.546925504986177, -31.74025955937455, 0.0 ], [ -60.546819783427317, -31.739385373146039, 0.0 ], [ -60.546494230540659, -31.737429089897081, 0.0 ], [ -60.545372230225261, -31.73248148980576, 0.0 ], [ -60.54575369272969, -31.731888610765051, 0.0 ], [ -60.545991460080437, -31.731561308217952, 0.0 ], [ -60.546187418766252, -31.731267521579941, 0.0 ], [ -60.54642724279082, -31.730910657392311, 0.0 ], [ -60.546943922037059, -31.730430474491421, 0.0 ], [ -60.549054311393412, -31.72965016073729, 0.0 ], [ -60.552510189417681, -31.728187596464469, 0.0 ], [ -60.550864173707673, -31.72530025783578, 0.0 ], [ -60.550021008465158, -31.72489113970714, 0.0 ], [ -60.549892594384929, -31.724643623738249, 0.0 ], [ -60.548585405104973, -31.72134187890731, 0.0 ], [ -60.546179065761542, -31.722095071981759, 0.0 ], [ -60.545560028051582, -31.722513169552659, 0.0 ], [ -60.544907684330511, -31.72340403991986, 0.0 ], [ -60.54451315950962, -31.72391684055766, 0.0 ], [ -60.544217361303453, -31.724110524635641, 0.0 ], [ -60.542484581888033, -31.72457121675161, 0.0 ], [ -60.542859590396063, -31.725179472261999, 0.0 ], [ -60.542040820850922, -31.725558722713689, 0.0 ], [ -60.537773243122217, -31.727106189465651, 0.0 ], [ -60.53311553574855, -31.72881101123134, 0.0 ], [ -60.531928743419698, -31.729300837787349, 0.0 ], [ -60.530650773875713, -31.726027455367579, 0.0 ], [ -60.529558764440729, -31.727132477411679, 0.0 ], [ -60.526396589873301, -31.72796655472256, 0.0 ], [ -60.523251116338812, -31.728784826143279, 0.0 ], [ -60.515655789609482, -31.73071606506597, 0.0 ], [ -60.516096220177957, -31.733097274745042, 0.0 ], [ -60.504522904630967, -31.735022616752829, 0.0 ], [ -60.498945450168179, -31.736069322491229, 0.0 ], [ -60.493130235227483, -31.736915444304231, 0.0 ], [ -60.485113700045169, -31.738087097407121, 0.0 ], [ -60.483951218280239, -31.73986195309044, 0.0 ], [ -60.483067785576992, -31.741189109663281, 0.0 ], [ -60.482780043041693, -31.743144395825379, 0.0 ], [ -60.482710044035727, -31.743757978886421, 0.0 ], [ -60.482679210974432, -31.74443359197944, 0.0 ], [ -60.482798586230089, -31.745388207727629, 0.0 ], [ -60.482854345166082, -31.74651564558652, 0.0 ], [ -60.482843607641939, -31.747865650609, 0.0 ], [ -60.482615161687498, -31.748510194540671, 0.0 ], [ -60.481995901291498, -31.749451636210871, 0.0 ], [ -60.481021715449813, -31.75109813243937, 0.0 ], [ -60.480490634810593, -31.751908504200369, 0.0 ], [ -60.479477233651437, -31.756033748697579, 0.0 ], [ -60.479725687418018, -31.756542110403579, 0.0 ], [ -60.482245290923721, -31.768417369494561, 0.0 ], [ -60.483187120960672, -31.77365895051453, 0.0 ], [ -60.46605075063178, -31.776136710137681, 0.0 ], [ -60.461985812744459, -31.776772364832059, 0.0 ], [ -60.45930406942125, -31.7820251134738, 0.0 ], [ -60.439937335570917, -31.785001195881222, 0.0 ], [ -60.43969419486416, -31.78381847613414, 0.0 ], [ -60.442178128228029, -31.783443828814349, 0.0 ], [ -60.441428784010199, -31.779679934664141, 0.0 ], [ -60.436498077608, -31.780468783935788, 0.0 ] ] } }
]
}
