{
"type": "FeatureCollection",
"name": "rm_linea_12",
"crs": { "type": "name", "properties": { "name": "urn:ogc:def:crs:OGC:1.3:CRS84" } },
"features": [
{ "type": "Feature", "properties": { "Name": "IDA 15.6", "description": null, "timestamp": null, "begin": null, "end": null, "altitudeMode": null, "tessellate": 1, "extrude": 0, "visibility": 0, "drawOrder": null, "icon": null }, "geometry": { "type": "LineString", "coordinates": [ [ -60.521158300455738, -31.833428653176071, 0.0 ], [ -60.521442733796839, -31.8337265653891, 0.0 ], [ -60.522005233871532, -31.83406972649593, 0.0 ], [ -60.522419478142929, -31.83416028984459, 0.0 ], [ -60.522921036986581, -31.833911301111549, 0.0 ], [ -60.519137121338602, -31.831674301214179, 0.0 ], [ -60.518680502862431, -31.83167478209673, 0.0 ], [ -60.518193693325898, -31.83156548787375, 0.0 ], [ -60.51813202542278, -31.830788563252121, 0.0 ], [ -60.517489496115488, -31.828608184538929, 0.0 ], [ -60.517683516573427, -31.82860747284305, 0.0 ], [ -60.516253731117388, -31.82416649090516, 0.0 ], [ -60.51537883035634, -31.821518692641789, 0.0 ], [ -60.51470123941759, -31.819444766087191, 0.0 ], [ -60.51453753893832, -31.817696538549612, 0.0 ], [ -60.514610316119622, -31.813695684099631, 0.0 ], [ -60.514454692732059, -31.810557974253101, 0.0 ], [ -60.512321663861648, -31.81062935469431, 0.0 ], [ -60.512146936667989, -31.808837755668328, 0.0 ], [ -60.510022710207792, -31.80493192692639, 0.0 ], [ -60.508088685380237, -31.801284301676709, 0.0 ], [ -60.506205742507532, -31.798113280714489, 0.0 ], [ -60.503788820047369, -31.787419577653051, 0.0 ], [ -60.50298580187048, -31.783985603768048, 0.0 ], [ -60.501853054959959, -31.778635445911771, 0.0 ], [ -60.499209779797269, -31.765812525107489, 0.0 ], [ -60.497896453635093, -31.761034372189471, 0.0 ], [ -60.497122914633778, -31.75634694517629, 0.0 ], [ -60.496896184057611, -31.75526818569163, 0.0 ], [ -60.495122378624863, -31.746126285334739, 0.0 ], [ -60.494686189346453, -31.74406991189683, 0.0 ], [ -60.49303881195145, -31.73651008694041, 0.0 ], [ -60.51594068101096, -31.732873984052969, 0.0 ], [ -60.515762932378443, -31.732130030391019, 0.0 ], [ -60.520444378822248, -31.730844109886689, 0.0 ], [ -60.522358323117693, -31.730329272636801, 0.0 ], [ -60.53131382814346, -31.727806425931519, 0.0 ] ] } },
{ "type": "Feature", "properties": { "Name": "vuelta 15.63", "description": null, "timestamp": null, "begin": null, "end": null, "altitudeMode": null, "tessellate": 1, "extrude": 0, "visibility": 0, "drawOrder": null, "icon": null }, "geometry": { "type": "LineString", "coordinates": [ [ -60.531505117971378, -31.727628231522232, 0.0 ], [ -60.530727125242798, -31.725775467277369, 0.0 ], [ -60.529627250550092, -31.72699554318914, 0.0 ], [ -60.515493667407128, -31.730620601317231, 0.0 ], [ -60.509777990236707, -31.731394587283901, 0.0 ], [ -60.510299610244573, -31.733860665845611, 0.0 ], [ -60.49301296365725, -31.736587833628551, 0.0 ], [ -60.495101068996647, -31.746240253832308, 0.0 ], [ -60.496931064450699, -31.755328917932669, 0.0 ], [ -60.498494587621799, -31.76211806395559, 0.0 ], [ -60.499565148434272, -31.76689137402867, 0.0 ], [ -60.50047526444633, -31.771664311909081, 0.0 ], [ -60.501209242986029, -31.775018646920241, 0.0 ], [ -60.502210946794428, -31.779808193433791, 0.0 ], [ -60.50327626648005, -31.78471242708191, 0.0 ], [ -60.50439874624054, -31.789514055995951, 0.0 ], [ -60.505462027470678, -31.794381682059509, 0.0 ], [ -60.505946378264888, -31.79733922711976, 0.0 ], [ -60.507172963215943, -31.799950662489341, 0.0 ], [ -60.5093234051213, -31.803768111769671, 0.0 ], [ -60.512079834745528, -31.80889566811037, 0.0 ], [ -60.512464978274217, -31.810517581600749, 0.0 ], [ -60.514664216816868, -31.810537895674209, 0.0 ], [ -60.514735965262069, -31.813851887410738, 0.0 ], [ -60.514691247870857, -31.814922842125199, 0.0 ], [ -60.514696015120187, -31.816294832631389, 0.0 ], [ -60.51489235148874, -31.818743831534331, 0.0 ], [ -60.515130010036657, -31.819975357725689, 0.0 ], [ -60.515159631839843, -31.82012620936791, 0.0 ], [ -60.515603225825103, -31.821128848189261, 0.0 ], [ -60.515938374075908, -31.8216317751614, 0.0 ], [ -60.516077641846877, -31.822615461976159, 0.0 ], [ -60.516452691674957, -31.824096772978269, 0.0 ], [ -60.517790825570003, -31.828520387100891, 0.0 ], [ -60.518160972420503, -31.829872118169732, 0.0 ], [ -60.518332555292957, -31.830300486530039, 0.0 ], [ -60.5183468763978, -31.83069464983507, 0.0 ], [ -60.518850853394071, -31.831183300641381, 0.0 ], [ -60.519587134672747, -31.83182721911615, 0.0 ], [ -60.520746270834621, -31.8324539322394, 0.0 ], [ -60.521366620059183, -31.83273948649828, 0.0 ], [ -60.521169490362951, -31.833273430162478, 0.0 ] ] } }
]
}
