{
"type": "FeatureCollection",
"name": "rm_linea_4",
"crs": { "type": "name", "properties": { "name": "urn:ogc:def:crs:OGC:1.3:CRS84" } },
"features": [
{ "type": "Feature", "properties": { "Name": "IDA - 16.3 KM", "description": null, "timestamp": null, "begin": null, "end": null, "altitudeMode": null, "tessellate": 1, "extrude": 0, "visibility": 0, "drawOrder": null, "icon": null }, "geometry": { "type": "LineString", "coordinates": [ [ -60.436487649777462, -31.780409488586528, 0.0 ], [ -60.441453584492322, -31.779622367491761, 0.0 ], [ -60.4421660659156, -31.783466845538111, 0.0 ], [ -60.441031948305067, -31.783677320247861, 0.0 ], [ -60.441125762586623, -31.784680263849459, 0.0 ], [ -60.436601362474221, -31.785542023629461, 0.0 ], [ -60.437787444628697, -31.79039811126361, 0.0 ], [ -60.442352302524981, -31.78962688250482, 0.0 ], [ -60.443557039224928, -31.789491476575709, 0.0 ], [ -60.4447765077458, -31.789236443922871, 0.0 ], [ -60.443755117445981, -31.784348380851711, 0.0 ], [ -60.457206148401802, -31.782274139928401, 0.0 ], [ -60.458178979879953, -31.782074852017921, 0.0 ], [ -60.458761790541303, -31.781943888260269, 0.0 ], [ -60.458789812423269, -31.781929145817969, 0.0 ], [ -60.4589950589681, -31.781826157391482, 0.0 ], [ -60.459040818136998, -31.78182745787419, 0.0 ], [ -60.459387323293583, -31.78186109669026, 0.0 ], [ -60.459900542869072, -31.78182163186786, 0.0 ], [ -60.484064466174118, -31.778146105481369, 0.0 ], [ -60.501237453557252, -31.775592224461459, 0.0 ], [ -60.4968728891767, -31.75528003646685, 0.0 ], [ -60.504969715275799, -31.749974468990981, 0.0 ], [ -60.51493199598675, -31.745040743840999, 0.0 ], [ -60.51797752095186, -31.742523320839471, 0.0 ], [ -60.526753494931242, -31.737811440215712, 0.0 ], [ -60.530611660734976, -31.735871717463802, 0.0 ], [ -60.53171409912396, -31.735429195113358, 0.0 ], [ -60.532802218095689, -31.735000335185809, 0.0 ], [ -60.53409570622415, -31.73449051573985, 0.0 ], [ -60.532741072538627, -31.731273628867989, 0.0 ], [ -60.53139281660463, -31.727827589414879, 0.0 ], [ -60.53144612282054, -31.72776221834577, 0.0 ], [ -60.53264621212179, -31.72753761894112, 0.0 ] ] } },
{ "type": "Feature", "properties": { "Name": "Vta - 16.3 km", "description": null, "timestamp": null, "begin": null, "end": null, "altitudeMode": null, "tessellate": 1, "extrude": 0, "visibility": 0, "drawOrder": null, "icon": null }, "geometry": { "type": "LineString", "coordinates": [ [ -60.532666239305719, -31.727699664466289, 0.0 ], [ -60.533207644342561, -31.728774891701349, 0.0 ], [ -60.534689400555848, -31.731745445271152, 0.0 ], [ -60.53179220034275, -31.732850714812319, 0.0 ], [ -60.529474350699722, -31.73364164006221, 0.0 ], [ -60.527857064155469, -31.734277811268171, 0.0 ], [ -60.52631344333539, -31.734894703008379, 0.0 ], [ -60.52436253413903, -31.735761735911019, 0.0 ], [ -60.519303721209589, -31.740613684479829, 0.0 ], [ -60.518787024054411, -31.74119254408626, 0.0 ], [ -60.518012793959343, -31.742458512387369, 0.0 ], [ -60.518381927641137, -31.743881796350099, 0.0 ], [ -60.515552981788261, -31.74524199355022, 0.0 ], [ -60.512863299293912, -31.746173522814981, 0.0 ], [ -60.510054234190349, -31.74751949298744, 0.0 ], [ -60.507138970624879, -31.748858313418641, 0.0 ], [ -60.50534497576615, -31.74969050171519, 0.0 ], [ -60.496985355926711, -31.755339434653081, 0.0 ], [ -60.49798702245063, -31.760180677257122, 0.0 ], [ -60.4989124727419, -31.764571525707591, 0.0 ], [ -60.499803472906507, -31.768665556441292, 0.0 ], [ -60.50072623003927, -31.772999919600831, 0.0 ], [ -60.501276292016122, -31.77561631046105, 0.0 ], [ -60.460425812303498, -31.7817787108931, 0.0 ], [ -60.459767096836771, -31.781918113028269, 0.0 ], [ -60.459399175116729, -31.781908942407579, 0.0 ], [ -60.459353030367467, -31.7819078238911, 0.0 ], [ -60.459103672570677, -31.781901786811488, 0.0 ], [ -60.459066842921636, -31.781900864952661, 0.0 ], [ -60.45883526415939, -31.781918561287242, 0.0 ], [ -60.458825369217713, -31.781933933609949, 0.0 ], [ -60.458653738170327, -31.78205471824084, 0.0 ], [ -60.458616090966991, -31.782069432891401, 0.0 ], [ -60.458187391080493, -31.78212945330398, 0.0 ], [ -60.457665476509618, -31.7822415316658, 0.0 ], [ -60.447330796459582, -31.783829202561019, 0.0 ], [ -60.443708287318181, -31.784377821668421, 0.0 ], [ -60.444711353629877, -31.78919674119447, 0.0 ], [ -60.443292276222223, -31.789413178693401, 0.0 ], [ -60.442290978138132, -31.78957080595595, 0.0 ], [ -60.437752602708613, -31.79021299255837, 0.0 ], [ -60.436646042541348, -31.78551738317098, 0.0 ], [ -60.440008680558023, -31.785036492981149, 0.0 ], [ -60.439733855649131, -31.783819584697241, 0.0 ], [ -60.440974820277667, -31.783575132144541, 0.0 ], [ -60.442218498607183, -31.783433042016121, 0.0 ], [ -60.441969255593087, -31.782379539009, 0.0 ], [ -60.441426942644839, -31.779723514989751, 0.0 ], [ -60.436476455915759, -31.780472066766968, 0.0 ] ] } }
]
}
