{
"type": "FeatureCollection",
"name": "rm_linea_17_am",
"crs": { "type": "name", "properties": { "name": "urn:ogc:def:crs:OGC:1.3:CRS84" } },
"features": [
{ "type": "Feature", "properties": { "Name": "IDA 19.4", "description": null, "timestamp": null, "begin": null, "end": null, "altitudeMode": null, "tessellate": 1, "extrude": 0, "visibility": 0, "drawOrder": null, "icon": null }, "geometry": { "type": "LineString", "coordinates": [ [ -60.40928789976018, -31.75944023444767, 0.0 ], [ -60.405510370481778, -31.76010711267487, 0.0 ], [ -60.407868897733302, -31.7648116413156, 0.0 ], [ -60.412869343261313, -31.764039051801252, 0.0 ], [ -60.415053221023797, -31.76365862464187, 0.0 ], [ -60.416102047999203, -31.76876229994398, 0.0 ], [ -60.432599225688158, -31.766160790319041, 0.0 ], [ -60.435626121812597, -31.780568349840401, 0.0 ], [ -60.436608021410038, -31.78539230996719, 0.0 ], [ -60.443709601831799, -31.784311050512201, 0.0 ], [ -60.455636850218241, -31.782503718083191, 0.0 ], [ -60.458482849521083, -31.78206215486474, 0.0 ], [ -60.458887970827817, -31.781851418569271, 0.0 ], [ -60.459075554344317, -31.781848545505412, 0.0 ], [ -60.459823378583408, -31.781847319341029, 0.0 ], [ -60.463750282652477, -31.78121736024524, 0.0 ], [ -60.472696913698591, -31.779855621298871, 0.0 ], [ -60.478369292773898, -31.77896640775802, 0.0 ], [ -60.484114317365943, -31.778103222889829, 0.0 ], [ -60.489772584946472, -31.777265951530161, 0.0 ], [ -60.495491945250123, -31.77639381663673, 0.0 ], [ -60.50127504812599, -31.77556761348346, 0.0 ], [ -60.502394747026067, -31.78090780654264, 0.0 ], [ -60.50486174289064, -31.79244091638666, 0.0 ], [ -60.505844308666838, -31.79729423674565, 0.0 ], [ -60.512123279024451, -31.808919725318731, 0.0 ], [ -60.512183905743321, -31.80910688299133, 0.0 ], [ -60.512276849749057, -31.809323579061179, 0.0 ], [ -60.512418297519837, -31.810566609000229, 0.0 ], [ -60.51457795795492, -31.810489570085711, 0.0 ], [ -60.514638614797619, -31.812882048523669, 0.0 ], [ -60.514732734844529, -31.816116237328419, 0.0 ], [ -60.514797161473282, -31.81818741382704, 0.0 ], [ -60.514788069607427, -31.818667215147698, 0.0 ], [ -60.514907142298512, -31.819446673411459, 0.0 ], [ -60.515310595480081, -31.821196035915872, 0.0 ], [ -60.515348114574927, -31.821407566114821, 0.0 ], [ -60.515436422557833, -31.82161261274279, 0.0 ], [ -60.516085449457478, -31.824100455433062, 0.0 ], [ -60.516378455351671, -31.82405701060998, 0.0 ], [ -60.517031960954597, -31.82621160430104, 0.0 ], [ -60.517664342046849, -31.8285108678905, 0.0 ], [ -60.517435634306402, -31.82856065411282, 0.0 ], [ -60.517820988393503, -31.83010327424072, 0.0 ], [ -60.517937650819192, -31.830664407720281, 0.0 ], [ -60.517917757778832, -31.83080712219969, 0.0 ], [ -60.517993609995777, -31.83102579114588, 0.0 ], [ -60.517985119732202, -31.831210410879279, 0.0 ], [ -60.51825438135522, -31.831704559297151, 0.0 ], [ -60.518990681430232, -31.83187449164592, 0.0 ], [ -60.51993328630499, -31.8322961977319, 0.0 ], [ -60.52148488596422, -31.833142923162601, 0.0 ], [ -60.521899187906477, -31.833525865058171, 0.0 ], [ -60.52185551733038, -31.833742496203239, 0.0 ], [ -60.521498568996762, -31.83382316395241, 0.0 ], [ -60.521163584328143, -31.8337118789951, 0.0 ], [ -60.521011395214607, -31.833513892559651, 0.0 ], [ -60.521059331329432, -31.833313373510531, 0.0 ] ] } },
{ "type": "Feature", "properties": { "Name": "VUELTA 19.1", "description": null, "timestamp": null, "begin": null, "end": null, "altitudeMode": null, "tessellate": 1, "extrude": 0, "visibility": 0, "drawOrder": null, "icon": null }, "geometry": { "type": "LineString", "coordinates": [ [ -60.521085622627091, -31.833441509581579, 0.0 ], [ -60.521172067924468, -31.832920876137759, 0.0 ], [ -60.51991349081824, -31.83232685397412, 0.0 ], [ -60.519097271692367, -31.831647420822321, 0.0 ], [ -60.518503376272349, -31.830874636534482, 0.0 ], [ -60.518116845370201, -31.83007815630495, 0.0 ], [ -60.517806690675997, -31.829366313732201, 0.0 ], [ -60.517665047691693, -31.828534469064412, 0.0 ], [ -60.516321038767693, -31.824063667000189, 0.0 ], [ -60.515716934235023, -31.821774427594129, 0.0 ], [ -60.515501842054043, -31.821441555829981, 0.0 ], [ -60.515354386800809, -31.821306518509051, 0.0 ], [ -60.515127017095352, -31.820594523204129, 0.0 ], [ -60.514953498781907, -31.820014872376571, 0.0 ], [ -60.5147968443341, -31.819342921286371, 0.0 ], [ -60.51472441227704, -31.81886853073625, 0.0 ], [ -60.514730595166277, -31.817700759806691, 0.0 ], [ -60.514500433439913, -31.810527135347161, 0.0 ], [ -60.512295929543413, -31.810618341541019, 0.0 ], [ -60.512150819679093, -31.809248471070301, 0.0 ], [ -60.511621283344617, -31.808195149868819, 0.0 ], [ -60.508829297899688, -31.803055025668989, 0.0 ], [ -60.506100466460282, -31.798110928038859, 0.0 ], [ -60.505796584757313, -31.79741124163959, 0.0 ], [ -60.505702551100953, -31.797103906897881, 0.0 ], [ -60.505258447057642, -31.794941879219369, 0.0 ], [ -60.504290669539387, -31.79008069910148, 0.0 ], [ -60.501219962857228, -31.775595042746719, 0.0 ], [ -60.495476334421511, -31.776443137699928, 0.0 ], [ -60.490870286965901, -31.77711991900162, 0.0 ], [ -60.472657391193643, -31.779896223711422, 0.0 ], [ -60.462865072881442, -31.781397513308939, 0.0 ], [ -60.459802212765851, -31.781898669283009, 0.0 ], [ -60.459559750162938, -31.781891823893169, 0.0 ], [ -60.45908727992834, -31.78187945825584, 0.0 ], [ -60.458517490371783, -31.782094865529459, 0.0 ], [ -60.443661426187482, -31.78439778946602, 0.0 ], [ -60.436541075107542, -31.785476970674669, 0.0 ], [ -60.435523307435894, -31.780566158590482, 0.0 ], [ -60.434513221156521, -31.775773679902748, 0.0 ], [ -60.43254703392067, -31.76627214321519, 0.0 ], [ -60.418526167940009, -31.768389290874399, 0.0 ], [ -60.41606748656173, -31.76876676297001, 0.0 ], [ -60.41381134727154, -31.769131294472221, 0.0 ], [ -60.412724310263087, -31.764031502737851, 0.0 ], [ -60.40792176349369, -31.76479852794877, 0.0 ], [ -60.405681701088703, -31.760113241984111, 0.0 ], [ -60.407210188389712, -31.759861714663831, 0.0 ], [ -60.409344768825797, -31.75946433594267, 0.0 ] ] } }
]
}
