{
"type": "FeatureCollection",
"name": "rm_linea_24_villa_fontana",
"crs": { "type": "name", "properties": { "name": "urn:ogc:def:crs:OGC:1.3:CRS84" } },
"features": [
{ "type": "Feature", "properties": { "Name": "IDA- 23.3", "description": null, "timestamp": null, "begin": null, "end": null, "altitudeMode": null, "tessellate": 1, "extrude": 0, "visibility": 0, "drawOrder": null, "icon": null }, "geometry": { "type": "LineString", "coordinates": [ [ -60.472745707203629, -31.905747104250359, 0.0 ], [ -60.477619737037102, -31.90370548134549, 0.0 ], [ -60.478418513057072, -31.903339235916899, 0.0 ], [ -60.480791862678743, -31.90118982773032, 0.0 ], [ -60.485121651843912, -31.892120344919451, 0.0 ], [ -60.485451392363167, -31.88988097407724, 0.0 ], [ -60.4859483278019, -31.88931804972686, 0.0 ], [ -60.48677202307924, -31.886896084020169, 0.0 ], [ -60.487348115602487, -31.881079796446251, 0.0 ], [ -60.489539096986377, -31.876363814042829, 0.0 ], [ -60.493764708212822, -31.872156508834561, 0.0 ], [ -60.500643207963158, -31.867238861410119, 0.0 ], [ -60.501079373147363, -31.866890416699668, 0.0 ], [ -60.503014735976052, -31.864515749658921, 0.0 ], [ -60.503898943769329, -31.863069898944349, 0.0 ], [ -60.504753841873779, -31.862266763108899, 0.0 ], [ -60.507630748712643, -31.85984321744802, 0.0 ], [ -60.507979421194563, -31.85930994670754, 0.0 ], [ -60.508126922828602, -31.84904819884531, 0.0 ], [ -60.508446754044229, -31.841806190793118, 0.0 ], [ -60.509174080178958, -31.83709474421784, 0.0 ], [ -60.511392585788983, -31.832509616367709, 0.0 ], [ -60.512431234233922, -31.826071837295679, 0.0 ], [ -60.513011532954494, -31.821548154290461, 0.0 ], [ -60.513242602593877, -31.819192132461328, 0.0 ], [ -60.512542651625573, -31.812164890227631, 0.0 ], [ -60.512107344613462, -31.808895402788419, 0.0 ], [ -60.506221932830229, -31.798106439589379, 0.0 ], [ -60.50572259335781, -31.797010430095341, 0.0 ], [ -60.505252137814082, -31.79435818530099, 0.0 ], [ -60.502098227616138, -31.779683816677611, 0.0 ], [ -60.500089634530653, -31.770179569692289, 0.0 ], [ -60.496931594994287, -31.755374194706238, 0.0 ], [ -60.502248513110409, -31.75167812157747, 0.0 ], [ -60.505529555272162, -31.749564152948231, 0.0 ], [ -60.507447836515119, -31.748624325598559, 0.0 ], [ -60.512960827324903, -31.746008754920581, 0.0 ], [ -60.515546391579882, -31.744697691919988, 0.0 ], [ -60.517554633549587, -31.742907154255239, 0.0 ], [ -60.518545246633927, -31.742448218343512, 0.0 ], [ -60.5210900944694, -31.740872296960379, 0.0 ], [ -60.523139142802997, -31.739888159825352, 0.0 ], [ -60.526581884816608, -31.738126702844148, 0.0 ], [ -60.530779346573198, -31.735935877123129, 0.0 ], [ -60.532883655265557, -31.73501862626933, 0.0 ], [ -60.534087320105023, -31.734492094566271, 0.0 ], [ -60.531386374785022, -31.72785670092717, 0.0 ], [ -60.53261350056011, -31.72751386315764, 0.0 ] ] } },
{ "type": "Feature", "properties": { "Name": "VTA-23.5", "description": null, "timestamp": null, "begin": null, "end": null, "altitudeMode": null, "tessellate": 1, "extrude": 0, "visibility": 0, "drawOrder": null, "icon": null }, "geometry": { "type": "LineString", "coordinates": [ [ -60.532607124041093, -31.72751950011579, 0.0 ], [ -60.534746677228263, -31.73175425326956, 0.0 ], [ -60.53052509655133, -31.73336446001937, 0.0 ], [ -60.526397782707342, -31.7349316841009, 0.0 ], [ -60.525080836747357, -31.73542111534357, 0.0 ], [ -60.524459060521991, -31.7356660527218, 0.0 ], [ -60.522771660644651, -31.73743041677735, 0.0 ], [ -60.52043217757862, -31.739696210911191, 0.0 ], [ -60.51891464627429, -31.74113873191925, 0.0 ], [ -60.518185717864178, -31.742353725910181, 0.0 ], [ -60.518051588668328, -31.74253660930389, 0.0 ], [ -60.515249668828638, -31.743108938879399, 0.0 ], [ -60.512380768996678, -31.743544237944899, 0.0 ], [ -60.512960789504341, -31.746176628616752, 0.0 ], [ -60.508460415353312, -31.74823849382005, 0.0 ], [ -60.50554117991117, -31.749637234799341, 0.0 ], [ -60.501181601250309, -31.752552599424071, 0.0 ], [ -60.497008544895223, -31.755414975469382, 0.0 ], [ -60.49854407298475, -31.76256444639883, 0.0 ], [ -60.49937810224565, -31.766371964290169, 0.0 ], [ -60.500109615356919, -31.769923273741139, 0.0 ], [ -60.500902568327753, -31.77371606149023, 0.0 ], [ -60.501615114910422, -31.777080039149141, 0.0 ], [ -60.502254672170757, -31.780087652186278, 0.0 ], [ -60.502766961511377, -31.782492243084238, 0.0 ], [ -60.503246480964513, -31.78471155641903, 0.0 ], [ -60.504074305403563, -31.78861016838443, 0.0 ], [ -60.504953920404319, -31.79279685239646, 0.0 ], [ -60.505779318480059, -31.79674324396462, 0.0 ], [ -60.505816240334212, -31.79701560403895, 0.0 ], [ -60.50603274347079, -31.797630221243239, 0.0 ], [ -60.508903778077503, -31.803063428164201, 0.0 ], [ -60.512130399372353, -31.80883716159299, 0.0 ], [ -60.512668692304722, -31.813158200953652, 0.0 ], [ -60.513038411549253, -31.816900208970932, 0.0 ], [ -60.513194785559669, -31.819188141151159, 0.0 ], [ -60.512712663986107, -31.824211567106229, 0.0 ], [ -60.512043697798447, -31.829899541089912, 0.0 ], [ -60.511797120782788, -31.831535028393422, 0.0 ], [ -60.511276675149198, -31.832834214167541, 0.0 ], [ -60.509379594639107, -31.836841890834549, 0.0 ], [ -60.509390156782402, -31.836879805859329, 0.0 ], [ -60.509244288602417, -31.837326766349779, 0.0 ], [ -60.509244391799442, -31.837340045288709, 0.0 ], [ -60.508459279186241, -31.84117305972692, 0.0 ], [ -60.508340856930772, -31.842105756461368, 0.0 ], [ -60.508274224147478, -31.844010361794581, 0.0 ], [ -60.508250494538871, -31.850291011948741, 0.0 ], [ -60.508325740811152, -31.854385283648, 0.0 ], [ -60.508330121563233, -31.85548384866804, 0.0 ], [ -60.508191943797222, -31.856596561039279, 0.0 ], [ -60.508105869943293, -31.859224831670719, 0.0 ], [ -60.50703503228025, -31.860338082340579, 0.0 ], [ -60.50395620405758, -31.862914530752288, 0.0 ], [ -60.503790888608599, -31.863108214513272, 0.0 ], [ -60.503579867909252, -31.86344320131241, 0.0 ], [ -60.503453901593858, -31.86377968806497, 0.0 ], [ -60.503246989976127, -31.864408563407839, 0.0 ], [ -60.503160579293528, -31.864681692901971, 0.0 ], [ -60.502897367933379, -31.865140706007971, 0.0 ], [ -60.502892809665013, -31.865155326312799, 0.0 ], [ -60.502872857695991, -31.865184011231069, 0.0 ], [ -60.502154413438127, -31.86602959553154, 0.0 ], [ -60.501585104126519, -31.866526515167859, 0.0 ], [ -60.501317449610688, -31.86670809768863, 0.0 ], [ -60.500927736301847, -31.866900276985959, 0.0 ], [ -60.50071210043027, -31.867061993327798, 0.0 ], [ -60.500696556137562, -31.86708241455565, 0.0 ], [ -60.500637694918119, -31.867219947527708, 0.0 ], [ -60.500638852239987, -31.867245178161671, 0.0 ], [ -60.500200720271749, -31.86755808479959, 0.0 ], [ -60.49386336563115, -31.87215365061807, 0.0 ], [ -60.49205507687865, -31.873452931540701, 0.0 ], [ -60.491528386654259, -31.873831546483601, 0.0 ], [ -60.491101109177258, -31.874224214340689, 0.0 ], [ -60.490798054976132, -31.874572790465031, 0.0 ], [ -60.490389859518658, -31.875047913989579, 0.0 ], [ -60.489964134661143, -31.875700089526148, 0.0 ], [ -60.489500058912789, -31.87650278489722, 0.0 ], [ -60.488794827074841, -31.877739003168749, 0.0 ], [ -60.488059249506598, -31.879124441065969, 0.0 ], [ -60.487549318888867, -31.88024584006487, 0.0 ], [ -60.487411379876193, -31.880638773046218, 0.0 ], [ -60.48733587538171, -31.880844690560231, 0.0 ], [ -60.487300197691923, -31.881156315234861, 0.0 ], [ -60.486758742050696, -31.886866283368811, 0.0 ], [ -60.486479504254852, -31.887690079274009, 0.0 ], [ -60.485912169489893, -31.889310580646669, 0.0 ], [ -60.485670475707863, -31.889530498303358, 0.0 ], [ -60.48552946700346, -31.889698985161012, 0.0 ], [ -60.485487657187463, -31.88980018653271, 0.0 ], [ -60.485431450041681, -31.89067792882431, 0.0 ], [ -60.485369893101172, -31.891445082318022, 0.0 ], [ -60.485366176080483, -31.891474155193048, 0.0 ], [ -60.485271613634048, -31.89191924126251, 0.0 ], [ -60.484983287528202, -31.892508376124621, 0.0 ], [ -60.48303679043623, -31.896485514072939, 0.0 ], [ -60.481942407694753, -31.898696828352598, 0.0 ], [ -60.481795787643392, -31.89902792759948, 0.0 ], [ -60.481542905528372, -31.89958025157701, 0.0 ], [ -60.480962421858798, -31.900910192133299, 0.0 ], [ -60.480795824129508, -31.901165707553581, 0.0 ], [ -60.480344235903999, -31.90164450469684, 0.0 ], [ -60.479228361918679, -31.902671531277122, 0.0 ], [ -60.478708877349902, -31.903159556827742, 0.0 ], [ -60.478144723194951, -31.90351123814537, 0.0 ], [ -60.477059501830347, -31.90398993268078, 0.0 ], [ -60.472762087643289, -31.90576882927261, 0.0 ] ] } }
]
}
