{
"type": "FeatureCollection",
"name": "rm_linea_6",
"crs": { "type": "name", "properties": { "name": "urn:ogc:def:crs:OGC:1.3:CRS84" } },
"features": [
{ "type": "Feature", "properties": { "Name": "IDA - 15.4 KM", "description": null, "timestamp": null, "begin": null, "end": null, "altitudeMode": null, "tessellate": 1, "extrude": 0, "visibility": 0, "drawOrder": null, "icon": null }, "geometry": { "type": "LineString", "coordinates": [ [ -60.520983774505687, -31.833408502870569, 0.0 ], [ -60.521365835471499, -31.83392758514157, 0.0 ], [ -60.521825645730928, -31.834123375257182, 0.0 ], [ -60.522173216794201, -31.833672171224169, 0.0 ], [ -60.521942896384679, -31.833541456570089, 0.0 ], [ -60.519568676705568, -31.83201220002389, 0.0 ], [ -60.518725583504832, -31.831880126426331, 0.0 ], [ -60.51857187838511, -31.83187913487037, 0.0 ], [ -60.518494983859611, -31.831878565078242, 0.0 ], [ -60.518149138574771, -31.83177875030583, 0.0 ], [ -60.518187736333523, -31.831292536264741, 0.0 ], [ -60.517958668688649, -31.831033249473389, 0.0 ], [ -60.517940748300397, -31.830176651667259, 0.0 ], [ -60.517636236378721, -31.82909379849179, 0.0 ], [ -60.517490600204702, -31.828556613796479, 0.0 ], [ -60.517724747295397, -31.828477516241868, 0.0 ], [ -60.517401111450972, -31.827336887139701, 0.0 ], [ -60.521273857446403, -31.826351557813311, 0.0 ], [ -60.520304640848813, -31.823696005996741, 0.0 ], [ -60.516530794239053, -31.824561478988219, 0.0 ], [ -60.516382809169933, -31.824125140922021, 0.0 ], [ -60.516262674982038, -31.824047312641991, 0.0 ], [ -60.515452671752072, -31.82137936504488, 0.0 ], [ -60.515112330267051, -31.820237805328119, 0.0 ], [ -60.514965126990241, -31.819660041679999, 0.0 ], [ -60.514809771853947, -31.818722069984851, 0.0 ], [ -60.51451880571954, -31.81052135906469, 0.0 ], [ -60.512469958012893, -31.8106960678546, 0.0 ], [ -60.512124604032067, -31.808979172691199, 0.0 ], [ -60.508765011145613, -31.80304544890512, 0.0 ], [ -60.512463926443871, -31.803837614611179, 0.0 ], [ -60.513826824920109, -31.798249085628932, 0.0 ], [ -60.514231269056502, -31.796363674411069, 0.0 ], [ -60.518001696404127, -31.782403930404811, 0.0 ], [ -60.521765980044677, -31.772311325905282, 0.0 ], [ -60.522605939263322, -31.771123971124631, 0.0 ], [ -60.52347406739274, -31.770113688174469, 0.0 ], [ -60.52444645387358, -31.769133361293331, 0.0 ], [ -60.525386345078218, -31.767953746451269, 0.0 ], [ -60.526741623082479, -31.766727412335769, 0.0 ], [ -60.52736296078178, -31.765717780061991, 0.0 ], [ -60.528473285255878, -31.76383710250359, 0.0 ], [ -60.525889150795059, -31.752113257434409, 0.0 ], [ -60.524772119184931, -31.746547899355232, 0.0 ], [ -60.521626113787981, -31.743867235335241, 0.0 ], [ -60.519505303628961, -31.74185652928151, 0.0 ], [ -60.525296704884809, -31.738637620928859, 0.0 ], [ -60.527912208658982, -31.73737995061915, 0.0 ], [ -60.527149013598141, -31.736149939671229, 0.0 ], [ -60.52627697118745, -31.73489482369256, 0.0 ], [ -60.52375744775609, -31.729916037896761, 0.0 ], [ -60.528694290565589, -31.728652873686141, 0.0 ], [ -60.532529196139457, -31.72753133466124, 0.0 ] ] } },
{ "type": "Feature", "properties": { "Name": "VTA - 13.4 KM", "description": null, "timestamp": null, "begin": null, "end": null, "altitudeMode": null, "tessellate": 1, "extrude": 0, "visibility": 0, "drawOrder": null, "icon": null }, "geometry": { "type": "LineString", "coordinates": [ [ -60.53257349335329, -31.72753599039936, 0.0 ], [ -60.534666219035259, -31.731763653956889, 0.0 ], [ -60.525042532955453, -31.735407440788489, 0.0 ], [ -60.527664280273399, -31.739099274159418, 0.0 ], [ -60.525014013113989, -31.74061037308887, 0.0 ], [ -60.526492972316653, -31.742728732034561, 0.0 ], [ -60.52396599850438, -31.74488376674925, 0.0 ], [ -60.524933109469387, -31.745888462334172, 0.0 ], [ -60.524881099948132, -31.746664647986119, 0.0 ], [ -60.528404455557272, -31.76381278548439, 0.0 ], [ -60.52683007025351, -31.76678758175575, 0.0 ], [ -60.522699007665167, -31.771238734346571, 0.0 ], [ -60.522013608720748, -31.77225248884475, 0.0 ], [ -60.521480534561107, -31.773528936947869, 0.0 ], [ -60.518072016751532, -31.783040844645619, 0.0 ], [ -60.514243292572317, -31.796919522055841, 0.0 ], [ -60.513443114010087, -31.800939830496119, 0.0 ], [ -60.512072972030978, -31.804986633883399, 0.0 ], [ -60.512111315538341, -31.808262766296131, 0.0 ], [ -60.512646042876099, -31.810476716029001, 0.0 ], [ -60.514633138957443, -31.810512267538471, 0.0 ], [ -60.515103613666412, -31.819943266297798, 0.0 ], [ -60.51537182001664, -31.821374330834558, 0.0 ], [ -60.515831059346361, -31.821634413104391, 0.0 ], [ -60.518395003682343, -31.830223300451799, 0.0 ], [ -60.518931394488128, -31.831166498848962, 0.0 ], [ -60.520232102674463, -31.832173609304721, 0.0 ], [ -60.521188114692222, -31.832790345479619, 0.0 ], [ -60.521034831857968, -31.833309445615001, 0.0 ] ] } }
]
}
