{
"type": "FeatureCollection",
"name": "rm_sauce_montrull",
"crs": { "type": "name", "properties": { "name": "urn:ogc:def:crs:OGC:1.3:CRS84" } },
"features": [
{ "type": "Feature", "properties": { "Name": "IDA - 27.3 KM", "description": null, "timestamp": null, "begin": null, "end": null, "altitudeMode": null, "tessellate": 1, "extrude": 0, "visibility": 0, "drawOrder": null, "icon": null }, "geometry": { "type": "LineString", "coordinates": [ [ -60.357360379789718, -31.745122757658471, 0.0 ], [ -60.36247896336063, -31.74744640749423, 0.0 ], [ -60.377127142290242, -31.75478340859727, 0.0 ], [ -60.39131546759954, -31.762362422165861, 0.0 ], [ -60.399833963389987, -31.766888747042451, 0.0 ], [ -60.4000409020977, -31.766357724234489, 0.0 ], [ -60.40049838030594, -31.766357892444891, 0.0 ], [ -60.399998178171721, -31.765048622072371, 0.0 ], [ -60.40752087486235, -31.76396397915007, 0.0 ], [ -60.408087448057458, -31.764667861557381, 0.0 ], [ -60.412757765250333, -31.763985166403909, 0.0 ], [ -60.411769397819839, -31.75912292347153, 0.0 ], [ -60.405681774421403, -31.760117760503981, 0.0 ], [ -60.407443539807737, -31.764145813362489, 0.0 ], [ -60.400251046890787, -31.765139405017809, 0.0 ], [ -60.400686287002493, -31.766399345746269, 0.0 ], [ -60.40014128076276, -31.766566631510251, 0.0 ], [ -60.39983562583609, -31.767068197808321, 0.0 ], [ -60.395437033914213, -31.764802613113581, 0.0 ], [ -60.39455111251538, -31.764963195256222, 0.0 ], [ -60.394094888440407, -31.765165864963279, 0.0 ], [ -60.393465562763893, -31.765238378797068, 0.0 ], [ -60.392986842048543, -31.76496091923007, 0.0 ], [ -60.392922246406741, -31.76458199933208, 0.0 ], [ -60.392996375203857, -31.764252976798439, 0.0 ], [ -60.394762506305653, -31.762648698822058, 0.0 ], [ -60.395863507786238, -31.761606916299229, 0.0 ], [ -60.396955099732388, -31.76066040570359, 0.0 ], [ -60.398701524723627, -31.759015132241569, 0.0 ], [ -60.399249731345407, -31.758313925689649, 0.0 ], [ -60.399750507665061, -31.757159747397811, 0.0 ], [ -60.401667361088968, -31.750554760660691, 0.0 ], [ -60.401826537488787, -31.750374349579531, 0.0 ], [ -60.40223280087794, -31.74980406066258, 0.0 ], [ -60.402560221247171, -31.749444354139751, 0.0 ], [ -60.403049384809023, -31.749017940553919, 0.0 ], [ -60.403541232207921, -31.74863137858841, 0.0 ], [ -60.403644731923258, -31.748610794911201, 0.0 ], [ -60.404149813451731, -31.748247242914431, 0.0 ], [ -60.40421364639532, -31.748226394118131, 0.0 ], [ -60.404266520186638, -31.748227793372369, 0.0 ], [ -60.405060406799187, -31.747870785369059, 0.0 ], [ -60.405953406077053, -31.747569369485159, 0.0 ], [ -60.409427648346522, -31.746581482442661, 0.0 ], [ -60.412953026653739, -31.745632752369499, 0.0 ], [ -60.414949121128011, -31.745016934174259, 0.0 ], [ -60.415664082070357, -31.7447777894251, 0.0 ], [ -60.422093560070692, -31.742939835712161, 0.0 ], [ -60.423903955289703, -31.742475201456269, 0.0 ], [ -60.424254445636777, -31.742361149273869, 0.0 ], [ -60.426018575463807, -31.742072855764391, 0.0 ], [ -60.427746924287469, -31.74184596168482, 0.0 ], [ -60.430280499864978, -31.741466157832068, 0.0 ], [ -60.432731720190297, -31.74110093197099, 0.0 ], [ -60.435053467003932, -31.74073461054936, 0.0 ], [ -60.440788835368387, -31.739856292356482, 0.0 ], [ -60.443028921063117, -31.739494553115229, 0.0 ], [ -60.446516310255461, -31.738970420791581, 0.0 ], [ -60.448579142850079, -31.738640010194931, 0.0 ], [ -60.44909885273055, -31.73851323407607, 0.0 ], [ -60.450105075201158, -31.73814925184621, 0.0 ], [ -60.450939381413342, -31.737679671517188, 0.0 ], [ -60.452027691079977, -31.736872347212159, 0.0 ], [ -60.453072792274916, -31.736109195448339, 0.0 ], [ -60.453905797621744, -31.73547483882929, 0.0 ], [ -60.454800867251357, -31.734810161230641, 0.0 ], [ -60.456956938228537, -31.733226302237782, 0.0 ], [ -60.457614169774907, -31.732744426701998, 0.0 ], [ -60.458229339920692, -31.732341188180769, 0.0 ], [ -60.458935810480597, -31.731960606190491, 0.0 ], [ -60.459473754211977, -31.731767632319311, 0.0 ], [ -60.460340352519871, -31.731513847700128, 0.0 ], [ -60.460350990301983, -31.731502440016548, 0.0 ], [ -60.461740360487653, -31.731316319322229, 0.0 ], [ -60.466650212982721, -31.73055829486422, 0.0 ], [ -60.468532569917869, -31.730303218114638, 0.0 ], [ -60.471447909338913, -31.729877259992289, 0.0 ], [ -60.473076690467693, -31.729659174721998, 0.0 ], [ -60.473833722950182, -31.729542026654489, 0.0 ], [ -60.475522203879898, -31.72929703390319, 0.0 ], [ -60.476947053129308, -31.729084528516061, 0.0 ], [ -60.478046707141857, -31.728828387675868, 0.0 ], [ -60.479265612344904, -31.728513474918788, 0.0 ], [ -60.479297748689348, -31.72851294194497, 0.0 ], [ -60.479651426968402, -31.728436652096612, 0.0 ], [ -60.480620613536523, -31.72839102422299, 0.0 ], [ -60.481201277027388, -31.728421171650378, 0.0 ], [ -60.48187575656334, -31.728460458936549, 0.0 ], [ -60.482624584916707, -31.728669975854949, 0.0 ], [ -60.483172828708341, -31.728795788556219, 0.0 ], [ -60.484002162324799, -31.729187980219759, 0.0 ], [ -60.484738133529099, -31.72961122559196, 0.0 ], [ -60.485415441722829, -31.730196611072909, 0.0 ], [ -60.48670526072646, -31.731558284442709, 0.0 ], [ -60.487059235200263, -31.731774356606021, 0.0 ], [ -60.488533466608892, -31.73347992465931, 0.0 ], [ -60.488638700055247, -31.73440166155957, 0.0 ], [ -60.488125219721759, -31.734752577569392, 0.0 ], [ -60.487559647127881, -31.734752813442569, 0.0 ], [ -60.487044689671343, -31.734446197115108, 0.0 ], [ -60.48637601686108, -31.73435880335493, 0.0 ], [ -60.484479182568897, -31.737378778520409, 0.0 ], [ -60.484839658782533, -31.737553728924521, 0.0 ], [ -60.484944596486308, -31.73803487077652, 0.0 ], [ -60.484179695936668, -31.738778232780799, 0.0 ], [ -60.483415607913408, -31.739913365797999, 0.0 ], [ -60.482956132336092, -31.74074229218018, 0.0 ], [ -60.482908138997132, -31.741701428628549, 0.0 ], [ -60.482707890454463, -31.743139047880881, 0.0 ], [ -60.494042234191348, -31.741313410764551, 0.0 ], [ -60.49980741360951, -31.740437221556611, 0.0 ], [ -60.501613457766517, -31.740174524927841, 0.0 ], [ -60.502178624851361, -31.739867722234209, 0.0 ], [ -60.516807678428258, -31.73776369580893, 0.0 ], [ -60.515700312780503, -31.732208307691049, 0.0 ], [ -60.531280213307923, -31.727872794466101, 0.0 ] ] } },
{ "type": "Feature", "properties": { "Name": "VTA - 24.7 KM", "description": null, "timestamp": null, "begin": null, "end": null, "altitudeMode": null, "tessellate": 1, "extrude": 0, "visibility": 0, "drawOrder": null, "icon": null }, "geometry": { "type": "LineString", "coordinates": [ [ -60.531384799998023, -31.727609925440809, 0.0 ], [ -60.530770400005203, -31.726165992068101, 0.0 ], [ -60.530512737947859, -31.725947536615958, 0.0 ], [ -60.529596935741608, -31.727093243704559, 0.0 ], [ -60.526406798326839, -31.72783239341161, 0.0 ], [ -60.515350864211648, -31.73072035427251, 0.0 ], [ -60.516832420602221, -31.737716475348279, 0.0 ], [ -60.505475127314433, -31.739254856932899, 0.0 ], [ -60.502540657749897, -31.739743154588719, 0.0 ], [ -60.501458832124548, -31.740314129565991, 0.0 ], [ -60.482559832432109, -31.743208087361239, 0.0 ], [ -60.482394749287032, -31.74186058854978, 0.0 ], [ -60.483710123698408, -31.739291641844879, 0.0 ], [ -60.484868986186299, -31.737986624013711, 0.0 ], [ -60.48379641342904, -31.73794169408275, 0.0 ], [ -60.485419055172173, -31.735234699677601, 0.0 ], [ -60.486285844860227, -31.7341415205013, 0.0 ], [ -60.486844764525067, -31.733572758382149, 0.0 ], [ -60.487250565005183, -31.73282850727178, 0.0 ], [ -60.487317323927847, -31.732284287770419, 0.0 ], [ -60.486643352468633, -31.731643434817439, 0.0 ], [ -60.485681059907918, -31.730617152628611, 0.0 ], [ -60.48490459847455, -31.729910469884629, 0.0 ], [ -60.484393166315172, -31.729504923658268, 0.0 ], [ -60.48383250848542, -31.729235670509631, 0.0 ], [ -60.48321705494412, -31.72891947039443, 0.0 ], [ -60.48250836103783, -31.728724618622039, 0.0 ], [ -60.481787110900541, -31.728546288191559, 0.0 ], [ -60.48110852538764, -31.728450692208671, 0.0 ], [ -60.480543418769457, -31.728454882996861, 0.0 ], [ -60.479635096675018, -31.728518476770709, 0.0 ], [ -60.478775229049013, -31.728724460831781, 0.0 ], [ -60.477226090642759, -31.729126578742591, 0.0 ], [ -60.476146067198528, -31.729286582681169, 0.0 ], [ -60.474519033813372, -31.729513562896908, 0.0 ], [ -60.472464504869528, -31.729807704066669, 0.0 ], [ -60.470985597082709, -31.730040734259479, 0.0 ], [ -60.469021554844261, -31.730452848188719, 0.0 ], [ -60.464589110623372, -31.731079688278019, 0.0 ], [ -60.462625299720301, -31.731378812729439, 0.0 ], [ -60.46055229970456, -31.73165524547851, 0.0 ], [ -60.459723349177942, -31.731851557914869, 0.0 ], [ -60.459028037419671, -31.732080700991499, 0.0 ], [ -60.458472186208724, -31.73238526244506, 0.0 ], [ -60.457694768171621, -31.732847996258691, 0.0 ], [ -60.457067641705819, -31.733320342657059, 0.0 ], [ -60.454141143770173, -31.735560343680959, 0.0 ], [ -60.453582121780677, -31.736078002078148, 0.0 ], [ -60.453301245895098, -31.73642622422809, 0.0 ], [ -60.45327538658421, -31.736455079369222, 0.0 ], [ -60.452969692458112, -31.736731038779979, 0.0 ], [ -60.452497066820662, -31.736963753268459, 0.0 ], [ -60.451652159687157, -31.737402338387302, 0.0 ], [ -60.450981377566727, -31.7378419764716, 0.0 ], [ -60.450288238426083, -31.738166145519429, 0.0 ], [ -60.44962816944301, -31.73844415549561, 0.0 ], [ -60.448471027857082, -31.738728211694589, 0.0 ], [ -60.44566927728961, -31.739156439975961, 0.0 ], [ -60.442298074826098, -31.739671657168369, 0.0 ], [ -60.439197292787263, -31.740176568050209, 0.0 ], [ -60.435094295860623, -31.740814864848421, 0.0 ], [ -60.42927652318329, -31.741676590084271, 0.0 ], [ -60.424832946520581, -31.742368048453539, 0.0 ], [ -60.423995414365521, -31.742512405316528, 0.0 ], [ -60.422906160775518, -31.74281980921964, 0.0 ], [ -60.420374602015599, -31.743534743130208, 0.0 ], [ -60.416700094160838, -31.744606219238641, 0.0 ], [ -60.414827572232092, -31.745153708795641, 0.0 ], [ -60.411354808375172, -31.746157910139779, 0.0 ], [ -60.409433371512563, -31.746683278339109, 0.0 ], [ -60.40630391788487, -31.747542802987422, 0.0 ], [ -60.405629359525818, -31.747738639967331, 0.0 ], [ -60.405146232839819, -31.747906657078239, 0.0 ], [ -60.40463614025564, -31.74812611951036, 0.0 ], [ -60.404201993940482, -31.748316038186079, 0.0 ], [ -60.403995302229042, -31.748454180256878, 0.0 ], [ -60.403618227820729, -31.748675610449499, 0.0 ], [ -60.403295982348737, -31.748915904637641, 0.0 ], [ -60.402861761985072, -31.74924742836286, 0.0 ], [ -60.402425054981123, -31.749654864908852, 0.0 ], [ -60.402064358255728, -31.750109547730069, 0.0 ], [ -60.40184004052265, -31.750452786105821, 0.0 ], [ -60.401586733653161, -31.75092964483402, 0.0 ], [ -60.401523978646132, -31.751190078284111, 0.0 ], [ -60.401440140817392, -31.75141257165566, 0.0 ], [ -60.404418371196712, -31.758151538755168, 0.0 ], [ -60.405550397070151, -31.760087336476602, 0.0 ], [ -60.411797612665758, -31.75903889414322, 0.0 ], [ -60.41278562989163, -31.764014662970371, 0.0 ], [ -60.408058906682882, -31.764854678511959, 0.0 ], [ -60.407560455088692, -31.76403504538985, 0.0 ], [ -60.400157275513159, -31.765196362336251, 0.0 ], [ -60.400569865935331, -31.76632106567752, 0.0 ], [ -60.400167975522898, -31.766426026125838, 0.0 ], [ -60.399656073441093, -31.76694639659744, 0.0 ], [ -60.398233118301853, -31.766269004238769, 0.0 ], [ -60.394440988732597, -31.764147089239842, 0.0 ], [ -60.393693673829439, -31.763671533939061, 0.0 ], [ -60.390156219312388, -31.761830827386682, 0.0 ], [ -60.38747828266461, -31.76040485690293, 0.0 ], [ -60.384117853403261, -31.758630150042091, 0.0 ], [ -60.379675548367359, -31.756182460355259, 0.0 ], [ -60.367792869797029, -31.750160903051182, 0.0 ], [ -60.366217017339117, -31.749408948850849, 0.0 ], [ -60.364759008552959, -31.74872402339377, 0.0 ], [ -60.361747339841742, -31.74726733105507, 0.0 ], [ -60.361544243072132, -31.74721979611007, 0.0 ], [ -60.360904959542452, -31.747116039550601, 0.0 ], [ -60.357860274599567, -31.746397209305162, 0.0 ], [ -60.357708573127901, -31.745811217229541, 0.0 ], [ -60.357419885824527, -31.745173333692609, 0.0 ] ] } }
]
}
