{
"type": "FeatureCollection",
"name": "rm_san_benito",
"crs": { "type": "name", "properties": { "name": "urn:ogc:def:crs:OGC:1.3:CRS84" } },
"features": [
{ "type": "Feature", "properties": { "Name": "ida 16.2", "description": null, "timestamp": null, "begin": null, "end": null, "altitudeMode": null, "tessellate": 1, "extrude": 0, "visibility": 0, "drawOrder": null, "icon": null }, "geometry": { "type": "LineString", "coordinates": [ [ -60.436418804593352, -31.780452468423299, 0.0 ], [ -60.441457719994062, -31.77966658140803, 0.0 ], [ -60.442185998143358, -31.783401400042781, 0.0 ], [ -60.440850233322728, -31.783544537602172, 0.0 ], [ -60.441204209917117, -31.784705195120399, 0.0 ], [ -60.43663069870545, -31.785418488503929, 0.0 ], [ -60.432563850376873, -31.766327949353009, 0.0 ], [ -60.457411369599129, -31.762152609001379, 0.0 ], [ -60.477944955635841, -31.75897685204378, 0.0 ], [ -60.495197870702057, -31.756414940666328, 0.0 ], [ -60.502290879817608, -31.75163761761214, 0.0 ], [ -60.504790926208742, -31.74965079182093, 0.0 ], [ -60.507495998925812, -31.748803087186339, 0.0 ], [ -60.514976763593943, -31.744869796622272, 0.0 ], [ -60.517714442964753, -31.742595663342279, 0.0 ], [ -60.521073311333659, -31.740847564390432, 0.0 ], [ -60.526846409824401, -31.737870852237759, 0.0 ], [ -60.52791624705668, -31.7373642654597, 0.0 ], [ -60.526390865700172, -31.73486526900264, 0.0 ], [ -60.525398842048673, -31.73313110172375, 0.0 ], [ -60.522064340443357, -31.726558100731118, 0.0 ], [ -60.527201409096143, -31.725024365309579, 0.0 ], [ -60.53105695973111, -31.72390509944211, 0.0 ], [ -60.532576706505992, -31.727483569669499, 0.0 ] ] } },
{ "type": "Feature", "properties": { "Name": "vta 15.3 km", "description": null, "timestamp": null, "begin": null, "end": null, "altitudeMode": null, "tessellate": 1, "extrude": 0, "visibility": 0, "drawOrder": null, "icon": null }, "geometry": { "type": "LineString", "coordinates": [ [ -60.532577852143689, -31.727574792936139, 0.0 ], [ -60.53318877317453, -31.72876918877822, 0.0 ], [ -60.533734240465272, -31.729844899187551, 0.0 ], [ -60.534186730039039, -31.730710951713149, 0.0 ], [ -60.53467489451964, -31.731727833579338, 0.0 ], [ -60.531864089305159, -31.732826040758429, 0.0 ], [ -60.529552013634309, -31.73364097019752, 0.0 ], [ -60.527892737521391, -31.734270171155369, 0.0 ], [ -60.525081862445703, -31.735395304923639, 0.0 ], [ -60.526008115287063, -31.73667751581586, 0.0 ], [ -60.526842023289433, -31.737866703359661, 0.0 ], [ -60.527705819841763, -31.7391644044035, 0.0 ], [ -60.524904222832632, -31.740546228928959, 0.0 ], [ -60.523462886731778, -31.741324966124271, 0.0 ], [ -60.521998602138773, -31.742084708634302, 0.0 ], [ -60.518330468088848, -31.743860974675759, 0.0 ], [ -60.5155371687962, -31.74526501667026, 0.0 ], [ -60.512953582243391, -31.74616071973297, 0.0 ], [ -60.507499963422411, -31.748874878768088, 0.0 ], [ -60.505457933980651, -31.749710391213529, 0.0 ], [ -60.50235954119222, -31.751860846999239, 0.0 ], [ -60.497007795320023, -31.755413043038772, 0.0 ], [ -60.495262422939987, -31.756509511232171, 0.0 ], [ -60.48868026070965, -31.757503012434938, 0.0 ], [ -60.478487246724221, -31.75897511541962, 0.0 ], [ -60.463106289971059, -31.76139374266614, 0.0 ], [ -60.451681043188529, -31.763238244467761, 0.0 ], [ -60.432672106387322, -31.766375932123349, 0.0 ], [ -60.436703301737673, -31.785295422054141, 0.0 ], [ -60.440556610923672, -31.784696832772038, 0.0 ], [ -60.440289713683967, -31.783605278540382, 0.0 ], [ -60.44208338897058, -31.78332569644445, 0.0 ], [ -60.44137639106787, -31.779785765973649, 0.0 ], [ -60.436457306339861, -31.780532084126481, 0.0 ] ] } }
]
}
