{
"type": "FeatureCollection",
"name": "areas_interes_dec_1035_95",
"crs": { "type": "name", "properties": { "name": "urn:ogc:def:crs:OGC:1.3:CRS84" } },
"features": [
{ "type": "Feature", "properties": { "id": 1, "ogc_fid": 1, "pm": 80588.0, "seccion": null, "grupo": null, "manzana": null, "parcela": null, "ubipar": null, "sup_total": 22411.0, "area_a_pre": "Estacion del Ferrocarril" }, "geometry": { "type": "MultiPolygon", "coordinates": [ [ [ [ -60.52905253383971, -31.746314519593678 ], [ -60.528990676519527, -31.74639761033125 ], [ -60.528947835994295, -31.746385883889513 ], [ -60.528938196086081, -31.746383245441397 ], [ -60.528390933340596, -31.747129605401962 ], [ -60.528161899574123, -31.747441946865802 ], [ -60.52811995353585, -31.74749916614434 ], [ -60.528264316576909, -31.747573426619269 ], [ -60.528273290831542, -31.747578042974318 ], [ -60.528276974954714, -31.747579938086318 ], [ -60.528302999767725, -31.747593325238189 ], [ -60.528316330723776, -31.747600182672276 ], [ -60.52833300182732, -31.747608758272431 ], [ -60.52815935681862, -31.747847924385098 ], [ -60.528129354729217, -31.747889244746172 ], [ -60.527976435042007, -31.748103993087117 ], [ -60.527989986197923, -31.748111440238844 ], [ -60.52795804764132, -31.7481500269921 ], [ -60.527606218573929, -31.748640217882976 ], [ -60.527437140339437, -31.748872059193349 ], [ -60.527335892034444, -31.749010901515209 ], [ -60.527501131762868, -31.749097840238861 ], [ -60.527516840070923, -31.749105999980046 ], [ -60.527530495270092, -31.749077797053904 ], [ -60.527564317892676, -31.749092203685343 ], [ -60.527878433850766, -31.749225980201484 ], [ -60.527914920616666, -31.749174207780282 ], [ -60.527957749187038, -31.749114806569978 ], [ -60.528513417056807, -31.748344271507211 ], [ -60.528527618824405, -31.748347332964883 ], [ -60.528675236098749, -31.748143112400513 ], [ -60.528743852736575, -31.748045771780138 ], [ -60.529193689212427, -31.747407629900628 ], [ -60.529196180890054, -31.747404093361933 ], [ -60.529233113415877, -31.747375279530406 ], [ -60.529471201144432, -31.747188989589041 ], [ -60.53009567936504, -31.74670804880251 ], [ -60.530111544553144, -31.746693760799523 ], [ -60.530338013922602, -31.746489778399329 ], [ -60.530367675716782, -31.746463068729312 ], [ -60.530349987080584, -31.746390724666195 ], [ -60.530093568937509, -31.746256082849971 ], [ -60.53008469819585, -31.746251376077236 ], [ -60.530096732387179, -31.746237094993539 ], [ -60.530100810159048, -31.74623225319041 ], [ -60.530184686617687, -31.746276067302386 ], [ -60.530207317646237, -31.746287895454444 ], [ -60.530417644319677, -31.746397765995471 ], [ -60.530475449988387, -31.746326171853053 ], [ -60.530820628154359, -31.745843467957489 ], [ -60.531083368689131, -31.745479004156302 ], [ -60.531382408652455, -31.745064201088777 ], [ -60.531408815315459, -31.745027566480466 ], [ -60.531435410473648, -31.744990678565543 ], [ -60.531687562144405, -31.744643013835997 ], [ -60.531836636538856, -31.744437457794358 ], [ -60.532077579404479, -31.744110419036716 ], [ -60.53213897507721, -31.744023008917107 ], [ -60.532300359704742, -31.743800229898753 ], [ -60.532314788312426, -31.743780320143447 ], [ -60.532426036286246, -31.74362445944432 ], [ -60.532482717504301, -31.743545041114356 ], [ -60.532591851296097, -31.74339461664125 ], [ -60.532616173493011, -31.743361092082292 ], [ -60.532745353439118, -31.74318303611172 ], [ -60.532912663693168, -31.742952421797252 ], [ -60.532986209083482, -31.742851054090892 ], [ -60.533899042030612, -31.741592810312877 ], [ -60.533890626757128, -31.741560758115131 ], [ -60.533668253776789, -31.741441393142107 ], [ -60.533481300875422, -31.741341043598268 ], [ -60.5333408615178, -31.741265660449507 ], [ -60.533242811730389, -31.74085466951497 ], [ -60.533228197273218, -31.74084571226739 ], [ -60.533215340722649, -31.740837820852239 ], [ -60.533200281453922, -31.740828585892199 ], [ -60.533152445864644, -31.740836154054556 ], [ -60.533086730650979, -31.740881917757733 ], [ -60.53302392271921, -31.740886220712355 ], [ -60.532945354807154, -31.740891608623098 ], [ -60.532796340567266, -31.740809478885467 ], [ -60.532723401313554, -31.740813697790333 ], [ -60.532541105859622, -31.740824235631621 ], [ -60.532427103423259, -31.740979467676752 ], [ -60.532374484351443, -31.741051113211952 ], [ -60.532346693122385, -31.741088962281768 ], [ -60.532127367470245, -31.741387602631391 ], [ -60.532126465706916, -31.741416302937292 ], [ -60.532194687826205, -31.741552268000277 ], [ -60.532199053799992, -31.74156097055754 ], [ -60.532234579334798, -31.741631769923281 ], [ -60.532236031127034, -31.741634667783842 ], [ -60.532297305797051, -31.741662946068445 ], [ -60.532356453656718, -31.741690232165634 ], [ -60.532368336172404, -31.741695719823124 ], [ -60.532160349664935, -31.741993636461181 ], [ -60.532151235936986, -31.742003594754621 ], [ -60.53211629076656, -31.741986326149338 ], [ -60.532075178546584, -31.742042186405744 ], [ -60.532052098738241, -31.742073549546912 ], [ -60.532009153913855, -31.742131906510362 ], [ -60.532041482636586, -31.74215114305991 ], [ -60.53203730559369, -31.74215703147479 ], [ -60.531922024378346, -31.742319753660244 ], [ -60.531870340302596, -31.742392702744837 ], [ -60.531843458375825, -31.742419879143437 ], [ -60.531793865843014, -31.742478426107589 ], [ -60.531755244572132, -31.742458701705146 ], [ -60.531733524881425, -31.742447402098772 ], [ -60.531676579891794, -31.742438161356429 ], [ -60.531517549225505, -31.742407756371207 ], [ -60.531434088010357, -31.742391799186034 ], [ -60.531389885649112, -31.74240744104171 ], [ -60.531236015508206, -31.742619203221984 ], [ -60.531215440134389, -31.742647525590414 ], [ -60.531133997012525, -31.742759612006189 ], [ -60.53109381988719, -31.742814908907643 ], [ -60.531070186888698, -31.742847437549283 ], [ -60.531017308336843, -31.742920210898284 ], [ -60.531001445192651, -31.742942119553273 ], [ -60.530890958168975, -31.743094756298472 ], [ -60.530848132810327, -31.743153915009028 ], [ -60.530794700518072, -31.743227727686723 ], [ -60.530750524292557, -31.743288749780216 ], [ -60.530548301379596, -31.7435680889281 ], [ -60.529935293511876, -31.744413543904678 ], [ -60.529301076071576, -31.745294859963142 ], [ -60.529107347501125, -31.745568074097118 ], [ -60.529093046056765, -31.745588244495575 ], [ -60.529048490335441, -31.745651067107364 ], [ -60.529037808446375, -31.745666140237002 ], [ -60.529050508237304, -31.745681671295607 ], [ -60.529136786254355, -31.745721129271615 ], [ -60.529193265290615, -31.745753902055363 ], [ -60.529177594921066, -31.745772752443962 ], [ -60.529223161289266, -31.74579433361275 ], [ -60.529223150557875, -31.745836981638359 ], [ -60.529222097610031, -31.745841116435301 ], [ -60.529179482878043, -31.745978544333216 ], [ -60.529170290387327, -31.746008180872401 ], [ -60.529169026265983, -31.746012298509036 ], [ -60.52913904873931, -31.746109722432234 ], [ -60.529092595385499, -31.746260693825466 ], [ -60.52905253383971, -31.746314519593678 ] ] ] ] } },
{ "type": "Feature", "properties": { "id": 2, "ogc_fid": 2, "pm": 74063.0, "seccion": null, "grupo": null, "manzana": null, "parcela": null, "ubipar": null, "sup_total": 0.0, "area_a_pre": "Plaza 1ro de Mayo" }, "geometry": { "type": "MultiPolygon", "coordinates": [ [ [ [ -60.529668580893187, -31.733569527866088 ], [ -60.530365382016555, -31.733300731479297 ], [ -60.530381530128508, -31.7332661237736 ], [ -60.53001497138105, -31.732476788079051 ], [ -60.52997226304484, -31.732463077313678 ], [ -60.529209130419268, -31.732704794136563 ], [ -60.529191912505368, -31.73275545891314 ], [ -60.529601242414067, -31.733537106931127 ], [ -60.529615819245947, -31.733561973246712 ], [ -60.529668580893187, -31.733569527866088 ] ] ] ] } },
{ "type": "Feature", "properties": { "id": 3, "ogc_fid": 3, "pm": 75138.0, "seccion": null, "grupo": null, "manzana": null, "parcela": null, "ubipar": null, "sup_total": 4435.0, "area_a_pre": "Puerto Nuevo" }, "geometry": { "type": "MultiPolygon", "coordinates": [ [ [ [ -60.518378049452636, -31.718323945774856 ], [ -60.517996910669446, -31.718872692669631 ], [ -60.517395089789879, -31.719823682640822 ], [ -60.517177793201, -31.7197335930388 ], [ -60.517153092806097, -31.719776956373536 ], [ -60.517131944938193, -31.719766860852811 ], [ -60.517024953554127, -31.719903969832146 ], [ -60.517444646919003, -31.720089908145788 ], [ -60.5174880375219, -31.720011840252369 ], [ -60.517652923093131, -31.71986582911768 ], [ -60.518039904858426, -31.719804248532792 ], [ -60.51818722103058, -31.719762128948471 ], [ -60.519301871505164, -31.719599130489854 ], [ -60.519821948671165, -31.719536001246009 ], [ -60.520288242374811, -31.719481169909578 ], [ -60.52062206912754, -31.719463402560375 ], [ -60.5212477909282, -31.719368830662827 ], [ -60.521718371073739, -31.719273384602161 ], [ -60.521931605257997, -31.71924644852897 ], [ -60.522151492062271, -31.719218682212208 ], [ -60.522595155631201, -31.719164565296001 ], [ -60.522729231272969, -31.719149361803392 ], [ -60.523013889738536, -31.71911637728698 ], [ -60.523273711190058, -31.719088878087028 ], [ -60.523371119029136, -31.719077797478572 ], [ -60.523417851237369, -31.719243387778977 ], [ -60.523440622675245, -31.71936334532062 ], [ -60.523417506178639, -31.719453629899988 ], [ -60.523223805572897, -31.71958232117397 ], [ -60.523084813763447, -31.719679551177681 ], [ -60.523028461336075, -31.719712103791409 ], [ -60.523101887387284, -31.719708235961882 ], [ -60.523451799083404, -31.719636733404268 ], [ -60.523783290239329, -31.719523987481114 ], [ -60.524120249592869, -31.719457970186912 ], [ -60.524187930401283, -31.719445114927282 ], [ -60.524096753035103, -31.719098380929406 ], [ -60.524301379787488, -31.719080191772104 ], [ -60.524854181426747, -31.719038227026747 ], [ -60.525044259041088, -31.719022295321569 ], [ -60.525010938116857, -31.718817733253399 ], [ -60.525001315570606, -31.718812953990014 ], [ -60.524989690125679, -31.718811297379254 ], [ -60.524979032785332, -31.718811061693465 ], [ -60.524964288275235, -31.718810094306761 ], [ -60.524951892174691, -31.718810226515721 ], [ -60.52494128486201, -31.71881137945967 ], [ -60.524930998986456, -31.718813405867166 ], [ -60.52491958845031, -31.718816185434562 ], [ -60.524904643055869, -31.71882263202065 ], [ -60.524888951823357, -31.718827783021212 ], [ -60.524877285638681, -31.718830130752568 ], [ -60.524864611976284, -31.718829686916092 ], [ -60.524862512887118, -31.718820406571034 ], [ -60.524860897027075, -31.718810754480764 ], [ -60.524855173628517, -31.718802372862921 ], [ -60.524838032382334, -31.71880109066494 ], [ -60.524825837448937, -31.718801348291617 ], [ -60.524811925718943, -31.718802127035126 ], [ -60.524792498183352, -31.718803280201289 ], [ -60.524778391332333, -31.71880500667989 ], [ -60.524762861109842, -31.718806901347566 ], [ -60.524748227100162, -31.718808693121737 ], [ -60.524737337671063, -31.718810334205291 ], [ -60.524726122250215, -31.718812166016782 ], [ -60.52471443414985, -31.718814369528502 ], [ -60.524699942371186, -31.718817062555146 ], [ -60.524685729790306, -31.718822496035038 ], [ -60.524676365214304, -31.718828874534083 ], [ -60.524667996019204, -31.718835898263269 ], [ -60.524656105421208, -31.718843360350057 ], [ -60.524639781285487, -31.718852283630035 ], [ -60.524626298608375, -31.718859932634402 ], [ -60.524618314332123, -31.718865989803955 ], [ -60.524608140525281, -31.718872930770893 ], [ -60.524598035425569, -31.718877084758201 ], [ -60.524587049218304, -31.718880277397851 ], [ -60.524573312220376, -31.718882110553185 ], [ -60.524560785290802, -31.718881494732578 ], [ -60.524547503515457, -31.718881729749235 ], [ -60.524544329407405, -31.71888201336203 ], [ -60.524537003456807, -31.71888132202918 ], [ -60.52452527812067, -31.718876915164714 ], [ -60.524514272868352, -31.718876725963675 ], [ -60.524502703436397, -31.718877522092146 ], [ -60.52449138964802, -31.718878750052664 ], [ -60.52448009787387, -31.718880140253408 ], [ -60.524468584453125, -31.718883389162407 ], [ -60.524459787804396, -31.718891325498333 ], [ -60.524449910598349, -31.718896605840715 ], [ -60.524437444380894, -31.718904899971029 ], [ -60.524421776655529, -31.718912359536684 ], [ -60.524409650713366, -31.718917378573032 ], [ -60.524397306149112, -31.718921045742395 ], [ -60.524384456338218, -31.7189249224127 ], [ -60.524373191218153, -31.718932923006555 ], [ -60.524364729677963, -31.71894041605433 ], [ -60.524355151769193, -31.718944513743526 ], [ -60.524345529932461, -31.718948304985883 ], [ -60.524335026990208, -31.718951134878914 ], [ -60.524320404362143, -31.718953079870712 ], [ -60.524304558662429, -31.718955165167312 ], [ -60.524289914120388, -31.718956965950792 ], [ -60.52427156881501, -31.718959205817711 ], [ -60.52425441320338, -31.718960998886502 ], [ -60.524238507034816, -31.718961713621582 ], [ -60.524220719870939, -31.718961894983106 ], [ -60.524206627278666, -31.718960537035542 ], [ -60.524198014071636, -31.718954205436489 ], [ -60.524193910261062, -31.718952391568031 ], [ -60.52418855917788, -31.718948292145523 ], [ -60.524179051336148, -31.718944218832107 ], [ -60.524169129750788, -31.718939741389544 ], [ -60.524160195929511, -31.718932680612927 ], [ -60.524152637045425, -31.718926218417863 ], [ -60.5241423244941, -31.718921634359379 ], [ -60.524130993243865, -31.718921635852709 ], [ -60.524118570701646, -31.718922696988304 ], [ -60.524106920409665, -31.718924124703658 ], [ -60.524095759387755, -31.71892625384449 ], [ -60.524085125574679, -31.718928326706489 ], [ -60.524078778519197, -31.718929101328083 ], [ -60.524065727527898, -31.718932852535296 ], [ -60.524053456449707, -31.718940207908986 ], [ -60.524044914032004, -31.718948332558554 ], [ -60.524037887200329, -31.718955801650541 ], [ -60.524026730948286, -31.718964406001543 ], [ -60.524018388116964, -31.718970500681273 ], [ -60.524009394922963, -31.718979141232062 ], [ -60.523999748216852, -31.718986016855226 ], [ -60.523988230302876, -31.718990347951461 ], [ -60.523976918067106, -31.71899373126584 ], [ -60.523964927468079, -31.71899843405858 ], [ -60.523955828305546, -31.719003242206579 ], [ -60.523946334369484, -31.719011019041229 ], [ -60.523928389853744, -31.71901136334051 ], [ -60.523915890908874, -31.71901197384863 ], [ -60.523903064398027, -31.719010619682962 ], [ -60.523891845842847, -31.719008149641049 ], [ -60.52388013101983, -31.71900373365558 ], [ -60.523870818213197, -31.719000570379585 ], [ -60.523838896049512, -31.718991854464822 ], [ -60.523820043814688, -31.718984626993759 ], [ -60.523814937389623, -31.718981857086618 ], [ -60.523535540194842, -31.718989159512663 ], [ -60.523519731416151, -31.718942735309653 ], [ -60.523273434007784, -31.718947506243559 ], [ -60.523269483083894, -31.718816727142546 ], [ -60.523323218849974, -31.718810514869968 ], [ -60.523322906024227, -31.718754832046791 ], [ -60.523168347514947, -31.718757057336997 ], [ -60.523166806961633, -31.718814338711756 ], [ -60.523204438908493, -31.718814184278809 ], [ -60.523208649368648, -31.718954133082725 ], [ -60.52279718843517, -31.718954050473396 ], [ -60.522794230629685, -31.718822481091028 ], [ -60.522850249634445, -31.718820410345003 ], [ -60.522846221579073, -31.718766333700678 ], [ -60.522684240797368, -31.718773361837108 ], [ -60.522684535387505, -31.718825862769506 ], [ -60.522729447030898, -31.718827099430364 ], [ -60.522736644566713, -31.718955047263503 ], [ -60.522728561763934, -31.718960491465864 ], [ -60.522704499428642, -31.718962980009184 ], [ -60.522690706413208, -31.71896236017734 ], [ -60.522679799495123, -31.718962774649981 ], [ -60.522652937942475, -31.718964670424711 ], [ -60.522614586346393, -31.718964593166 ], [ -60.522603369371197, -31.718964278409885 ], [ -60.522524618889982, -31.718965917892252 ], [ -60.522497910145724, -31.718968723870031 ], [ -60.522472731401173, -31.718967798958179 ], [ -60.522446971076363, -31.718966641945418 ], [ -60.52242497798261, -31.718967489619612 ], [ -60.522399269134702, -31.718969867612781 ], [ -60.522386768646236, -31.71896832257131 ], [ -60.522360139273481, -31.718968350516899 ], [ -60.522337326340704, -31.718969751659596 ], [ -60.522323295845936, -31.718971937494302 ], [ -60.522296535620924, -31.718971208414153 ], [ -60.52228380146007, -31.718969384748416 ], [ -60.522258079663821, -31.718969454046857 ], [ -60.522233454574916, -31.718967543810169 ], [ -60.522222335889523, -31.718967823834706 ], [ -60.522193461008726, -31.718966282717332 ], [ -60.522182242501991, -31.718963812524365 ], [ -60.52216929572085, -31.718961701128094 ], [ -60.522152051602816, -31.718960887948885 ], [ -60.522135016245201, -31.71896343778878 ], [ -60.522113698532564, -31.718966194551491 ], [ -60.522092606997326, -31.718966010374416 ], [ -60.522007932133363, -31.718959133340707 ], [ -60.521955277280945, -31.71895282784709 ], [ -60.521967813982599, -31.718803837806039 ], [ -60.522036390374204, -31.718806473411821 ], [ -60.522038008334114, -31.718752293874825 ], [ -60.521854464770385, -31.718743123956411 ], [ -60.521852769403807, -31.718797860590168 ], [ -60.521900940303404, -31.718800986666519 ], [ -60.521893761289036, -31.718937776153012 ], [ -60.521904125455194, -31.718938410108017 ], [ -60.521898785060259, -31.718951265203909 ], [ -60.521895718898165, -31.718957635752911 ], [ -60.521881006939218, -31.718964360601777 ], [ -60.521841716777978, -31.718966243953105 ], [ -60.521783852108932, -31.718969014974451 ], [ -60.521721338283207, -31.718968666579741 ], [ -60.521652847313263, -31.718976747793636 ], [ -60.521584950758417, -31.7189722818948 ], [ -60.521540094768731, -31.718965611391727 ], [ -60.521494096064636, -31.718948935083318 ], [ -60.521484056673707, -31.718930930258988 ], [ -60.521481850492691, -31.718915653034308 ], [ -60.521491970068297, -31.718780253934508 ], [ -60.521540649647562, -31.718782056894948 ], [ -60.521542340014037, -31.718725462905869 ], [ -60.521386942374356, -31.718716145024544 ], [ -60.521380773612947, -31.718775405354037 ], [ -60.521426754844065, -31.71877791435162 ], [ -60.521416733914855, -31.718912104573739 ], [ -60.521207749873277, -31.718899360978558 ], [ -60.520276267260328, -31.71879307193316 ], [ -60.520297072790918, -31.718664264825332 ], [ -60.520282187892576, -31.718662510116634 ], [ -60.520301776907154, -31.7185553203268 ], [ -60.518419385251008, -31.718337002434321 ], [ -60.518378049452636, -31.718323945774856 ] ] ] ] } },
{ "type": "Feature", "properties": { "id": 4, "ogc_fid": 4, "pm": 74065.0, "seccion": null, "grupo": null, "manzana": null, "parcela": null, "ubipar": null, "sup_total": 0.0, "area_a_pre": "Plaza Carbó" }, "geometry": { "type": "MultiPolygon", "coordinates": [ [ [ [ -60.531020544539039, -31.726303519750964 ], [ -60.531063464015304, -31.726299219533335 ], [ -60.5313116203817, -31.726236192831795 ], [ -60.531509039787785, -31.726168453154546 ], [ -60.531773472411068, -31.726106611250806 ], [ -60.531781755360981, -31.726104791049863 ], [ -60.531847791747232, -31.72608554981144 ], [ -60.531861845549656, -31.726079908773329 ], [ -60.531863896555571, -31.726075075361557 ], [ -60.531864164966088, -31.72606295348637 ], [ -60.531861522311218, -31.726051024125546 ], [ -60.531855020113504, -31.726022859676547 ], [ -60.531791398726199, -31.725838626284961 ], [ -60.531725852627936, -31.725655428982993 ], [ -60.531659453345192, -31.725472442622376 ], [ -60.531592201036929, -31.725289694256478 ], [ -60.531549525174583, -31.725271889485146 ], [ -60.53152968855256, -31.725266290594394 ], [ -60.531508216634329, -31.725264414108217 ], [ -60.531487656270016, -31.725266961862268 ], [ -60.531465374135507, -31.725280266748584 ], [ -60.531391313183804, -31.725359603347648 ], [ -60.531384340060114, -31.725367073184703 ], [ -60.531246322429546, -31.72551560464974 ], [ -60.531085911284109, -31.725696866926043 ], [ -60.530941960007169, -31.725856001388014 ], [ -60.530939554294768, -31.725859699941854 ], [ -60.530882775835543, -31.725925996343982 ], [ -60.530875212326997, -31.725941115659815 ], [ -60.530871770712579, -31.725966697213227 ], [ -60.530869160762116, -31.725978991170447 ], [ -60.530879023731281, -31.726070934465525 ], [ -60.530880137120015, -31.726081313541584 ], [ -60.530932032754471, -31.72623195752675 ], [ -60.530973703171206, -31.726282476495197 ], [ -60.530988852928154, -31.726296933044637 ], [ -60.530993327356242, -31.726298898458491 ], [ -60.531010540510806, -31.726301433078095 ], [ -60.531020544539039, -31.726303519750964 ] ] ] ] } },
{ "type": "Feature", "properties": { "id": 5, "ogc_fid": 5, "pm": 74064.0, "seccion": null, "grupo": null, "manzana": null, "parcela": null, "ubipar": null, "sup_total": 0.0, "area_a_pre": "Plaza Alvear" }, "geometry": { "type": "MultiPolygon", "coordinates": [ [ [ [ -60.528803094224521, -31.728434853081502 ], [ -60.528807889094793, -31.728433778034866 ], [ -60.528917066414692, -31.728407766862837 ], [ -60.529308770229889, -31.728295881743385 ], [ -60.529409286068187, -31.728271839250628 ], [ -60.529458210377122, -31.728260296702587 ], [ -60.529754337502148, -31.728178198198759 ], [ -60.529759890913674, -31.728176921558745 ], [ -60.529777496881252, -31.728168695737391 ], [ -60.52978264321802, -31.728164489802587 ], [ -60.529793418559947, -31.728148184810884 ], [ -60.529793681961124, -31.728140698429545 ], [ -60.529814711783267, -31.728103707657258 ], [ -60.529827100487374, -31.728087224606849 ], [ -60.529829232306632, -31.728081732547935 ], [ -60.529830540046433, -31.728076054527619 ], [ -60.529831024271331, -31.728070289745961 ], [ -60.529830664289392, -31.72806451043656 ], [ -60.529829460665155, -31.728058815799539 ], [ -60.529770912120462, -31.72789596106027 ], [ -60.529766024687611, -31.727883624808147 ], [ -60.529751846060464, -31.727847836854949 ], [ -60.529722441366793, -31.727772213362027 ], [ -60.529702630219717, -31.727724795681045 ], [ -60.529667147483551, -31.727626831753216 ], [ -60.529627409646743, -31.727528353406527 ], [ -60.529607172632737, -31.727470972125076 ], [ -60.529539123095375, -31.727288604801085 ], [ -60.529517831501096, -31.727279548572508 ], [ -60.529505389070067, -31.727273584972959 ], [ -60.529448686207452, -31.727253239856712 ], [ -60.529429083507033, -31.727246206355158 ], [ -60.529425896016136, -31.72724603922553 ], [ -60.529421568584404, -31.727245804682969 ], [ -60.529414046238116, -31.727245953164715 ], [ -60.529406558775477, -31.727246669661582 ], [ -60.529399179900977, -31.727247926812115 ], [ -60.528825427169508, -31.727386152372379 ], [ -60.528794296406062, -31.727394723222332 ], [ -60.528461683627249, -31.727476781374538 ], [ -60.528450792489352, -31.727478287510287 ], [ -60.528444911530428, -31.72749862970943 ], [ -60.528442379277237, -31.72750738875423 ], [ -60.528434798637896, -31.727525159411382 ], [ -60.528429526041961, -31.727535011346252 ], [ -60.528420639830671, -31.727558856810965 ], [ -60.528546998926693, -31.727899914567384 ], [ -60.528557164063422, -31.727926746110857 ], [ -60.528589407891005, -31.728011855692547 ], [ -60.528743554286322, -31.728414889796387 ], [ -60.528751036825426, -31.728417005141569 ], [ -60.52879962718621, -31.728433776236002 ], [ -60.528803094224521, -31.728434853081502 ] ] ] ] } },
{ "type": "Feature", "properties": { "id": 6, "ogc_fid": 6, "pm": 74067.0, "seccion": null, "grupo": null, "manzana": null, "parcela": null, "ubipar": null, "sup_total": 0.0, "area_a_pre": "Plaza Alberdi" }, "geometry": { "type": "MultiPolygon", "coordinates": [ [ [ [ -60.524462588590715, -31.734000068118824 ], [ -60.524468072015161, -31.733999405247815 ], [ -60.524473382797382, -31.733998066706015 ], [ -60.52450756204798, -31.733986932610101 ], [ -60.524554064800945, -31.733971788703982 ], [ -60.524591003670452, -31.733959759423836 ], [ -60.52495925420417, -31.733839822441741 ], [ -60.524991821836124, -31.733829217922256 ], [ -60.525449442446003, -31.733680178718672 ], [ -60.525456564613656, -31.733672600945333 ], [ -60.525462945446364, -31.733664548252008 ], [ -60.525465142622977, -31.733661220417844 ], [ -60.525468521988749, -31.73365608402726 ], [ -60.525473273340765, -31.733647244431026 ], [ -60.525477157752924, -31.733638110801206 ], [ -60.525480164978966, -31.733628737290612 ], [ -60.525481296576046, -31.73362357409318 ], [ -60.525482253116721, -31.733619178182536 ], [ -60.525483422624667, -31.733609514640865 ], [ -60.525483663205577, -31.733599791800067 ], [ -60.525350202318847, -31.733331070195277 ], [ -60.525335067357815, -31.733300587212 ], [ -60.525331869760386, -31.733296794621012 ], [ -60.525327989190131, -31.733293518894516 ], [ -60.525323520970439, -31.733290822768236 ], [ -60.525318592283732, -31.733288804920718 ], [ -60.525313340559194, -31.733287509877464 ], [ -60.525307913777731, -31.733286982120607 ], [ -60.525302459665781, -31.733287221041259 ], [ -60.525289420123144, -31.733291477362503 ], [ -60.52480595462702, -31.7334491177544 ], [ -60.524772555130355, -31.733460014240524 ], [ -60.524297166570634, -31.733615022151607 ], [ -60.524290322498629, -31.733619532456323 ], [ -60.524285910490264, -31.733623067786265 ], [ -60.524281136121346, -31.733627840129241 ], [ -60.524277007807378, -31.733633033680043 ], [ -60.524273588555388, -31.733638594068907 ], [ -60.524270920166892, -31.733644448976854 ], [ -60.524269023238112, -31.733650508134975 ], [ -60.524267929171053, -31.733656726322074 ], [ -60.524267658460367, -31.733662995232905 ], [ -60.524268200249566, -31.733669260801669 ], [ -60.524269554030909, -31.733675432846287 ], [ -60.524271708846385, -31.733681439264512 ], [ -60.524274739270744, -31.733687406007348 ], [ -60.524414317148512, -31.73395787118157 ], [ -60.524429061227622, -31.733986434958894 ], [ -60.524432585162131, -31.733990090953196 ], [ -60.524436686763494, -31.73399326659467 ], [ -60.524441281260195, -31.733995899103146 ], [ -60.524446283931525, -31.733997934716651 ], [ -60.524451578400729, -31.733999319803555 ], [ -60.524457048494327, -31.734000036805018 ], [ -60.524462588590715, -31.734000068118824 ] ] ] ] } },
{ "type": "Feature", "properties": { "id": 7, "ogc_fid": 8, "pm": 999999.0, "seccion": null, "grupo": null, "manzana": null, "parcela": null, "ubipar": null, "sup_total": 0.0, "area_a_pre": "Bajada Grande" }, "geometry": { "type": "MultiPolygon", "coordinates": [ [ [ [ -60.570004527619965, -31.707337730878486 ], [ -60.570083321684194, -31.707403271671492 ], [ -60.570207953160917, -31.707514182071844 ], [ -60.570321874910299, -31.707615561470565 ], [ -60.570370624286866, -31.707596289012631 ], [ -60.570527038448311, -31.707748999472365 ], [ -60.570751280288817, -31.707967930305269 ], [ -60.570543264685895, -31.708001343217177 ], [ -60.570468053985429, -31.708013423993389 ], [ -60.570439544825447, -31.708018003286593 ], [ -60.571951927866131, -31.708884493324966 ], [ -60.57256039511941, -31.709435992836504 ], [ -60.572891554307624, -31.709952398587042 ], [ -60.573076206631193, -31.710131071311945 ], [ -60.57326119070418, -31.710259759511406 ], [ -60.573821153997692, -31.710474117594043 ], [ -60.573972294064689, -31.710485774890021 ], [ -60.57411318002876, -31.71053477774559 ], [ -60.574193337900702, -31.710562658106198 ], [ -60.574170459595493, -31.710616321478934 ], [ -60.574185963254848, -31.710644749845137 ], [ -60.574255826997678, -31.710690014268515 ], [ -60.574296677935564, -31.710656281788236 ], [ -60.574301409964143, -31.710617802800286 ], [ -60.574309145085927, -31.710554903778799 ], [ -60.574239690439754, -31.710469875362453 ], [ -60.574205742747452, -31.710531614980209 ], [ -60.57395339731422, -31.710413329314527 ], [ -60.573725842594044, -31.70991788979282 ], [ -60.573285195030593, -31.709433175002868 ], [ -60.573524754650222, -31.709233232659784 ], [ -60.573254544231752, -31.709003684560951 ], [ -60.57317975876834, -31.709056679280511 ], [ -60.572713231237394, -31.708687144694899 ], [ -60.572653249877966, -31.708732118372694 ], [ -60.572745193329609, -31.708806909985331 ], [ -60.572509879957458, -31.708815515151638 ], [ -60.571426098727258, -31.707920004933893 ], [ -60.571365208020005, -31.707980142046988 ], [ -60.570335493210536, -31.707052374152436 ], [ -60.570192195275936, -31.707175925168293 ], [ -60.570182922723511, -31.707183919916226 ], [ -60.570004527619965, -31.707337730878486 ] ] ] ] } },
{ "type": "Feature", "properties": { "id": 8, "ogc_fid": 9, "pm": 0.0, "seccion": null, "grupo": null, "manzana": null, "parcela": null, "ubipar": null, "sup_total": 0.0, "area_a_pre": "Bajada Los Vascos" }, "geometry": { "type": "MultiPolygon", "coordinates": [ [ [ [ -60.539962760117817, -31.716578567656232 ], [ -60.539645796159483, -31.717035250569523 ], [ -60.540372765485351, -31.717469298618244 ], [ -60.540160857442501, -31.717670546576628 ], [ -60.5395632059154, -31.717490940995503 ], [ -60.53924539349665, -31.717801917406824 ], [ -60.539248240165421, -31.718293673455229 ], [ -60.538972090036957, -31.718440550256769 ], [ -60.539272077861987, -31.71873069978367 ], [ -60.539718475155063, -31.718546674456505 ], [ -60.539973000479797, -31.7183452467455 ], [ -60.539780391598676, -31.718200353327507 ], [ -60.539885766179701, -31.717999557187305 ], [ -60.540185121678057, -31.718180425466631 ], [ -60.540546180438788, -31.717978545180564 ], [ -60.540757876877031, -31.717740870226326 ], [ -60.540862931596095, -31.717485433742123 ], [ -60.540604499824141, -31.717012975368508 ], [ -60.539962760117817, -31.716578567656232 ] ] ] ] } },
{ "type": "Feature", "properties": { "id": 9, "ogc_fid": 7, "pm": 6693.0, "seccion": null, "grupo": null, "manzana": null, "parcela": null, "ubipar": null, "sup_total": 22.0, "area_a_pre": "Colegio Nacional" }, "geometry": { "type": "MultiPolygon", "coordinates": [ [ [ [ -60.528363386196098, -31.724134943708712 ], [ -60.528143453980761, -31.724197333685456 ], [ -60.528104919968378, -31.724208261326492 ], [ -60.527872083024405, -31.724274311666779 ], [ -60.527839089968531, -31.724283674132337 ], [ -60.527764697522109, -31.724304778631492 ], [ -60.527686059729668, -31.724327082074502 ], [ -60.527667384144188, -31.724271200057096 ], [ -60.5274654790379, -31.724331025161646 ], [ -60.527388995623525, -31.724353689262976 ], [ -60.527309799641621, -31.724378060003112 ], [ -60.527266214964598, -31.724391470313368 ], [ -60.527208505829314, -31.724409231794585 ], [ -60.527109107842733, -31.724439818487575 ], [ -60.527296669757234, -31.724904682061421 ], [ -60.527335601636317, -31.724919230064483 ], [ -60.528461144610482, -31.724598365036197 ], [ -60.52850546193519, -31.724583923180575 ], [ -60.528527127138759, -31.724551105497991 ], [ -60.528515562325239, -31.724526803702876 ], [ -60.528486805158401, -31.724453359645718 ], [ -60.528469321672972, -31.724408691727202 ], [ -60.528410511945985, -31.724258472133556 ], [ -60.528390833730704, -31.724208194821745 ], [ -60.528363386196098, -31.724134943708712 ] ] ], [ [ [ -60.528421886242278, -31.725372371591583 ], [ -60.528397852631301, -31.725311380422884 ], [ -60.528390872890213, -31.725293697172859 ], [ -60.528387308396233, -31.725284720580682 ], [ -60.52846847168712, -31.725261107581328 ], [ -60.528529346752784, -31.725243395532633 ], [ -60.528570302338139, -31.725231483731971 ], [ -60.528627543162827, -31.725214823824359 ], [ -60.528636802425105, -31.725212134010398 ], [ -60.528769918370642, -31.7251733979097 ], [ -60.528598638367541, -31.724771525876456 ], [ -60.528597144703824, -31.724768619119502 ], [ -60.528594801642321, -31.724764777968694 ], [ -60.52859166971826, -31.724761372973209 ], [ -60.528587844606548, -31.724758529994276 ], [ -60.528583464032387, -31.724756347663355 ], [ -60.528578686669114, -31.724754897469829 ], [ -60.528573671138837, -31.724754241884902 ], [ -60.528568607409383, -31.724754389139317 ], [ -60.528205192604013, -31.724858462021515 ], [ -60.528202366610977, -31.724862486929549 ], [ -60.528200249218791, -31.724866806509372 ], [ -60.528198882222028, -31.724871348440431 ], [ -60.528198296711082, -31.724876013391285 ], [ -60.528198502674329, -31.724880702117943 ], [ -60.528199488998325, -31.724885315463755 ], [ -60.527954306807899, -31.724955313069561 ], [ -60.527953610943577, -31.724951681527003 ], [ -60.527952114178291, -31.724948224651481 ], [ -60.527949848982985, -31.724945086603253 ], [ -60.52794692153185, -31.724942384182132 ], [ -60.527943437896766, -31.724940216151339 ], [ -60.527939525200381, -31.724938672168651 ], [ -60.527935341962504, -31.724937796669558 ], [ -60.52793103615199, -31.724937634133394 ], [ -60.527926776635077, -31.724938192879243 ], [ -60.527413975919593, -31.725085043222698 ], [ -60.527408369464688, -31.725088105627368 ], [ -60.527403325836872, -31.725091806011264 ], [ -60.527398939637358, -31.72509608085409 ], [ -60.527395305263127, -31.725100830562777 ], [ -60.527392485560419, -31.725105973711415 ], [ -60.527390532722414, -31.725111410881627 ], [ -60.527389498840186, -31.725117024618335 ], [ -60.527389393852062, -31.725122706659416 ], [ -60.527487511343161, -31.725380074278235 ], [ -60.527502739067472, -31.72541959312333 ], [ -60.527545188247579, -31.725529748841115 ], [ -60.527637886583186, -31.725502778869828 ], [ -60.52769494868631, -31.725486174229768 ], [ -60.527744426407942, -31.725471783422215 ], [ -60.527820681182547, -31.725449589010573 ], [ -60.527837767164343, -31.725444621259591 ], [ -60.527887782022312, -31.725430065840836 ], [ -60.527935047550912, -31.725416315410083 ], [ -60.528002432758825, -31.72539670983679 ], [ -60.528027176823201, -31.725389509845094 ], [ -60.52817929639069, -31.725345248513062 ], [ -60.528260108682815, -31.725535031010462 ], [ -60.528281693104766, -31.725571619484501 ], [ -60.528358083195293, -31.725749957822817 ], [ -60.528365669233409, -31.725777793303106 ], [ -60.528407473241714, -31.725768457306017 ], [ -60.528557002077292, -31.725726839641137 ], [ -60.528535949428559, -31.725674286404075 ], [ -60.528499602437293, -31.725583567482627 ], [ -60.528468547127375, -31.725499383004347 ], [ -60.528452279883275, -31.725455251155207 ], [ -60.528435100365463, -31.725408399521822 ], [ -60.528421886242278, -31.725372371591583 ] ] ] ] } }
]
}
