{
"type": "FeatureCollection",
"name": "areas_proteccion_patrimonial",
"crs": { "type": "name", "properties": { "name": "urn:ogc:def:crs:OGC:1.3:CRS84" } },
"features": [
{ "type": "Feature", "properties": { "id": 1, "area": "PUERTO VIEJO" }, "geometry": { "type": "MultiPolygon", "coordinates": [ [ [ [ -60.539321349218952, -31.718480625876687 ], [ -60.540507923320959, -31.719837037022049 ], [ -60.542048002963455, -31.71867396933391 ], [ -60.542706713479632, -31.718031655546575 ], [ -60.542518334805152, -31.717860274581124 ], [ -60.543229230869045, -31.717067268068323 ], [ -60.542518977147637, -31.71660656352098 ], [ -60.543911194910756, -31.715091846203318 ], [ -60.543340323847488, -31.714566818941574 ], [ -60.542221293821719, -31.71580847154398 ], [ -60.541716042525366, -31.715455868525005 ], [ -60.541495067618385, -31.71531688737257 ], [ -60.541317790275947, -31.715532827229598 ], [ -60.541255689661476, -31.715505507155683 ], [ -60.541169416334675, -31.715626066115696 ], [ -60.540906417609392, -31.715488541021813 ], [ -60.540733369394061, -31.715733161974693 ], [ -60.540522228091319, -31.716057433073249 ], [ -60.540330454147977, -31.715921674641347 ], [ -60.540091023817766, -31.715764740090322 ], [ -60.539587949721572, -31.715449885019186 ], [ -60.539315911051887, -31.715284892082018 ], [ -60.538784939225124, -31.715009501678104 ], [ -60.538228410044489, -31.714736403026702 ], [ -60.537646613839385, -31.714515874991779 ], [ -60.536702364664578, -31.714082085646595 ], [ -60.539063920166349, -31.71859983120375 ], [ -60.539321349218952, -31.718480625876687 ] ] ] ] } },
{ "type": "Feature", "properties": { "id": 2, "area": "PUERTO NUEVO" }, "geometry": { "type": "MultiPolygon", "coordinates": [ [ [ [ -60.517014172711399, -31.717962211757069 ], [ -60.516837765457453, -31.718203497827282 ], [ -60.516620984397456, -31.718816715801818 ], [ -60.516032761519661, -31.719744038951564 ], [ -60.515038604686765, -31.721083044347147 ], [ -60.515063319559246, -31.721233305757753 ], [ -60.515190061887594, -31.721184786783269 ], [ -60.515250215703077, -31.72120454656697 ], [ -60.515797031181059, -31.722181917817338 ], [ -60.515854423765866, -31.722198288529846 ], [ -60.517257724216392, -31.721586846412791 ], [ -60.517485076806494, -31.721488304906412 ], [ -60.519213664432691, -31.720743532428287 ], [ -60.519949430759446, -31.720424221137314 ], [ -60.520210920343246, -31.720316754891073 ], [ -60.521356679600473, -31.720057979099831 ], [ -60.521660140891193, -31.719988708371368 ], [ -60.523028461336075, -31.719712103791409 ], [ -60.523101887387284, -31.719708235961882 ], [ -60.523451799083404, -31.719636733404268 ], [ -60.523783290239329, -31.719523987481114 ], [ -60.524187930401283, -31.719445114927282 ], [ -60.524096753035103, -31.719098380929406 ], [ -60.524065727527898, -31.718932852535296 ], [ -60.523999748216852, -31.718986016855226 ], [ -60.523946334369484, -31.719011019041229 ], [ -60.523903064398027, -31.719010619682962 ], [ -60.523870818213197, -31.719000570379585 ], [ -60.523820043814688, -31.718984626993759 ], [ -60.523814937389623, -31.718981857086618 ], [ -60.52374793286662, -31.718985634682632 ], [ -60.523689220162659, -31.718995294591519 ], [ -60.523608417378398, -31.718995626482386 ], [ -60.523535540194842, -31.718989159512663 ], [ -60.523535540194842, -31.718989159512663 ], [ -60.523519731416151, -31.718942735309653 ], [ -60.523354743510886, -31.718952714070564 ], [ -60.523273434007784, -31.718947506243559 ], [ -60.523269483083894, -31.718816727142546 ], [ -60.523323218849974, -31.718810514869968 ], [ -60.523322906024227, -31.718754832046791 ], [ -60.523168347514947, -31.718757057336997 ], [ -60.523166806961633, -31.718814338711756 ], [ -60.523204438908493, -31.718814184278809 ], [ -60.523208649368648, -31.718954133082725 ], [ -60.52279718843517, -31.718954050473396 ], [ -60.522794230629685, -31.718822481091028 ], [ -60.522850249634445, -31.718820410345003 ], [ -60.522846221579073, -31.718766333700678 ], [ -60.522684240797368, -31.718773361837094 ], [ -60.522684535387505, -31.718825862769531 ], [ -60.522729447030898, -31.71882709943036 ], [ -60.522736644566713, -31.718955047263503 ], [ -60.521955277280945, -31.71895282784709 ], [ -60.521967813982599, -31.718803837806039 ], [ -60.522036390374204, -31.71880647341181 ], [ -60.522038008334114, -31.718752293874825 ], [ -60.521854464770385, -31.718743123956429 ], [ -60.521852769403807, -31.718797860590168 ], [ -60.521900940303404, -31.718800986666519 ], [ -60.521893761289036, -31.718937776153012 ], [ -60.521484056673707, -31.718930930258988 ], [ -60.521491970068297, -31.718780253934508 ], [ -60.521540649647562, -31.718782056894948 ], [ -60.521542340014037, -31.718725462905869 ], [ -60.521386942374356, -31.718716145024544 ], [ -60.521380773612947, -31.718775405354037 ], [ -60.521426754844065, -31.718777914351644 ], [ -60.521416733914855, -31.718912104573739 ], [ -60.521207749873277, -31.718899360978558 ], [ -60.520276267260328, -31.718793071933153 ], [ -60.520297072790918, -31.718664264825332 ], [ -60.520282187892576, -31.718662510116634 ], [ -60.520301776907154, -31.7185553203268 ], [ -60.520028469538566, -31.718523291760473 ], [ -60.518419385251008, -31.718337002434321 ], [ -60.517014172711399, -31.717962211757069 ] ] ] ] } },
{ "type": "Feature", "properties": { "id": 5, "area": "FERROCARRIL GENERAL URQUIZA" }, "geometry": { "type": "MultiPolygon", "coordinates": [ [ [ [ -60.528644184954402, -31.74528419516119 ], [ -60.52866407303047, -31.745376009707353 ], [ -60.528469222069184, -31.745474135090841 ], [ -60.52863106345211, -31.745703171319018 ], [ -60.528695162978089, -31.745691542215187 ], [ -60.528749706581202, -31.745615895080306 ], [ -60.52880355901172, -31.745541206739713 ], [ -60.528869787996676, -31.74544934108064 ], [ -60.528944843947485, -31.745345245878919 ], [ -60.529011826593639, -31.745252339901473 ], [ -60.529064964467373, -31.745178638660331 ], [ -60.529097531140032, -31.745133473364461 ], [ -60.5291321165518, -31.74508550521551 ], [ -60.529191570293598, -31.745003046649867 ], [ -60.529225991540137, -31.744955305086933 ], [ -60.529263034500865, -31.744904016474706 ], [ -60.529336520704618, -31.744802407617492 ], [ -60.529385420607376, -31.744734782966173 ], [ -60.529421168816619, -31.744685348927298 ], [ -60.529423995429482, -31.744655369058748 ], [ -60.529387982234809, -31.744606278238038 ], [ -60.529310492673574, -31.744642205669685 ], [ -60.529225038012633, -31.74468500212382 ], [ -60.529172126391408, -31.744614398515395 ], [ -60.529182334174571, -31.744607940456778 ], [ -60.529126496391576, -31.744538833472568 ], [ -60.529105204603084, -31.744510008824136 ], [ -60.52909385031117, -31.744528787254279 ], [ -60.529043767370887, -31.74459624535859 ], [ -60.529033095397132, -31.744608807195874 ], [ -60.52898794319001, -31.744661982981388 ], [ -60.528944890508313, -31.744713090972343 ], [ -60.528928475683855, -31.744732577050058 ], [ -60.528878494848904, -31.744792044367276 ], [ -60.528860034664127, -31.744816022126457 ], [ -60.528853739785959, -31.744824198480703 ], [ -60.528777254698973, -31.744869887422841 ], [ -60.528770563566567, -31.74487727419768 ], [ -60.528750874558959, -31.744881460889545 ], [ -60.528673325318145, -31.744897951010717 ], [ -60.528664745128225, -31.744857712239973 ], [ -60.528562253429563, -31.744905951130722 ], [ -60.528581487867179, -31.74499474888243 ], [ -60.528602743707609, -31.745092878438253 ], [ -60.528622631695917, -31.745184692979407 ], [ -60.528644184954402, -31.74528419516119 ] ] ], [ [ [ -60.533007214283337, -31.740261008989016 ], [ -60.532964172913132, -31.740186155921084 ], [ -60.532731456233989, -31.740277709731934 ], [ -60.532720454206292, -31.740262579543074 ], [ -60.532599277497226, -31.740320771034902 ], [ -60.532506689116637, -31.740364368986192 ], [ -60.532491157115956, -31.740370358026532 ], [ -60.532383786823921, -31.740416519622283 ], [ -60.532320938050447, -31.740337016616536 ], [ -60.532239754824019, -31.740382722263423 ], [ -60.532223180775695, -31.740392053776979 ], [ -60.532125346254745, -31.74044713644513 ], [ -60.53218518575045, -31.740542003623947 ], [ -60.532061820613038, -31.740603056426369 ], [ -60.532072844517735, -31.740620517926022 ], [ -60.532063867471372, -31.740626350259653 ], [ -60.532071616770885, -31.740639141746108 ], [ -60.532061256598702, -31.740644383896296 ], [ -60.532080097824135, -31.740676499521747 ], [ -60.532104585983369, -31.740706943987799 ], [ -60.532117732345029, -31.740754470166578 ], [ -60.532026714276107, -31.740798888008875 ], [ -60.531850779140534, -31.740884746032098 ], [ -60.531971598616927, -31.741124437768114 ], [ -60.532006862719193, -31.74112556215421 ], [ -60.532152131085681, -31.740921726039556 ], [ -60.532234323180923, -31.740806389208871 ], [ -60.53231364463953, -31.74069658357481 ], [ -60.532325937295987, -31.740679703897104 ], [ -60.532387243304456, -31.740595495534034 ], [ -60.532411891308747, -31.740561636698789 ], [ -60.532453418085673, -31.740504602202808 ], [ -60.532456789642332, -31.740499970696241 ], [ -60.532465730995575, -31.740489426904244 ], [ -60.532619326967762, -31.740570158074469 ], [ -60.53266894859788, -31.740596248327893 ], [ -60.532728001274776, -31.740627286312542 ], [ -60.532787022229392, -31.740658306365095 ], [ -60.53291929034738, -31.740727835296941 ], [ -60.533046950575567, -31.740709544169285 ], [ -60.533050815989789, -31.74070822935203 ], [ -60.533181625623712, -31.740628121836789 ], [ -60.533192630105837, -31.740583515892528 ], [ -60.533148660998577, -31.740507034444164 ], [ -60.533139721690702, -31.740510552943029 ], [ -60.532965326874553, -31.740583606974937 ], [ -60.53290533359413, -31.740531219658511 ], [ -60.532893814726386, -31.740521158497572 ], [ -60.532852745864126, -31.740485294233316 ], [ -60.532807054492132, -31.740445389473802 ], [ -60.532765714493422, -31.740409289517309 ], [ -60.532723144431394, -31.740372114552027 ], [ -60.532799470995087, -31.740336892717721 ], [ -60.533007214283337, -31.740261008989016 ] ] ], [ [ [ -60.531799949647002, -31.741415555595388 ], [ -60.531920349585285, -31.741275231875445 ], [ -60.531855825868483, -31.741154780901955 ], [ -60.531805883834544, -31.741061549698244 ], [ -60.531653629389723, -31.741115925599793 ], [ -60.531535082952381, -31.74115952804102 ], [ -60.531505349137511, -31.741165883766911 ], [ -60.531473128834932, -31.741097677764209 ], [ -60.531466380605451, -31.741083392665313 ], [ -60.531426243258039, -31.741016030097999 ], [ -60.531339030969193, -31.741047173719227 ], [ -60.531162637993532, -31.741108198207264 ], [ -60.531032687720028, -31.741152497141634 ], [ -60.531108008124782, -31.741329213414907 ], [ -60.530995443271124, -31.741350099866548 ], [ -60.530952285209054, -31.741356340047894 ], [ -60.530974501062978, -31.741443789637398 ], [ -60.530998781936944, -31.741539367688752 ], [ -60.531022517994188, -31.741631937851331 ], [ -60.531035603457362, -31.7416803305541 ], [ -60.531022836394058, -31.741691810063681 ], [ -60.53093800830225, -31.741708053922572 ], [ -60.530785434478666, -31.74173816161397 ], [ -60.53050500477184, -31.741791473683772 ], [ -60.530516230401005, -31.741822441223125 ], [ -60.530819800759303, -31.741766859308449 ], [ -60.530833903227979, -31.741821347993405 ], [ -60.530898590263206, -31.741809413582047 ], [ -60.530908102525004, -31.741847097911421 ], [ -60.530917343843711, -31.741909295223 ], [ -60.53093037142861, -31.741998036996431 ], [ -60.530942011039052, -31.742094492923631 ], [ -60.530944122406666, -31.74211198952737 ], [ -60.53095435726889, -31.742196782947012 ], [ -60.530839087693714, -31.742215786198859 ], [ -60.530880149679085, -31.742302616367578 ], [ -60.530850563863645, -31.742346091047594 ], [ -60.530819996972646, -31.74235065104963 ], [ -60.530829943228845, -31.742410892959217 ], [ -60.530830056313022, -31.742449220674619 ], [ -60.530778756379497, -31.742454610910993 ], [ -60.530769456457406, -31.742481985389777 ], [ -60.530757651583052, -31.742517800533854 ], [ -60.530756959594441, -31.742561645113355 ], [ -60.530757371844047, -31.742600130642199 ], [ -60.530734089619877, -31.742725637430215 ], [ -60.530640340562051, -31.742732187398115 ], [ -60.530655658804378, -31.74285345711785 ], [ -60.530685608774654, -31.742914513199839 ], [ -60.530718478829861, -31.742908388098364 ], [ -60.530725612890592, -31.742891746501783 ], [ -60.530764122375324, -31.742838215248298 ], [ -60.530814578365572, -31.742768085464945 ], [ -60.53091041201511, -31.742634872325279 ], [ -60.530965727821375, -31.742558319173341 ], [ -60.531045640752623, -31.742448573508252 ], [ -60.531118648152471, -31.742348310841457 ], [ -60.531200375045294, -31.742236078953404 ], [ -60.531330268428945, -31.742057676624963 ], [ -60.531351713144517, -31.742028232330565 ], [ -60.531435297754548, -31.741912466351039 ], [ -60.531553486357659, -31.741748758479432 ], [ -60.531589504081197, -31.741698871780791 ], [ -60.531662157187689, -31.741598248046365 ], [ -60.531749091448489, -31.741477832427687 ], [ -60.531799949647002, -31.741415555595388 ] ] ], [ [ [ -60.5303151720789, -31.743452146749593 ], [ -60.530482430315445, -31.743218656823409 ], [ -60.530460401484738, -31.743199413081513 ], [ -60.530208333400836, -31.743332929746071 ], [ -60.530141054910381, -31.74336716747316 ], [ -60.529888940683946, -31.743494073706863 ], [ -60.529942604581372, -31.743571763548353 ], [ -60.529963658060105, -31.74356243213877 ], [ -60.52997917376441, -31.743583227161707 ], [ -60.52999183273419, -31.743576789490167 ], [ -60.530013204075559, -31.743612151919656 ], [ -60.529954392161699, -31.743644166239399 ], [ -60.529909843120464, -31.743654463197728 ], [ -60.529922540107137, -31.743693053046794 ], [ -60.529893630324132, -31.743717160625721 ], [ -60.529883385672569, -31.743724844552204 ], [ -60.529873883934066, -31.743738123206242 ], [ -60.529847671647765, -31.743774774071799 ], [ -60.529832782226535, -31.743795592926467 ], [ -60.529789846019661, -31.743855622459332 ], [ -60.529712514603155, -31.743819021590227 ], [ -60.529705377383081, -31.743827735972769 ], [ -60.529674541501088, -31.743813073976241 ], [ -60.529655096829799, -31.743846338406765 ], [ -60.529642604146154, -31.743867709903814 ], [ -60.529624708369326, -31.743898324567098 ], [ -60.529611463990797, -31.743910305087386 ], [ -60.529567508178204, -31.743950066340201 ], [ -60.529521174419251, -31.743977088604996 ], [ -60.529554015586427, -31.744025688732734 ], [ -60.529594764813375, -31.744085991549237 ], [ -60.529635039413797, -31.744145591897549 ], [ -60.529577743156061, -31.7441759709168 ], [ -60.529520830347586, -31.744206146582471 ], [ -60.52959907437846, -31.744320205871578 ], [ -60.529481390449853, -31.744376254773034 ], [ -60.529543206306172, -31.744469789219771 ], [ -60.52957992915519, -31.744469257840471 ], [ -60.529642326811192, -31.744383143396053 ], [ -60.529684619751869, -31.744324771906488 ], [ -60.529721614229985, -31.744273709290976 ], [ -60.529774252553175, -31.744201063739169 ], [ -60.529830063488667, -31.744124031052998 ], [ -60.529883225139976, -31.744050652789767 ], [ -60.529923633010867, -31.74399488635607 ], [ -60.529961328842354, -31.74394286480365 ], [ -60.530016720582218, -31.743866401936927 ], [ -60.530056699007773, -31.743811232460708 ], [ -60.530081881822618, -31.743776479035947 ], [ -60.53012544448076, -31.743715080954193 ], [ -60.530256103966742, -31.743529651216715 ], [ -60.5303151720789, -31.743452146749593 ] ] ] ] } },
{ "type": "Feature", "properties": { "id": 6, "area": "TUNEL SUBFLUVIAL" }, "geometry": { "type": "MultiPolygon", "coordinates": [ [ [ [ -60.502198726438372, -31.724931406550141 ], [ -60.504706876524928, -31.724310238273091 ], [ -60.504753911840019, -31.724178189906013 ], [ -60.50478616968639, -31.72403050216262 ], [ -60.504763501727837, -31.723914427653462 ], [ -60.504744643001047, -31.723823454654472 ], [ -60.504761919288811, -31.723622453453235 ], [ -60.504775811735747, -31.723474838418795 ], [ -60.50477531828097, -31.723383792695774 ], [ -60.504811419035754, -31.723267485464483 ], [ -60.504869694022979, -31.723176207006034 ], [ -60.5049794082815, -31.723087864342055 ], [ -60.505092897510764, -31.723018344078078 ], [ -60.505206216271155, -31.722917428636826 ], [ -60.505286239195485, -31.722772691018161 ], [ -60.505358864753894, -31.722618563946455 ], [ -60.505398620461158, -31.722499102477236 ], [ -60.505445722064032, -31.722379611868821 ], [ -60.505478438270778, -31.722316690640543 ], [ -60.505522275652609, -31.722272562756359 ], [ -60.505617773483344, -31.722272184028274 ], [ -60.505687645586825, -31.722287604759263 ], [ -60.505783365066286, -31.722328039507946 ], [ -60.505893742511162, -31.722362136865826 ], [ -60.506059232065539, -31.722399154937428 ], [ -60.506221031685278, -31.722433047870439 ], [ -60.506378987728489, -31.722435560112661 ], [ -60.506452362359568, -31.722419570757868 ], [ -60.506540241138111, -31.722368988403172 ], [ -60.506602374704713, -31.722312229149981 ], [ -60.506737404365914, -31.722151574143481 ], [ -60.506861482958406, -31.722003520835479 ], [ -60.507018805936987, -31.721889870520474 ], [ -60.507103147675799, -31.721864418448749 ], [ -60.50720226675184, -31.721854605405685 ], [ -60.507286813598284, -31.721866827300286 ], [ -60.507404365948837, -31.721869499048932 ], [ -60.507532766158604, -31.721840731749754 ], [ -60.507624350992586, -31.721796413046366 ], [ -60.507745114136895, -31.721714303164756 ], [ -60.507806664563724, -31.72155080008876 ], [ -60.507658051970715, -31.721240574006551 ], [ -60.50750659708698, -31.721082628464 ], [ -60.507465152355394, -31.721026762753244 ], [ -60.507146749852623, -31.720765393544792 ], [ -60.506891907929891, -31.720507392057566 ], [ -60.506525770313971, -31.720045759829677 ], [ -60.50644591522849, -31.719882819110076 ], [ -60.506455646597651, -31.71930823793798 ], [ -60.506421583678126, -31.719123138221441 ], [ -60.506359607516856, -31.718870648454139 ], [ -60.506150205975402, -31.718524556713309 ], [ -60.505970674654385, -31.718267824012194 ], [ -60.505829564090774, -31.717984252201539 ], [ -60.5057871089722, -31.717606101536969 ], [ -60.505760559662328, -31.717113293142873 ], [ -60.505767628077933, -31.716723957425987 ], [ -60.505801488167904, -31.716533878619291 ], [ -60.505916776968107, -31.716354413337168 ], [ -60.506021354312885, -31.716102883942078 ], [ -60.505894827110573, -31.715798846946065 ], [ -60.505861972309546, -31.715497577758278 ], [ -60.505857898981716, -31.715423813819601 ], [ -60.505859351788601, -31.71535316753322 ], [ -60.505858925618227, -31.715274679754064 ], [ -60.505867757947001, -31.71521028334438 ], [ -60.505863659060083, -31.715131810135624 ], [ -60.505868580006741, -31.715023475138416 ], [ -60.505890002536908, -31.714910365296323 ], [ -60.505916985210121, -31.714806652123357 ], [ -60.50594933194678, -31.714676231235156 ], [ -60.505985248980707, -31.714526958692868 ], [ -60.506024992050875, -31.71440592716576 ], [ -60.506161165539424, -31.714119684928253 ], [ -60.506259107924599, -31.713894816144901 ], [ -60.506417759551923, -31.713690113432317 ], [ -60.506593201985197, -31.713534007289962 ], [ -60.506766858738125, -31.71338732674219 ], [ -60.506993742549476, -31.713235724949126 ], [ -60.507165279825472, -31.713037249223664 ], [ -60.50730739267388, -31.712831041394288 ], [ -60.507484146765314, -31.712579171623602 ], [ -60.507654817979187, -31.712222149896796 ], [ -60.507772800061375, -31.711968943911202 ], [ -60.507919794170881, -31.711648121270787 ], [ -60.507918476415476, -31.711406378844448 ], [ -60.507813029841124, -31.71126394794279 ], [ -60.507634260816026, -31.711145355738385 ], [ -60.50741178922582, -31.711094438181711 ], [ -60.50713810721988, -31.711081398894372 ], [ -60.506852305685484, -31.711203409163144 ], [ -60.50665843807186, -31.711009525661282 ], [ -60.506480961184323, -31.710790460100593 ], [ -60.506008182305443, -31.710296283374618 ], [ -60.505579512543797, -31.709808209101041 ], [ -60.505210389984875, -31.709464318165534 ], [ -60.504805701892693, -31.709334058508308 ], [ -60.504224260268479, -31.709116588328282 ], [ -60.504171520718295, -31.708871909452743 ], [ -60.503700053528256, -31.708616326969867 ], [ -60.503610760851785, -31.708403188046539 ], [ -60.502925686192974, -31.708035421131321 ], [ -60.502733635689218, -31.707835245137385 ], [ -60.502255306588395, -31.707667592598828 ], [ -60.501908915528034, -31.707449185661428 ], [ -60.501533687526837, -31.70733135786551 ], [ -60.501091783270482, -31.707107045140262 ], [ -60.500325935511043, -31.706739581440768 ], [ -60.499192318602155, -31.706273086615766 ], [ -60.498397710665138, -31.706018748838623 ], [ -60.498568965028447, -31.707059565356559 ], [ -60.499111476079619, -31.709803176216859 ], [ -60.500334860557146, -31.715241534788532 ], [ -60.500059499734419, -31.71529003476412 ], [ -60.494625733230045, -31.715880854699936 ], [ -60.497042210662471, -31.727075404415526 ], [ -60.498112481935614, -31.726574479700087 ], [ -60.499608111382969, -31.725881960641743 ], [ -60.500059862040082, -31.725592496397457 ], [ -60.500138527922637, -31.725469716252501 ], [ -60.500153546266297, -31.725251219656158 ], [ -60.502198726438372, -31.724931406550141 ] ] ] ] } },
{ "type": "Feature", "properties": { "id": 3, "area": "PLAZA DE MAYO" }, "geometry": { "type": "MultiPolygon", "coordinates": [ [ [ [ -60.529416419144269, -31.731837351491468 ], [ -60.52937163724097, -31.731733081192989 ], [ -60.529355233176716, -31.731695266581355 ], [ -60.529384640772328, -31.731683704106839 ], [ -60.529343298413046, -31.731615074336183 ], [ -60.529218624683843, -31.731662211313907 ], [ -60.529108428681901, -31.731703437955531 ], [ -60.528767484227387, -31.731835367289325 ], [ -60.528666756982375, -31.731872877848986 ], [ -60.528633080167282, -31.731940682679141 ], [ -60.528961982121039, -31.732573366648186 ], [ -60.529045144984622, -31.73259972500643 ], [ -60.529563046383799, -31.732433504181852 ], [ -60.529678726577245, -31.732396388858586 ], [ -60.529762973212435, -31.73237027312631 ], [ -60.529924651243206, -31.732320162102109 ], [ -60.52992850026088, -31.732317873459625 ], [ -60.529954912246524, -31.732267864773881 ], [ -60.529859394842788, -31.732060125956863 ], [ -60.529731346144743, -31.732104613941328 ], [ -60.529702434600182, -31.7320405336019 ], [ -60.529625861166537, -31.732066634564326 ], [ -60.529592287084462, -31.731992488708194 ], [ -60.529577587531939, -31.731968263199295 ], [ -60.529556390126686, -31.731923700519676 ], [ -60.529522535080709, -31.731847194275225 ], [ -60.529434364032333, -31.731879134343167 ], [ -60.529416419144269, -31.731837351491468 ] ] ], [ [ [ -60.527738470726305, -31.733010898366096 ], [ -60.527903854611068, -31.732958898721755 ], [ -60.528009988468057, -31.732925541888733 ], [ -60.528063592540299, -31.732908689863979 ], [ -60.528225478317786, -31.732857669266721 ], [ -60.528400635845074, -31.732802472030581 ], [ -60.528511413946497, -31.732767553379485 ], [ -60.528709056475698, -31.732702865298698 ], [ -60.528769475388415, -31.732682025626566 ], [ -60.528789452307798, -31.732641477135296 ], [ -60.528767266299901, -31.732592193371584 ], [ -60.528660749981697, -31.732377825654773 ], [ -60.528612612163798, -31.732282226735499 ], [ -60.528562503713275, -31.732181901431609 ], [ -60.528518636956029, -31.732095615633469 ], [ -60.528312438375195, -31.732196966252964 ], [ -60.528313906534017, -31.732199363170768 ], [ -60.528217170801, -31.732245143152245 ], [ -60.528241271100718, -31.73228978653696 ], [ -60.52822696220435, -31.73229703151949 ], [ -60.528295534749127, -31.732443431491504 ], [ -60.528224299930365, -31.73246147633505 ], [ -60.528244114126487, -31.732495151145216 ], [ -60.528167338316791, -31.732521557872946 ], [ -60.52808479341072, -31.732549948789774 ], [ -60.528006006771548, -31.732575459798817 ], [ -60.527915489328819, -31.732604767509965 ], [ -60.527878188294274, -31.732616845291119 ], [ -60.527884973643907, -31.732630787880488 ], [ -60.527853162251901, -31.732642312400703 ], [ -60.527776597554364, -31.732669842812538 ], [ -60.527760301942152, -31.732632828274948 ], [ -60.527599163691789, -31.732381881671131 ], [ -60.527505236480366, -31.732425964647014 ], [ -60.527576651616137, -31.732543079783735 ], [ -60.527669017519052, -31.732705768479185 ], [ -60.527620014827598, -31.732722673325473 ], [ -60.527490545523214, -31.73276634427247 ], [ -60.527367220604837, -31.732806985315744 ], [ -60.527244806197743, -31.732845814986234 ], [ -60.52728146531949, -31.732920431609998 ], [ -60.527325382376127, -31.733009820987267 ], [ -60.527179805459802, -31.733054794197571 ], [ -60.527217505064797, -31.733138094649028 ], [ -60.527278297840319, -31.733162661839991 ], [ -60.527383140365828, -31.73312738209793 ], [ -60.527509369710344, -31.733084901964265 ], [ -60.527623631229858, -31.733047988561061 ], [ -60.527738470726305, -31.733010898366096 ] ] ], [ [ [ -60.527094714058777, -31.733118320096569 ], [ -60.526944196821873, -31.733162762931727 ], [ -60.526937210930242, -31.733143776638546 ], [ -60.52682439393859, -31.733180609600133 ], [ -60.526810769014787, -31.733186903646047 ], [ -60.526860642561914, -31.733292847221239 ], [ -60.526999353413842, -31.733250482443314 ], [ -60.527111669813166, -31.733216830239886 ], [ -60.527126868251564, -31.733189468650597 ], [ -60.527094714058777, -31.733118320096569 ] ] ], [ [ [ -60.530536235391921, -31.731622790926973 ], [ -60.530514884736469, -31.731632244357368 ], [ -60.530449817981143, -31.731655026573225 ], [ -60.530400086852445, -31.731672439203724 ], [ -60.530365718287648, -31.731597322073643 ], [ -60.530315536606928, -31.7314876430076 ], [ -60.530228543733401, -31.731292621010347 ], [ -60.530225104319506, -31.73128715212297 ], [ -60.530122863988865, -31.731327429757247 ], [ -60.530172022071774, -31.731434920820224 ], [ -60.530190810504962, -31.731479535831451 ], [ -60.530241223854041, -31.731600195251144 ], [ -60.530275007264166, -31.731690525594335 ], [ -60.530295984210611, -31.731739071002419 ], [ -60.530310903752927, -31.73178401644169 ], [ -60.530337171666808, -31.73186316217722 ], [ -60.530341266185886, -31.731875499029826 ], [ -60.530355614962005, -31.731906760471993 ], [ -60.530091702764871, -31.731994380770345 ], [ -60.530061394472568, -31.732003128417599 ], [ -60.530052125447263, -31.731993093397818 ], [ -60.529985432218751, -31.732014527924374 ], [ -60.529977644482152, -31.731999634834175 ], [ -60.529949659130381, -31.73200679457403 ], [ -60.530044196129317, -31.732222085811753 ], [ -60.53011353586362, -31.732242891505617 ], [ -60.530447268196419, -31.732106443317452 ], [ -60.530542052044964, -31.732067690246328 ], [ -60.530639386040434, -31.732027894422323 ], [ -60.53075347726724, -31.731982482131961 ], [ -60.530827292858568, -31.731953397808777 ], [ -60.530883323295704, -31.731931321031965 ], [ -60.530972256077391, -31.731896274794696 ], [ -60.531047649409096, -31.731866569695946 ], [ -60.531131159347517, -31.731833548029151 ], [ -60.531284476268041, -31.731771944597888 ], [ -60.53131095166713, -31.731712862846482 ], [ -60.531244229216952, -31.731558953172851 ], [ -60.531231845853107, -31.731528324147881 ], [ -60.531010460838694, -31.731610522048221 ], [ -60.530933434510537, -31.731639120980493 ], [ -60.530855570712383, -31.731668030790107 ], [ -60.530762085996813, -31.731702740355683 ], [ -60.53072131552053, -31.731624315599394 ], [ -60.530686038216253, -31.731556462570737 ], [ -60.530601380389221, -31.731593946640391 ], [ -60.530536235391921, -31.731622790926973 ] ] ], [ [ [ -60.531386801248019, -31.731598111066294 ], [ -60.531427194685016, -31.731698525961242 ], [ -60.531456763365597, -31.731708133541513 ], [ -60.53164630565653, -31.73163741476208 ], [ -60.531598459697278, -31.731524126194799 ], [ -60.531386801248019, -31.731598111066294 ] ] ], [ [ [ -60.530446730662447, -31.732219527416117 ], [ -60.530318842119293, -31.732268037534308 ], [ -60.530150112810546, -31.732330623793871 ], [ -60.530130267832774, -31.732338633518843 ], [ -60.530125555113315, -31.73234119631195 ], [ -60.530121309804606, -31.732344307284034 ], [ -60.530117626461774, -31.732347893894495 ], [ -60.530114568036232, -31.732351892752686 ], [ -60.530112207928276, -31.732356222387757 ], [ -60.530110587780378, -31.73236078342379 ], [ -60.530109738837226, -31.732365503583754 ], [ -60.530109671085839, -31.732370283623563 ], [ -60.530110405013744, -31.732375015237146 ], [ -60.530212385374007, -31.732576080395905 ], [ -60.530218676322839, -31.732573514615193 ], [ -60.530323155814756, -31.732790068346812 ], [ -60.530323041211162, -31.732801441039495 ], [ -60.5303300911524, -31.732812756866721 ], [ -60.530408642777253, -31.732977926853717 ], [ -60.530526998756784, -31.733219271951594 ], [ -60.530607343901259, -31.733243548738272 ], [ -60.531061958597867, -31.733067275382474 ], [ -60.530912033651305, -31.732786880702815 ], [ -60.530972877299348, -31.732763789225313 ], [ -60.531059878525795, -31.73273356760291 ], [ -60.531184029294003, -31.732962522907101 ], [ -60.531208784888051, -31.733010668227394 ], [ -60.531228273979899, -31.733003155830911 ], [ -60.531160107827411, -31.732863419119905 ], [ -60.5310903201458, -31.732720357883643 ], [ -60.531000533860414, -31.732536299796475 ], [ -60.531147973483229, -31.732485944545324 ], [ -60.531239453689878, -31.732454701075465 ], [ -60.531197224651073, -31.732359023876018 ], [ -60.530930325957442, -31.732450143831315 ], [ -60.530904213354837, -31.732398982935358 ], [ -60.530938992472691, -31.732387808548719 ], [ -60.531001476085734, -31.732355379581993 ], [ -60.531028124988502, -31.732347007693942 ], [ -60.531045820976871, -31.732339647090509 ], [ -60.531060471213301, -31.732344050164205 ], [ -60.531080520863696, -31.732336787970315 ], [ -60.5310675059213, -31.732310138684177 ], [ -60.531119077933283, -31.732291728896342 ], [ -60.5310884978419, -31.732229435642903 ], [ -60.531103157894641, -31.732224245631294 ], [ -60.531042719491722, -31.732102017591306 ], [ -60.531421142148631, -31.731969184701164 ], [ -60.53138508103698, -31.731881423574141 ], [ -60.531350413095218, -31.731869510485417 ], [ -60.530995337604828, -31.732006194240519 ], [ -60.53087192204854, -31.732053698952836 ], [ -60.530748803828025, -31.732101138795187 ], [ -60.530673209263391, -31.732130763390053 ], [ -60.530598909690454, -31.732159886536749 ], [ -60.530532074778385, -31.732186083659826 ], [ -60.530446730662447, -31.732219527416117 ] ] ], [ [ [ -60.530965228694448, -31.733329484144086 ], [ -60.530914964344994, -31.733235089079344 ], [ -60.530604660947901, -31.733361565799449 ], [ -60.530660631510905, -31.733453585627799 ], [ -60.530965228694448, -31.733329484144086 ] ] ], [ [ [ -60.531947771683988, -31.731925034340634 ], [ -60.531762123626145, -31.73197918890914 ], [ -60.53173408179515, -31.731983824120473 ], [ -60.531655263836747, -31.73175970770135 ], [ -60.531476807564786, -31.731829334790305 ], [ -60.531584858049769, -31.732103536271218 ], [ -60.531981573640529, -31.732000378526635 ], [ -60.531954440384261, -31.731941573265612 ], [ -60.531953066008214, -31.731937421514186 ], [ -60.531947771683988, -31.731925034340634 ] ] ], [ [ [ -60.529668580893187, -31.733569527866088 ], [ -60.530365382016555, -31.733300731479297 ], [ -60.530381530128508, -31.7332661237736 ], [ -60.53001497138105, -31.732476788079051 ], [ -60.52997226304484, -31.732463077313678 ], [ -60.529209130419268, -31.732704794136563 ], [ -60.529191912505368, -31.732755458913132 ], [ -60.529601242414067, -31.733537106931152 ], [ -60.529615819245947, -31.733561973246712 ], [ -60.529668580893187, -31.733569527866088 ] ] ], [ [ [ -60.527301568944722, -31.733469997434341 ], [ -60.527228274623816, -31.733364682796172 ], [ -60.527188487967237, -31.733309753889863 ], [ -60.527155121027825, -31.733300251215717 ], [ -60.526987972860596, -31.733357659216086 ], [ -60.526984601508317, -31.733358602051826 ], [ -60.527022912076745, -31.733444856773229 ], [ -60.527040704847863, -31.733484916430189 ], [ -60.527048917671088, -31.733509719175562 ], [ -60.527024858409462, -31.733520848179118 ], [ -60.527051420844906, -31.733583070233248 ], [ -60.527015401844935, -31.733598797578566 ], [ -60.526945241344265, -31.733632563828554 ], [ -60.52699057866144, -31.733726654797948 ], [ -60.526996567395251, -31.733735107343136 ], [ -60.526999866439397, -31.733741893584693 ], [ -60.52701817297752, -31.733792041644637 ], [ -60.527041153791821, -31.733854994111979 ], [ -60.527081079754687, -31.733960679098971 ], [ -60.527123401827197, -31.734072706362753 ], [ -60.527220465881186, -31.7340305885714 ], [ -60.527268746162235, -31.734131143470684 ], [ -60.52736334509801, -31.734095453611754 ], [ -60.527414424102325, -31.734189249753182 ], [ -60.527453290005553, -31.734260618889724 ], [ -60.527484457758291, -31.734317851886701 ], [ -60.527738957497782, -31.734215521610864 ], [ -60.527744380077046, -31.734166898944402 ], [ -60.527692612414249, -31.734081555624133 ], [ -60.527637276024244, -31.733992105641125 ], [ -60.52761545561804, -31.733958872943099 ], [ -60.527500852218026, -31.733769672084062 ], [ -60.527438613528346, -31.733666912343907 ], [ -60.527400260379636, -31.733611804051275 ], [ -60.527369555901345, -31.73356768580819 ], [ -60.527301568944722, -31.733469997434341 ] ] ], [ [ [ -60.530283417869356, -31.734107697125186 ], [ -60.53037820690777, -31.734066322829865 ], [ -60.530455771515719, -31.734030368507295 ], [ -60.530436969853326, -31.734000956972785 ], [ -60.530395332721916, -31.733935823722366 ], [ -60.530526369713328, -31.7338789021587 ], [ -60.53039721795038, -31.733644583650349 ], [ -60.530428143967029, -31.733632651027964 ], [ -60.530445877422579, -31.733614877738301 ], [ -60.530472958684648, -31.73360368234448 ], [ -60.530464221714844, -31.733588245238845 ], [ -60.530574866873209, -31.733539499005282 ], [ -60.530511785669063, -31.73343647152652 ], [ -60.530439853979765, -31.733420222125364 ], [ -60.530303939630507, -31.733475349070886 ], [ -60.530144084793825, -31.733540189077512 ], [ -60.530075116736981, -31.733568153425452 ], [ -60.529983229557665, -31.733605429854425 ], [ -60.529895385469203, -31.733641147260375 ], [ -60.529715513219351, -31.733715376951 ], [ -60.529689994783595, -31.733768592419878 ], [ -60.529910429200285, -31.734174406391393 ], [ -60.530158953352299, -31.734079418423185 ], [ -60.530152010445939, -31.734067061429048 ], [ -60.53008717148402, -31.733959450222233 ], [ -60.530166786452178, -31.733925249454209 ], [ -60.530276820774027, -31.734110576675381 ], [ -60.530283417869356, -31.734107697125186 ] ] ], [ [ [ -60.528809430711391, -31.734055796720991 ], [ -60.528748486599063, -31.734079073563084 ], [ -60.528656070007791, -31.734114358166881 ], [ -60.528578268227719, -31.734144071846114 ], [ -60.528504678134283, -31.734172171755379 ], [ -60.528615096014988, -31.734378452211558 ], [ -60.528711380526069, -31.734558328149607 ], [ -60.528803747801213, -31.734730885283408 ], [ -60.52886475638487, -31.734703662208254 ], [ -60.528924761302122, -31.734676886942342 ], [ -60.529016996315896, -31.734635729946834 ], [ -60.529087844099408, -31.734613629768372 ], [ -60.529127786849507, -31.734695548345272 ], [ -60.529189433169449, -31.734669609428849 ], [ -60.529221610688531, -31.734655663557707 ], [ -60.529348863831224, -31.734600510213731 ], [ -60.529357739937488, -31.734596663222923 ], [ -60.529469896683402, -31.734548074430823 ], [ -60.529480698348763, -31.734543394889556 ], [ -60.529622113746171, -31.734483330614946 ], [ -60.529888687819764, -31.734370259383923 ], [ -60.529795347409845, -31.734198684388538 ], [ -60.52959462540688, -31.733817065869474 ], [ -60.529589119393144, -31.733811894143553 ], [ -60.529583046242138, -31.733807193731103 ], [ -60.529576480074084, -31.733803009416246 ], [ -60.529569473853819, -31.733799377052456 ], [ -60.529562091149543, -31.7337963414675 ], [ -60.529554405927371, -31.733793920390934 ], [ -60.529546481601471, -31.733792131595983 ], [ -60.529538392240539, -31.733791010848492 ], [ -60.529530222208756, -31.733790548779627 ], [ -60.529522034920234, -31.733790763162599 ], [ -60.529513904187127, -31.733791644672444 ], [ -60.529505914373651, -31.733793183940225 ], [ -60.529498128739988, -31.733795371684803 ], [ -60.529337472644634, -31.733854965298235 ], [ -60.529164106568039, -31.733919264978809 ], [ -60.529038651952348, -31.733965806719798 ], [ -60.528931634788066, -31.734009133418212 ], [ -60.528877819109518, -31.734029684234528 ], [ -60.528809430711391, -31.734055796720991 ] ] ], [ [ [ -60.528165574825408, -31.734303009651338 ], [ -60.528043913289494, -31.734350580834324 ], [ -60.528022046289315, -31.734400335811078 ], [ -60.528097399238661, -31.734515522388627 ], [ -60.52819313455192, -31.73447920535444 ], [ -60.528267855118962, -31.734451780774869 ], [ -60.528320855238725, -31.734528871524603 ], [ -60.528383132971911, -31.734619456731537 ], [ -60.5284834684334, -31.73457373224489 ], [ -60.528589861260436, -31.734526223955399 ], [ -60.528518313901628, -31.734404844143139 ], [ -60.528537936526661, -31.734396664391959 ], [ -60.528544374153931, -31.734407946781381 ], [ -60.528609500886468, -31.734380785663372 ], [ -60.528497803746653, -31.734174797081291 ], [ -60.528403858928492, -31.734210674517762 ], [ -60.52828613073136, -31.734255875819056 ], [ -60.528165574825408, -31.734303009651338 ] ] ], [ [ [ -60.528965326794172, -31.73298003803831 ], [ -60.528855508118916, -31.732762194083104 ], [ -60.5283461219123, -31.732917430252506 ], [ -60.527986364155169, -31.733030063945282 ], [ -60.527886416398331, -31.733062033358109 ], [ -60.527817059272557, -31.733084713310355 ], [ -60.52772593120406, -31.73311450871045 ], [ -60.527606721201053, -31.733153150040305 ], [ -60.527481597147144, -31.733190941100251 ], [ -60.52741354457681, -31.733211485789301 ], [ -60.527333656025803, -31.733235617230314 ], [ -60.527315661100246, -31.733242446470911 ], [ -60.527299814889233, -31.73327652947895 ], [ -60.527305432904384, -31.733282873235485 ], [ -60.527353850750039, -31.733358778448995 ], [ -60.527401539798056, -31.733433552828746 ], [ -60.527438548712347, -31.733491567638069 ], [ -60.527473576470939, -31.733546480084215 ], [ -60.527508785289264, -31.733601680359801 ], [ -60.527545889258889, -31.733659848856547 ], [ -60.527583174293774, -31.733718305181302 ], [ -60.527640252532287, -31.733806061539308 ], [ -60.527744690465688, -31.73396663483388 ], [ -60.52780799632324, -31.734063960913698 ], [ -60.527848500621168, -31.734126227629552 ], [ -60.527909513039219, -31.734144724210363 ], [ -60.527919959190108, -31.734140902228766 ], [ -60.528160922976667, -31.734048493320106 ], [ -60.528166043637036, -31.734046730714311 ], [ -60.528339131649034, -31.733978294921776 ], [ -60.52836035769139, -31.733970160135016 ], [ -60.528801399395554, -31.733801131735689 ], [ -60.52898730124511, -31.733729878352467 ], [ -60.52906181254049, -31.73370186797899 ], [ -60.529131698726374, -31.733675704047783 ], [ -60.529287081195903, -31.733616574495286 ], [ -60.529237693631295, -31.733530717168396 ], [ -60.529152728152631, -31.733354335871024 ], [ -60.528965326794172, -31.73298003803831 ] ] ], [ [ [ -60.528059595965487, -31.734641143133327 ], [ -60.528021532641553, -31.734581400552607 ], [ -60.5279043945485, -31.734423738947651 ], [ -60.52788178967419, -31.734415959501053 ], [ -60.527824354158959, -31.734438382659153 ], [ -60.527846932260239, -31.734480522368756 ], [ -60.527873401979569, -31.734470167828981 ], [ -60.527902752220065, -31.734524946859828 ], [ -60.527911458123022, -31.734521225757042 ], [ -60.528005779222489, -31.73466584645011 ], [ -60.528059595965487, -31.734641143133327 ] ] ] ] } },
{ "type": "Feature", "properties": { "id": 4, "area": "MERCADO LA PAZ" }, "geometry": { "type": "MultiPolygon", "coordinates": [ [ [ [ -60.531774629977519, -31.735473572555595 ], [ -60.532231784769365, -31.735276154129327 ], [ -60.532832359884587, -31.735035741851952 ], [ -60.532569789238266, -31.734469754987835 ], [ -60.532294707853616, -31.733868088446926 ], [ -60.531707939739569, -31.734135746537874 ], [ -60.531154484351113, -31.734393753478134 ], [ -60.531774629977519, -31.735473572555595 ] ] ] ] } }
]
}
