{
"type": "FeatureCollection",
"name": "antenas_celular_2018",
"crs": { "type": "name", "properties": { "name": "urn:ogc:def:crs:OGC:1.3:CRS84" } },
"features": [
{ "type": "Feature", "properties": { "ogc_fid": 1, "nombre": "A07-S208", "localidad": "Parana", "provincia": "Entre Rios", "latitud": "-31.72521", "longitud": "-60.504876", "radio (mts": "238", "referencia": "Av. Crespo Interseccion Ruta 168", "empresa": null, "tipo": null, "obs": null, "id": 1, "fuente": "Otras fuentes", "expte": null, "x": 5452149.447, "y": 6490471.041 }, "geometry": { "type": "Point", "coordinates": [ -60.504888954953202, -31.725221860026256 ] } },
{ "type": "Feature", "properties": { "ogc_fid": 2, "nombre": "A07-S258", "localidad": "Parana", "provincia": "Entre Rios", "latitud": "-31.777599", "longitud": "-60.460752", "radio (mts": "300", "referencia": "Calle Miguel David Interseccion Ruta 12", "empresa": null, "tipo": null, "obs": null, "id": 2, "fuente": "Otras fuentes", "expte": null, "x": 5456357.286, "y": 6484680.4 }, "geometry": { "type": "Point", "coordinates": [ -60.460750319067579, -31.777611512918696 ] } },
{ "type": "Feature", "properties": { "ogc_fid": 3, "nombre": "A07-S264", "localidad": "Parana", "provincia": "Entre Rios", "latitud": "-31.711308", "longitud": "-60.494091", "radio (mts": "300", "referencia": "Blas Parera entre Av. Churruarin y Almte Brown", "empresa": null, "tipo": null, "obs": null, "id": 3, "fuente": "Otras fuentes", "expte": "37696/17", "x": 5453182.982, "y": 6488391.738 }, "geometry": { "type": "Point", "coordinates": [ -60.494083597139934, -31.744016255300142 ] } },
{ "type": "Feature", "properties": { "ogc_fid": 4, "nombre": "A07-S334", "localidad": "Parana", "provincia": "Entre Rios", "latitud": "-31.753701", "longitud": "-60.533149", "radio (mts": "300", "referencia": "Gral G. Espejo Interseccion G. Alvarado", "empresa": null, "tipo": null, "obs": null, "id": 4, "fuente": "Otras fuentes", "expte": null, "x": 5449487.467, "y": 6487301.116 }, "geometry": { "type": "Point", "coordinates": [ -60.533139204631475, -31.753694489783435 ] } },
{ "type": "Feature", "properties": { "ogc_fid": 5, "nombre": "A07-S249", "localidad": "Parana", "provincia": "Entre Rios", "latitud": "-31.71103", "longitud": "-60.564199", "radio (mts": "300", "referencia": "Av. De Larramendi Interseccion Calle Croacia (Calle A)", "empresa": null, "tipo": null, "obs": null, "id": 5, "fuente": "Otras fuentes", "expte": null, "x": 5446520.592, "y": 6492017.372 }, "geometry": { "type": "Point", "coordinates": [ -60.564194291039016, -31.711027734949663 ] } },
{ "type": "Feature", "properties": { "ogc_fid": 6, "nombre": "A07-S361", "localidad": "Parana", "provincia": "Entre Rios", "latitud": "-31.726725", "longitud": "-60.555539", "radio (mts": "300", "referencia": "Florencio Ameghino InterseccionEstado de Palestina", "empresa": null, "tipo": null, "obs": null, "id": 6, "fuente": "Otras fuentes", "expte": null, "x": 5447349.904, "y": 6490281.006 }, "geometry": { "type": "Point", "coordinates": [ -60.555539, -31.726724999992342 ] } },
{ "type": "Feature", "properties": { "ogc_fid": 7, "nombre": "exp 17099/17", "localidad": null, "provincia": null, "latitud": "-31.781389", "longitud": "-60.498056", "radio (mts": null, "referencia": "Crisologo Larralde 2056", "empresa": "TMA S.A. - Movistar", "tipo": "mastil arriostrado 30 m s/terreno natural", "obs": "expte 20613/17", "id": 7, "fuente": "Direccion de Fiscalizacion", "expte": "17099/17", "x": 5452746.267, "y": 6484040.299 }, "geometry": { "type": "Point", "coordinates": [ -60.49890282826658, -31.783240434610008 ] } },
{ "type": "Feature", "properties": { "ogc_fid": 8, "nombre": "exp 17104/17", "localidad": null, "provincia": null, "latitud": "-31.729983", "longitud": "-60.552281", "radio (mts": null, "referencia": "Club Sportivo Urquiza", "empresa": "TMA S.A. Movistar", "tipo": "Monoposte 20 m s/terreno natural'                            exp 20606/2017", "obs": "8Direccion de Fiscalizacion", "id": null, "fuente": "17104", "expte": "/17", "x": 5447655.471, "y": 6489920.31 }, "geometry": { "type": "Point", "coordinates": [ -60.552334215268594, -31.729991833623789 ] } },
{ "type": "Feature", "properties": { "ogc_fid": 9, "nombre": "exp 12603/17", "localidad": "5450756.38187725", "provincia": "6488384.35756567", "latitud": null, "longitud": null, "radio (mts": "French 548", "referencia": "Telecom", "empresa": "**********Remodelacion central T", "tipo": "elecom", "obs": null, "id": 9, "fuente": "Direccion de Fiscalizacion", "expte": "12603/17", "x": 5450756.382, "y": 6488384.358 }, "geometry": { "type": "Point", "coordinates": [ -60.519692230753471, -31.743980949794565 ] } },
{ "type": "Feature", "properties": { "ogc_fid": 10, "nombre": "exp 17098/17", "localidad": null, "provincia": null, "latitud": "-31.726040", "longitud": "-60.530400", "radio (mts": null, "referencia": "Alameda de la Federacion 188", "empresa": "TMA S.A. Movistar", "tipo": "pedestal 2m de altura s/azotea a cota +43, camuflado como tanque da agua", "obs": "exp 20610/17", "id": 10, "fuente": "Direccion de Fiscalizacion", "expte": "17098/17", "x": 5449731.877, "y": 6490371.261 }, "geometry": { "type": "Point", "coordinates": [ -60.53040184050932, -31.726018120035569 ] } },
{ "type": "Feature", "properties": { "ogc_fid": 11, "nombre": "exp 13102/17", "localidad": null, "provincia": null, "latitud": null, "longitud": null, "radio (mts": null, "referencia": "Urquiza 976 - Gran Hotel Parana", "empresa": "TMA S.A.", "tipo": "Estr. sioporte  sistema de radiocomunicacion antenas e infraestr.", "obs": "otros exp: 30175/00 - 95/2001", "id": 11, "fuente": "Direccion de Fiscalizacion", "expte": "13102/17", "x": 5449818.416, "y": 6489693.351 }, "geometry": { "type": "Point", "coordinates": [ -60.529523525897552, -31.732135446774105 ] } },
{ "type": "Feature", "properties": { "ogc_fid": 12, "nombre": "exp 17106/17", "localidad": null, "provincia": null, "latitud": "-31.72688", "longitud": "-60.53742", "radio (mts": null, "referencia": "Catamarca 246", "empresa": "TMA S.A. Movistar", "tipo": "Pedestal 4 m  de altura s/azotea", "obs": null, "id": 12, "fuente": "Direccion de Fiscalizacion", "expte": "17106/17", "x": 5449073.399, "y": 6490295.116 }, "geometry": { "type": "Point", "coordinates": [ -60.537353451365512, -31.726675714825816 ] } },
{ "type": "Feature", "properties": { "ogc_fid": 13, "nombre": "exp 17100/17", "localidad": null, "provincia": null, "latitud": "-31.761450", "longitud": "-61.453220", "radio (mts": null, "referencia": "Almafuerte 4849", "empresa": "TMA S.A. - Movistar", "tipo": "Monoposte 30 m s/terreno natural", "obs": "HSNM 54 m", "id": 13, "fuente": "Direccion de Fiscalizacion", "expte": "17100/17", "x": 5457052.885, "y": 6486470.152 }, "geometry": { "type": "Point", "coordinates": [ -60.453328137347135, -31.761497434996667 ] } },
{ "type": "Feature", "properties": { "ogc_fid": 14, "nombre": "exp 13107/17", "localidad": null, "provincia": null, "latitud": null, "longitud": null, "radio (mts": null, "referencia": "Millan 59", "empresa": "TMA S.A. Movistar", "tipo": "Monoposte 35 m s/terreno natural", "obs": "exp 5042/00", "id": 14, "fuente": "Direccion de Fiscalizacion", "expte": "13107/17", "x": 5451154.433, "y": 6489446.24 }, "geometry": { "type": "Point", "coordinates": [ -60.515438509449829, -31.734421730552423 ] } },
{ "type": "Feature", "properties": { "ogc_fid": 15, "nombre": "exp 17101/17", "localidad": null, "provincia": null, "latitud": "-31.724431", "longitud": "-60.508989", "radio (mts": null, "referencia": "Candioti 347", "empresa": "TMA S.A. - Movistar", "tipo": "Pedestal 4 m. s/azotea cota +21 m", "obs": null, "id": 15, "fuente": "Direccion de Fiscalizacion", "expte": "17101/17", "x": 5451752.405, "y": 6490541.985 }, "geometry": { "type": "Point", "coordinates": [ -60.509074647244603, -31.724565414577238 ] } },
{ "type": "Feature", "properties": { "ogc_fid": 16, "nombre": "exp 17103/17", "localidad": null, "provincia": null, "latitud": "-31.7541", "longitud": "-60.498458", "radio (mts": null, "referencia": "Almafuerte 1549", "empresa": "TMA S.A. - Movistar", "tipo": "soporte empotrado de 2 m altura s/azotea cota + 11m", "obs": null, "id": 16, "fuente": "Direccion de Fiscalizacion", "expte": "17103/17", "x": 5452774.193, "y": 6487273.785 }, "geometry": { "type": "Point", "coordinates": [ -60.498451632193536, -31.754081399594423 ] } },
{ "type": "Feature", "properties": { "ogc_fid": 17, "nombre": "exp 13111/17", "localidad": null, "provincia": null, "latitud": null, "longitud": null, "radio (mts": null, "referencia": "Caputto 1123", "empresa": "TMA S.A. - Movistar", "tipo": "Monoposte 33 m s/terreno natural", "obs": "exp14427/00 - 5458/00", "id": 17, "fuente": "Direccion de Fiscalizacion", "expte": "13111/17", "x": 5454482.762, "y": 6486379.721 }, "geometry": { "type": "Point", "coordinates": [ -60.480460489027394, -31.762213544527906 ] } },
{ "type": "Feature", "properties": { "ogc_fid": 18, "nombre": "EXP 3599/09", "localidad": null, "provincia": null, "latitud": null, "longitud": null, "radio (mts": null, "referencia": "Bazan y Bustos  - concesion 106", "empresa": "Claro", "tipo": "antena estr. portante de 90 m s/t.n.", "obs": "aprobada 30/06/17", "id": 18, "fuente": "Direccion de Fiscalizacion", "expte": "3599/0", "x": 5455291.885, "y": 6490716.728 }, "geometry": { "type": "Point", "coordinates": [ -60.471721685733762, -31.723133194392489 ] } },
{ "type": "Feature", "properties": { "ogc_fid": 19, "nombre": "exp 3594/09", "localidad": null, "provincia": null, "latitud": null, "longitud": null, "radio (mts": null, "referencia": "Villaguay 162", "empresa": "Claro", "tipo": "Antena estr. portante 25 m s/azotea", "obs": "aprob 30/06/17", "id": 19, "fuente": "Direccion de Fiscalizacion", "expte": "3594/09", "x": 5449639.351, "y": 6488934.727 }, "geometry": { "type": "Point", "coordinates": [ -60.531452038014557, -31.738968994907026 ] } },
{ "type": "Feature", "properties": { "ogc_fid": 20, "nombre": "exp 3591/09", "localidad": null, "provincia": null, "latitud": null, "longitud": null, "radio (mts": null, "referencia": "Alameda de la Federacion 647", "empresa": "Claro", "tipo": "Antena estr. portante de 45 m s/azotea", "obs": null, "id": 20, "fuente": "Direccion de Fiscalizacion", "expte": "3591/09", "x": 5449195.116, "y": 6490984.851 }, "geometry": { "type": "Point", "coordinates": [ -60.536033398947218, -31.7204609469626 ] } },
{ "type": "Feature", "properties": { "ogc_fid": 21, "nombre": "exp 3598/09", "localidad": null, "provincia": null, "latitud": null, "longitud": null, "radio (mts": null, "referencia": "9 de Julio 39", "empresa": "Claro", "tipo": "antena estr. portante de 50 m s/azotea", "obs": null, "id": 21, "fuente": "Direccion de Fiscalizacion", "expte": "3598/09", "x": 5450021.409, "y": 6489514.826 }, "geometry": { "type": "Point", "coordinates": [ -60.527390712380445, -31.733754297371824 ] } },
{ "type": "Feature", "properties": { "ogc_fid": 22, "nombre": "exp 3586/09", "localidad": null, "provincia": null, "latitud": null, "longitud": null, "radio (mts": null, "referencia": "Colon 54", "empresa": "Claro", "tipo": "antena estr. portante 30 m s/azotea", "obs": "exp 22725/00", "id": 22, "fuente": "Direccion de Fiscalizacion", "expte": "3586/09", "x": 5450024.899, "y": 6490174.423 }, "geometry": { "type": "Point", "coordinates": [ -60.527320202800574, -31.727806070288974 ] } },
{ "type": "Feature", "properties": { "ogc_fid": 23, "nombre": "exp 12585/17", "localidad": null, "provincia": null, "latitud": null, "longitud": null, "radio (mts": null, "referencia": "Anacleto Medina 319", "empresa": "Telecom Personal", "tipo": "Antena pedestal de 3 m", "obs": null, "id": 23, "fuente": "Direccion de Fiscalizacion", "expte": "12585/17", "x": 5448240.284, "y": 6490862.075 }, "geometry": { "type": "Point", "coordinates": [ -60.546113762855988, -31.721525409142252 ] } },
{ "type": "Feature", "properties": { "ogc_fid": 24, "nombre": "exp 12590/17", "localidad": null, "provincia": null, "latitud": null, "longitud": null, "radio (mts": null, "referencia": "Av Pascual Echagüe 611", "empresa": "Telecom Personal", "tipo": "Antena Pedestal de 3 m", "obs": null, "id": 24, "fuente": "Direccion de Fiscalizacion", "expte": "12590/17", "x": 5450402.988, "y": 6489231.977 }, "geometry": { "type": "Point", "coordinates": [ -60.523378649210294, -31.736321683761577 ] } },
{ "type": "Feature", "properties": { "ogc_fid": 25, "nombre": "exp 12595/17", "localidad": null, "provincia": null, "latitud": null, "longitud": null, "radio (mts": null, "referencia": "Balbin e/Zanni y Garrigo", "empresa": "Telecom Personal", "tipo": "Antena monoposte de 18 m", "obs": "ubicacion aproximada", "id": 25, "fuente": "Direccion de Fiscalizacion", "expte": "12595/17", "x": 5452029.911, "y": 6483895.067 }, "geometry": { "type": "Point", "coordinates": [ -60.506472966440043, -31.784520310237614 ] } },
{ "type": "Feature", "properties": { "ogc_fid": 26, "nombre": "exp 12598/17", "localidad": null, "provincia": null, "latitud": null, "longitud": null, "radio (mts": null, "referencia": "Gob Faustino Parera 4500", "empresa": "Telecom Personal", "tipo": "antena estructura 22 m", "obs": "ubicacion aproximada", "id": 26, "fuente": "Direccion de Fiscalizacion", "expte": "12598/17", "x": 5452587.653, "y": 6482371.067 }, "geometry": { "type": "Point", "coordinates": [ -60.500658539874081, -31.798287263633942 ] } },
{ "type": "Feature", "properties": { "ogc_fid": 27, "nombre": "exp 12581/17", "localidad": null, "provincia": null, "latitud": null, "longitud": null, "radio (mts": null, "referencia": "Santa Fe 322", "empresa": "Telecom Personal", "tipo": "antena pedestal 3 m", "obs": null, "id": 27, "fuente": "Direccion de Fiscalizacion", "expte": "12581/17", "x": 5449667.182, "y": 6490208.29 }, "geometry": { "type": "Point", "coordinates": [ -60.531092827115529, -31.727484983942229 ] } },
{ "type": "Feature", "properties": { "ogc_fid": 28, "nombre": "exp 12580/17", "localidad": null, "provincia": null, "latitud": null, "longitud": null, "radio (mts": null, "referencia": "Almafuerte 1372", "empresa": "Telecom Personal", "tipo": "Antena pedestal de 3 m", "obs": null, "id": 28, "fuente": "Direccion de Fiscalizacion", "expte": "12580/17", "x": 5452570.455, "y": 6487370.369 }, "geometry": { "type": "Point", "coordinates": [ -60.500597253647882, -31.753201952534344 ] } },
{ "type": "Feature", "properties": { "ogc_fid": 29, "nombre": "exp 12599/17", "localidad": null, "provincia": null, "latitud": null, "longitud": null, "radio (mts": null, "referencia": "Vieja Usina calle Corrientes", "empresa": "Telecom Personal", "tipo": "Microceldas s/azotea", "obs": null, "id": 29, "fuente": "Direccion de Fiscalizacion", "expte": "12599/17", "x": 5450360.39, "y": 6490831.648 }, "geometry": { "type": "Point", "coordinates": [ -60.523747002159972, -31.721893666891368 ] } },
{ "type": "Feature", "properties": { "ogc_fid": 30, "nombre": "exp 12608/17", "localidad": null, "provincia": null, "latitud": null, "longitud": null, "radio (mts": null, "referencia": "Juan Bevilacqua 3149", "empresa": "Telecom Personal", "tipo": "antena Torre", "obs": "remodelacion s/tn - exp 9517/96 - 37043/06", "id": 30, "fuente": "Direccion de Fiscalizacion", "expte": "12608/17", "x": 5450229.157, "y": 6485882.352 }, "geometry": { "type": "Point", "coordinates": [ -60.525383523284702, -31.766521651966517 ] } },
{ "type": "Feature", "properties": { "ogc_fid": 31, "nombre": "exp 14059/17", "localidad": null, "provincia": null, "latitud": null, "longitud": null, "radio (mts": null, "referencia": "Barrio Mosconi", "empresa": "Telecomunicaciones SA", "tipo": "equipo s/tanque agua", "obs": "ubicacion indefinida", "id": 31, "fuente": "Direccion de Fiscalizacion", "expte": "14059/17", "x": 5447215.024, "y": 6490757.829 }, "geometry": { "type": "Point", "coordinates": [ -60.556936415706495, -31.722418718805592 ] } },
{ "type": "Feature", "properties": { "ogc_fid": 32, "nombre": "exp 20436/17", "localidad": null, "provincia": null, "latitud": null, "longitud": null, "radio (mts": null, "referencia": "Larramendi 2838", "empresa": "Punto medio S.A.", "tipo": "antena sobre cartel 18 m", "obs": null, "id": 32, "fuente": "Direccion de Fiscalizacion", "expte": "20436/17", "x": 5446559.461, "y": 6492094.296 }, "geometry": { "type": "Point", "coordinates": [ -60.563780059539177, -31.710335835038737 ] } },
{ "type": "Feature", "properties": { "ogc_fid": 33, "nombre": "exp 20436/17", "localidad": null, "provincia": null, "latitud": null, "longitud": null, "radio (mts": null, "referencia": "Jose Hernandez 4470", "empresa": "Punto medio S.A.", "tipo": "Antena sobre cartel 18 m", "obs": null, "id": 33, "fuente": "Direccion de Fiscalizacion", "expte": "20436/17", "x": 5456211.973, "y": 6484659.977 }, "geometry": { "type": "Point", "coordinates": [ -60.462285312235203, -31.777790131905842 ] } },
{ "type": "Feature", "properties": { "ogc_fid": 34, "nombre": "exp 19198/17", "localidad": null, "provincia": null, "latitud": null, "longitud": null, "radio (mts": null, "referencia": "Ramirez 2559", "empresa": "Galeno FM 87.7 (radio)", "tipo": "Torre de transmision de 36 m s/azotea", "obs": null, "id": 34, "fuente": "Direccion de Fiscalizacion", "expte": "19198/17", "x": 5450975.555, "y": 6488593.92 }, "geometry": { "type": "Point", "coordinates": [ -60.517368766543306, -31.742100489449925 ] } },
{ "type": "Feature", "properties": { "ogc_fid": 35, "nombre": "exp 12607/17", "localidad": null, "provincia": null, "latitud": null, "longitud": null, "radio (mts": null, "referencia": "Brigadier Lopez y Cnel Caminos", "empresa": "Telecom Personal", "tipo": "Antena Torre", "obs": null, "id": 35, "fuente": "Direccion de Fiscalizacion", "expte": "12607/17", "x": 5448483.87, "y": 6488506.13 }, "geometry": { "type": "Point", "coordinates": [ -60.543667852209751, -31.742782728006766 ] } },
{ "type": "Feature", "properties": { "ogc_fid": 36, "nombre": "indef 1", "localidad": null, "provincia": null, "latitud": null, "longitud": null, "radio (mts": null, "referencia": "Gualeguaychu 667", "empresa": "Claro", "tipo": null, "obs": null, "id": 36, "fuente": "Direccion de Medio Ambiente", "expte": null, "x": 5450438.857, "y": 6488863.399 }, "geometry": { "type": "Point", "coordinates": [ -60.523018826620692, -31.739647150094097 ] } },
{ "type": "Feature", "properties": { "ogc_fid": 37, "nombre": "exp 22727/2000", "localidad": null, "provincia": null, "latitud": null, "longitud": null, "radio (mts": null, "referencia": "9 de julio y Alem", "empresa": "Claro", "tipo": null, "obs": null, "id": 37, "fuente": "Direccion de Medio Ambiente", "expte": "22727/00", "x": 5449882.315, "y": 6489313.401 }, "geometry": { "type": "Point", "coordinates": [ -60.528868750425076, -31.735564707429564 ] } },
{ "type": "Feature", "properties": { "ogc_fid": 38, "nombre": "indef 3", "localidad": null, "provincia": null, "latitud": null, "longitud": null, "radio (mts": null, "referencia": "Uruguay 40", "empresa": "Telecom", "tipo": "Antena Torre", "obs": null, "id": 38, "fuente": "Direccion de Medio Ambiente", "expte": null, "x": 5449891.178, "y": 6489835.292 }, "geometry": { "type": "Point", "coordinates": [ -60.52874848990708, -31.730858582177998 ] } },
{ "type": "Feature", "properties": { "ogc_fid": 39, "nombre": "indef 4", "localidad": null, "provincia": null, "latitud": null, "longitud": null, "radio (mts": null, "referencia": "Urquiza 838", "empresa": "Justicia Electoral", "tipo": null, "obs": null, "id": 39, "fuente": "Direccion de Medio Ambiente", "expte": null, "x": 5449991.455, "y": 6489624.683 }, "geometry": { "type": "Point", "coordinates": [ -60.527701169004075, -31.732762275546392 ] } },
{ "type": "Feature", "properties": { "ogc_fid": 40, "nombre": "indef 5", "localidad": null, "provincia": null, "latitud": null, "longitud": null, "radio (mts": null, "referencia": "San Martin 918", "empresa": "Instituto del seguro", "tipo": null, "obs": null, "id": 40, "fuente": "Direccion de Medio Ambiente", "expte": null, "x": 5449738.778, "y": 6489638.442 }, "geometry": { "type": "Point", "coordinates": [ -60.530366669137408, -31.732627133683565 ] } },
{ "type": "Feature", "properties": { "ogc_fid": 41, "nombre": "indef 6", "localidad": null, "provincia": null, "latitud": null, "longitud": null, "radio (mts": null, "referencia": "Almafuerte 57", "empresa": "Empresa Folmer", "tipo": null, "obs": null, "id": 41, "fuente": "Direccion de Medio Ambiente", "expte": null, "x": 5451036.824, "y": 6488465.015 }, "geometry": { "type": "Point", "coordinates": [ -60.51672864850795, -31.743265602323707 ] } },
{ "type": "Feature", "properties": { "ogc_fid": 42, "nombre": "indef 7", "localidad": null, "provincia": null, "latitud": null, "longitud": null, "radio (mts": null, "referencia": "Soler 1074", "empresa": "Sin datos", "tipo": null, "obs": null, "id": 42, "fuente": "Direccion de Medio Ambiente", "expte": null, "x": 5451285.996, "y": 6488835.696 }, "geometry": { "type": "Point", "coordinates": [ -60.514080665317962, -31.739933356913813 ] } },
{ "type": "Feature", "properties": { "ogc_fid": 43, "nombre": "indef 8", "localidad": null, "provincia": null, "latitud": null, "longitud": null, "radio (mts": null, "referencia": "Carbo 252", "empresa": "Radio Mitre", "tipo": null, "obs": null, "id": 43, "fuente": "Direccion de Medio Ambiente", "expte": null, "x": 5449799.434, "y": 6488963.324 }, "geometry": { "type": "Point", "coordinates": [ -60.529761287699934, -31.738718135223792 ] } },
{ "type": "Feature", "properties": { "ogc_fid": 44, "nombre": "indef 9", "localidad": null, "provincia": null, "latitud": null, "longitud": null, "radio (mts": null, "referencia": "3 de Febrero 879", "empresa": "Empresa Rio Remis", "tipo": null, "obs": null, "id": 44, "fuente": "Direccion de Medio Ambiente", "expte": null, "x": 5451445.275, "y": 6488542.372 }, "geometry": { "type": "Point", "coordinates": [ -60.512414407753639, -31.742585380884179 ] } },
{ "type": "Feature", "properties": { "ogc_fid": 45, "nombre": "indef 10", "localidad": null, "provincia": null, "latitud": null, "longitud": null, "radio (mts": null, "referencia": "Artigas 1383", "empresa": "numero A", "tipo": null, "obs": null, "id": 45, "fuente": "Direccion de Medio Ambiente", "expte": null, "x": 5451748.355, "y": 6486507.33 }, "geometry": { "type": "Point", "coordinates": [ -60.509316471933765, -31.760950623931535 ] } },
{ "type": "Feature", "properties": { "ogc_fid": 46, "nombre": "indef 11", "localidad": null, "provincia": null, "latitud": null, "longitud": null, "radio (mts": null, "referencia": "Churruarin 2918", "empresa": "Numero B", "tipo": null, "obs": null, "id": 46, "fuente": "Direccion de Medio Ambiente", "expte": null, "x": 5454571.896, "y": 6487839.885 }, "geometry": { "type": "Point", "coordinates": [ -60.479451779865556, -31.749048983454362 ] } },
{ "type": "Feature", "properties": { "ogc_fid": 47, "nombre": "indef 12", "localidad": null, "provincia": null, "latitud": null, "longitud": null, "radio (mts": null, "referencia": "Ameghino 442", "empresa": "numero F", "tipo": null, "obs": null, "id": 47, "fuente": "Direccion de Medio Ambiente", "expte": null, "x": 5447918.154, "y": 6490025.344 }, "geometry": { "type": "Point", "coordinates": [ -60.549556931119049, -31.729056600376929 ] } },
{ "type": "Feature", "properties": { "ogc_fid": 48, "nombre": "Indef 14", "localidad": null, "provincia": null, "latitud": null, "longitud": null, "radio (mts": null, "referencia": "Pedro Diaz Colodrero 498", "empresa": "sin datos", "tipo": "Antena Torre", "obs": null, "id": 48, "fuente": "CNC-Defensoria", "expte": null, "x": 5451513.367, "y": 6488179.194 }, "geometry": { "type": "Point", "coordinates": [ -60.511713844894039, -31.745863486009192 ] } },
{ "type": "Feature", "properties": { "ogc_fid": 49, "nombre": "indef 13", "localidad": null, "provincia": null, "latitud": null, "longitud": null, "radio (mts": null, "referencia": "25 de Junio 571", "empresa": "Personal", "tipo": "Antena torre", "obs": "exp 21657/00 - 37043/06", "id": 49, "fuente": "CNC-Defensoria", "expte": "37043/06", "x": 5449028.293, "y": 6490071.751 }, "geometry": { "type": "Point", "coordinates": [ -60.537841000267612, -31.728688055955793 ] } },
{ "type": "Feature", "properties": { "ogc_fid": 50, "nombre": "exp 21658/00", "localidad": null, "provincia": null, "latitud": null, "longitud": null, "radio (mts": null, "referencia": "Belgrano 358", "empresa": null, "tipo": null, "obs": null, "id": 50, "fuente": "medio ambiente", "expte": "21658/00", "x": 5449878.103, "y": 6489053.418 }, "geometry": { "type": "Point", "coordinates": [ -60.528926520083822, -31.737909102468176 ] } },
{ "type": "Feature", "properties": { "ogc_fid": 51, "nombre": "exp 22931/00", "localidad": null, "provincia": null, "latitud": null, "longitud": null, "radio (mts": null, "referencia": "Pellegrini 468", "empresa": "Telefonica", "tipo": null, "obs": null, "id": 51, "fuente": "medio ambiente", "expte": "22931/00", "x": 5449387.011, "y": 6489168.679 }, "geometry": { "type": "Point", "coordinates": [ -60.53410275440384, -31.736848041709415 ] } },
{ "type": "Feature", "properties": { "ogc_fid": 52, "nombre": "exp 20759/00", "localidad": null, "provincia": null, "latitud": null, "longitud": null, "radio (mts": null, "referencia": "Ramirez 4980", "empresa": "Transportadora gas del Norte", "tipo": null, "obs": null, "id": 52, "fuente": null, "expte": "20759/00", "x": 5450386.207, "y": 6485851.651 }, "geometry": { "type": "Point", "coordinates": [ -60.523727319582939, -31.766805351172664 ] } }
]
}
