{
"type": "FeatureCollection",
"name": "Afectaciones_reporte_desde_SPel",
"crs": { "type": "name", "properties": { "name": "urn:ogc:def:crs:OGC:1.3:CRS84" } },
"features": [
{ "type": "Feature", "properties": { "Name": "Cuenca alta del Arroyo Las Piedras", "description": "Afectaciones por deficiente drenaje en sector comprendido entre Vias FFCC, Caputo, Newbery y Bordon. ", "timestamp": null, "begin": null, "end": null, "altitudeMode": null, "tessellate": 1, "extrude": 0, "visibility": -1, "drawOrder": null, "icon": null }, "geometry": { "type": "Polygon", "coordinates": [ [ [ -60.482327493322927, -31.76961482981817, 0.0 ], [ -60.484109262482278, -31.778102636527251, 0.0 ], [ -60.478356562122748, -31.779028437911521, 0.0 ], [ -60.47635770783905, -31.769274441881571, 0.0 ], [ -60.482327493322927, -31.76961482981817, 0.0 ] ] ] } }
]
}
