{
"type": "FeatureCollection",
"name": "identificacion de demandas 1",
"crs": { "type": "name", "properties": { "name": "urn:ogc:def:crs:OGC:1.3:CRS84" } },
"features": [
{ "type": "Feature", "properties": { "Name": "La Paz 111", "description": "Defensa Civil. 23.11hs. Ingreso de agua a domicilio. Dos menores y personas mayores en el lugar. Este casos probablemente esté asociado a un deficiente drenaje interno de la vivienda. No hay aporte de magnitud por cale La Paz que pueda generar desborde importante que afecten viviendas. En caso de ocurrir puede ser por desborde de cale Corrientes, aunque esa cale tiene buena pendiente. Se deja registro para análisis posterior. " }, "geometry": { "type": "Point", "coordinates": [ -60.526819936759281, -31.729071206348991, 0.0 ] } },
{ "type": "Feature", "properties": { "Name": "Nogoya y Salta", "description": "Defensa Civil. 23.12hs. Árbol caído." }, "geometry": { "type": "Point", "coordinates": [ -60.522045730027664, -31.726559870589309, 0.0 ] } },
{ "type": "Feature", "properties": { "Name": "Uruguay y Piedra Buena", "description": "Defensa Civil. 23.27hs. Árbol caído. También se comunica la Sra Medina solicitando móvil en calle Piedrabuena entre Uruguay y Andrés Pazos ya que se habría caído el árbol que está frente al Club Palma Juniors hacia su cochera." }, "geometry": { "type": "Point", "coordinates": [ -60.516810405177118, -31.734450716198509, 0.0 ] } },
{ "type": "Feature", "properties": { "Name": "Almirante Brown y Cabrera", "description": "Juan Ríos. 23.28hs. Aviso de ingreso de agua a vivienda." }, "geometry": { "type": "Point", "coordinates": [ -60.504016783535192, -31.73962162695673, 0.0 ] } },
{ "type": "Feature", "properties": { "Name": "Cura Álvarez y 25 de Mayo", "description": "Defensa Civil. 23.31hs. Desborde de pluviales por veredas. Cuenca alta de la santiagueña, de rápida respuesta, sin drenaje adecuado, normal para los casos. Se identifica una necesidad de informar sobre acciones en estos casos para minimizar riesgos por mal accionar de ocupantes de vehículos. Demandan alta atención del personal de Defensa Civil." }, "geometry": { "type": "Point", "coordinates": [ -60.519006792923491, -31.737733341175272, 0.0 ] } },
{ "type": "Feature", "properties": { "Name": "Zuñiga 862", "description": "(Juan Ríos)- 23:39 hs – Zuñiga 862: aviso de agua ingresando a vivienda. Se analiza la situación desde gabinete y se observa que puede ser problema por deficiencia de drenaje interno de la vivienda. Se deja registro para análisis posterior." }, "geometry": { "type": "Point", "coordinates": [ -60.503835667124683, -31.735419474878771, 0.0 ] } },
{ "type": "Feature", "properties": { "Name": "Corrientes 316", "description": "(Defensa Civil)- 23:43 hs – Corrientes 316: viento hace caída de tanques de agua de edificio " }, "geometry": { "type": "Point", "coordinates": [ -60.526891288839607, -31.728908249368391, 0.0 ] } },
{ "type": "Feature", "properties": { "Name": "Calle Anacleto Medina - Puerto Viejo", "description": "(Juan Ríos)- 23:45 hs - Pedido de asistencia para Pucheta Sebastián en zona de Playón. " }, "geometry": { "type": "Point", "coordinates": [ -60.541744919750357, -31.717292560452389, 0.0 ] } },
{ "type": "Feature", "properties": { "Name": "Santos Dominguez y Pacto de Unión Nacional", "description": "Móvil 228 - Se cayó una árbol y cortó el tránsito, el cableado quedó sobre los autos." }, "geometry": { "type": "Point", "coordinates": [ -60.510517372368618, -31.7539599120906, 0.0 ] } },
{ "type": "Feature", "properties": { "Name": "Rondeau y Alvar Núñez Cabeza de Vaca", "description": "El móvil 571 informa que había un árbol caído y estaría cubriendo el paso vehicular." }, "geometry": { "type": "Point", "coordinates": [ -60.498532871142203, -31.734360131016409, 0.0 ] } },
{ "type": "Feature", "properties": { "Name": "La Rioja y Uruguay", "description": "Móvil 902 solicita defensa civil ya que se habría caído un árbol en la vía pública." }, "geometry": { "type": "Point", "coordinates": [ -60.523374172667943, -31.732282859622131, 0.0 ] } },
{ "type": "Feature", "properties": { "Name": "República Dominicana y Pedro Seguí", "description": "911. Se comunica un vecino informando que hay un palo caído en la cale, Rep. Dominicana antes de Seguí, defensa civil no atiende, va a ocasionar un accidente." }, "geometry": { "type": "Point", "coordinates": [ -60.50570346492389, -31.74821973875525, 0.0 ] } },
{ "type": "Feature", "properties": { "Name": "Av. Almafuerte antes de Salellas", "description": "911. Se comunica una femenina, informa de un poste de madera en la cinta asfáltica en Almafuerte antes de Salelas, presente móvil 907." }, "geometry": { "type": "Point", "coordinates": [ -60.457677261759159, -31.762119847675599, 0.0 ] } },
{ "type": "Feature", "properties": { "Name": "División de los Andes 1864", "description": "(Juan Ríos)- 00:25 hs - Pedido de asistencia para Yanina Orbes y sus hijos por desborde del arroyo Antoñico. Envía Video, pudiera ser una vivienda en cercanías de la margen. La afectación en arroyo por crecida del arroyo se observa posterior (a lo que se detectó en cuenca alta de la Santiagueña) a las anteriores por una cuestión de tiempo de respuesta de las cuencas o subcuencas de aporte. " }, "geometry": { "type": "Point", "coordinates": [ -60.516766621974327, -31.764775636818651, 0.0 ] } },
{ "type": "Feature", "properties": { "Name": "Florentino Ameghino 164", "description": "(Juan Ríos)- 00:59 hs – Solicitud de asistencia de Gauna Axel y Perujo Lucila con bebe de tres meses y otros menores. Vivienda al lado del arroyo." }, "geometry": { "type": "Point", "coordinates": [ -60.543875597017141, -31.729236439524499, 0.0 ] } },
{ "type": "Feature", "properties": { "Name": "Puente Blanco y Arroyo Antoñico", "description": "(Defensa Civil)- 02:10 hs – Erosión aguas abajo del puente en margen derecha con riesgo para vivienda." }, "geometry": { "type": "Point", "coordinates": [ -60.544695585876553, -31.729627131532361, 0.0 ] } }
]
}
