{
"type": "FeatureCollection",
"name": "Mapeo emergencia_Puntos Criticos para Emergencia",
"crs": { "type": "name", "properties": { "name": "urn:ogc:def:crs:OGC:1.3:CRS84" } },
"features": [
{ "type": "Feature", "properties": { "Name": "La Delfina", "description": null }, "geometry": { "type": "Point", "coordinates": [ -60.54247, -31.714916, 0.0 ] } },
{ "type": "Feature", "properties": { "Name": "Marca de posición sin título", "description": null }, "geometry": { "type": "Point", "coordinates": [ -60.566451, -31.706048, 0.0 ] } },
{ "type": "Feature", "properties": { "Name": "Marca de posición sin título", "description": null }, "geometry": { "type": "Point", "coordinates": [ -60.542643, -31.732726, 0.0 ] } },
{ "type": "Feature", "properties": { "Name": "Marca de posición sin título", "description": null }, "geometry": { "type": "Point", "coordinates": [ -60.541465, -31.737174, 0.0 ] } },
{ "type": "Feature", "properties": { "Name": "Marca de posición sin título", "description": null }, "geometry": { "type": "Point", "coordinates": [ -60.539891, -31.737065, 0.0 ] } },
{ "type": "Feature", "properties": { "Name": "Marca de posición sin título", "description": null }, "geometry": { "type": "Point", "coordinates": [ -60.493087, -31.74976, 0.0 ] } },
{ "type": "Feature", "properties": { "Name": "Marca de posición sin título", "description": null }, "geometry": { "type": "Point", "coordinates": [ -60.494869, -31.744201, 0.0 ] } },
{ "type": "Feature", "properties": { "Name": "Marca de posición sin título", "description": null }, "geometry": { "type": "Point", "coordinates": [ -60.501241, -31.734312, 0.0 ] } },
{ "type": "Feature", "properties": { "Name": "Marca de posición sin título", "description": null }, "geometry": { "type": "Point", "coordinates": [ -60.556662, -31.738895, 0.0 ] } },
{ "type": "Feature", "properties": { "Name": "Marca de posición sin título", "description": null }, "geometry": { "type": "Point", "coordinates": [ -60.556179, -31.736392, 0.0 ] } },
{ "type": "Feature", "properties": { "Name": "Marca de posición sin título", "description": null }, "geometry": { "type": "Point", "coordinates": [ -60.556293, -31.737118, 0.0 ] } },
{ "type": "Feature", "properties": { "Name": "Marca de posición sin título", "description": null }, "geometry": { "type": "Point", "coordinates": [ -60.539755, -31.761346, 0.0 ] } },
{ "type": "Feature", "properties": { "Name": "Marca de posición sin título", "description": null }, "geometry": { "type": "Point", "coordinates": [ -60.546424, -31.724902, 0.0 ] } },
{ "type": "Feature", "properties": { "Name": "Marca de posición sin título", "description": null }, "geometry": { "type": "Point", "coordinates": [ -60.575709, -31.712976, 0.0 ] } },
{ "type": "Feature", "properties": { "Name": "Marca de posición sin título", "description": null }, "geometry": { "type": "Point", "coordinates": [ -60.515413, -31.717673, 0.0 ] } },
{ "type": "Feature", "properties": { "Name": "Marca de posición sin título", "description": null }, "geometry": { "type": "Point", "coordinates": [ -60.513102, -31.717088, 0.0 ] } },
{ "type": "Feature", "properties": { "Name": "Marca de posición sin título", "description": null }, "geometry": { "type": "Point", "coordinates": [ -60.495557, -31.708584, 0.0 ] } },
{ "type": "Feature", "properties": { "Name": "Marca de posición sin título", "description": null }, "geometry": { "type": "Point", "coordinates": [ -60.491341, -31.704399, 0.0 ] } },
{ "type": "Feature", "properties": { "Name": "Marca de posición sin título", "description": null }, "geometry": { "type": "Point", "coordinates": [ -60.576825, -31.71816, 0.0 ] } },
{ "type": "Feature", "properties": { "Name": "Marca de posición sin título", "description": null }, "geometry": { "type": "Point", "coordinates": [ -60.577279, -31.724874, 0.0 ] } },
{ "type": "Feature", "properties": { "Name": "Marca de posición sin título", "description": null }, "geometry": { "type": "Point", "coordinates": [ -60.521768, -31.757767, 0.0 ] } },
{ "type": "Feature", "properties": { "Name": "Marca de posición sin título", "description": null }, "geometry": { "type": "Point", "coordinates": [ -60.5064, -31.730492, 0.0 ] } },
{ "type": "Feature", "properties": { "Name": "Marca de posición sin título", "description": null }, "geometry": { "type": "Point", "coordinates": [ -60.507008, -31.729988, 0.0 ] } },
{ "type": "Feature", "properties": { "Name": "Marca de posición sin título", "description": null }, "geometry": { "type": "Point", "coordinates": [ -60.500137, -31.72667, 0.0 ] } },
{ "type": "Feature", "properties": { "Name": "Marca de posición sin título", "description": null }, "geometry": { "type": "Point", "coordinates": [ -60.507651, -31.72212, 0.0 ] } },
{ "type": "Feature", "properties": { "Name": "Marca de posición sin título", "description": null }, "geometry": { "type": "Point", "coordinates": [ -60.506275, -31.718856, 0.0 ] } },
{ "type": "Feature", "properties": { "Name": "Marca de posición sin título", "description": null }, "geometry": { "type": "Point", "coordinates": [ -60.537717, -31.71465, 0.0 ] } },
{ "type": "Feature", "properties": { "Name": "Marca de posición sin título", "description": null }, "geometry": { "type": "Point", "coordinates": [ -60.556263, -31.736684, 0.0 ] } }
]
}
