{
"type": "FeatureCollection",
"name": "puntos_de_encuentro",
"crs": { "type": "name", "properties": { "name": "urn:ogc:def:crs:OGC:1.3:CRS84" } },
"features": [
{ "type": "Feature", "properties": { "id": 1, "nombre": "1- PUNTO ENCUENTRO 33 ORIENTALES", "cuenca": "ANTOÑICO", "tramo": "JM. PAZ Y AMEGHINO", "inst_1": "PALO SUM 33 ORIENTALES", "inst_2": "MODULOS DE CARPAS DE 10 PERSONAS CADA UNO", "inst_3": "BAÑOS QUIMICOS + CISTERNA CON AGUA + DISPENSER CON AGUA", "radio": "500M", "capacidad": "50/60 PERSONAS", "descrip": "Este punto de encuentro preve ubicarse en playon deportivo del 33 Orientales. Anexo se encuentra el SUM 33 Orientales como PALO. El destino principal son afectados en margenes del arroyo Antoñico en el tramo entre Ameghino y JM Paz." }, "geometry": { "type": "Point", "coordinates": [ -60.541037658773767, -31.733638828876622 ] } },
{ "type": "Feature", "properties": { "id": 2, "nombre": "2- PUNTO ENCUENTRO ENFERMERIA", "cuenca": "LAS VIEJAS", "tramo": "BROWN - JUNIN", "inst_1": "PALO CIC ESTE", "inst_2": "MODULOS DE CARPAS DE 10 PERSONAS CADA UNO", "inst_3": "BAÑOS QUIMICOS + CISTERNA CON AGUA + DISPENSER CON AGUA", "radio": "500M", "capacidad": "50/60 PERSONAS", "descrip": "Este punto de encuentro preve ubicarse en calzada y Darsena de calle Ferrarotti. Anexo se encuentra el CIC Este como PALO. El destino principal son afectados en margenes del arroyo Colorado en el tramo entre Brown y Junin" }, "geometry": { "type": "Point", "coordinates": [ -60.493455702073071, -31.743849285798557 ] } },
{ "type": "Feature", "properties": { "id": 4, "nombre": "4- PUNTO ENCUENTRO FRANCISCO RAMIREZ", "cuenca": "ANTOÑICO", "tramo": "ESTRADA - LAPRIDA", "inst_1": "PALO ???", "inst_2": "MODULOS DE CARPAS DE 10 PERSONAS CADA UNO", "inst_3": "BAÑOS QUIMICOS + CISTERNA CON AGUA + DISPENSER CON AGUA", "radio": "500M", "capacidad": "50/60 PERSONAS", "descrip": "Este punto de encuentro preve ubicarse entro del prdio de Parque y Paseos o en polideportivo de Pancho Ramirez (al finalizar la obra). El destino principal son afectados en margenes del arroyo Antoñico en el tramo entre Estrada y Laprida" }, "geometry": { "type": "Point", "coordinates": [ -60.541885149189625, -31.720441103551831 ] } },
{ "type": "Feature", "properties": { "id": 6, "nombre": "6- PUNTO ENCUENTRO RIO PUERTO SANCHEZ", "cuenca": "RIO PARANA", "tramo": "LAS VIEJAS - PUERTO NUEVO", "inst_1": "PALO ESCUELA 100??", "inst_2": "MODULOS DE CARPAS DE 10 PERSONAS CADA UNO", "inst_3": "BAÑOS QUIMICOS + CISTERNA CON AGUA + DISPENSER CON AGUA", "radio": "800M", "capacidad": "50/60 PERSONAS", "descrip": "Este punto de encuentro preve ubicarse paseo Bravard en la zona alta en cercanizas de las escaleras que conectan con Puerto Sanchez. El destino principal son afectados en borde costero del sector, además puede recibir afectados de Villa Almendral y Barr" }, "geometry": { "type": "Point", "coordinates": [ -60.512276958631602, -31.717709499363824 ] } },
{ "type": "Feature", "properties": { "id": 7, "nombre": "7- PUNTO ENCUENTRO RIO ARENALES TOMA NUEVA", "cuenca": "RIO PARANA", "tramo": "CAMINO COSTERO - NAUTICO", "inst_1": "PALO CAPS TOMA NUEVA", "inst_2": "MODULOS DE CARPAS DE 10 PERSONAS CADA UNO", "inst_3": "BAÑOS QUIMICOS + CISTERNA CON AGUA + DISPENSER CON AGUA", "radio": "1000M", "capacidad": "50/ 60 PERSONAS", "descrip": "Este punto de encuentro preve ubicarse en playon de la plaza de calle Jozami. El destino principal son afectados en borde costero del sector que incluye Arenales Toma Nueva y Camino Costero. Existen afectados desde altura +5.00 de escala local. Como PALO" }, "geometry": { "type": "Point", "coordinates": [ -60.495919299456055, -31.711228044807854 ] } },
{ "type": "Feature", "properties": { "id": 5, "nombre": "5- PUNTO ENCUENTRO RIO BAJADA GRANDE", "cuenca": "RIO PARANA", "tramo": "DESCARGA CLOACA-BALSA", "inst_1": "PALO JARDIN PATITO SIRIRI?", "inst_2": "MODULOS DE CARPAS DE 10 PERSONAS CADA UNO", "inst_3": "BAÑOS QUIMICOS + CISTERNA CON AGUA + DISPENSER CON AGUA", "radio": "2000M", "capacidad": "150 PERSONAS", "descrip": "Este punto de encuentro preve ubicarse en terreno canchita de calle Larramendi hasta crecidas de cota ign +16 (+6.50 escala) y luego trasladar a plaza Gregoria Perez. El destino principal son afectados en borde costero del sector. Existen afectados desde" }, "geometry": { "type": "Point", "coordinates": [ -60.569382023956265, -31.710230305852473 ] } },
{ "type": "Feature", "properties": { "id": 3, "nombre": "3- PUNTO ENCUENTRO SAN CAYETANO", "cuenca": "LAS VIEJAS", "tramo": "FRATERNIDAD - DON BOSCO", "inst_1": "PALO ESCUELA HOGAR??", "inst_2": "MODULOS DE CARPAS DE 10 PERSONAS CADA UNO", "inst_3": "BAÑOS QUIMICOS + CISTERNA CON AGUA + DISPENSER CON AGUA", "radio": "LAS VIEJAS", "capacidad": "50/60 PERSONAS", "descrip": "Este punto de encuentro preve ubicarse entro del prdio de la Escuela Hogar. El destino principal son afectados en margenes del arroyo Colorado en el tramo entre Don Bosco y Fraternidad" }, "geometry": { "type": "Point", "coordinates": [ -60.502836774734732, -31.732424883457256 ] } }
]
}
