{
"type": "FeatureCollection",
"name": "escuelas_deportivas",
"crs": { "type": "name", "properties": { "name": "urn:ogc:def:crs:OGC:1.3:CRS84" } },
"features": [
{ "type": "Feature", "properties": { "id": 1, "nombre": "Polideportivo Fco Ramirez", "tipo": "Escuelas de Basquet", "dias_y_hor": "Lu, Mie, Vier 17 a 19 hs" }, "geometry": { "type": "MultiPoint", "coordinates": [ [ -60.542938667242396, -31.724025127049106 ] ] } },
{ "type": "Feature", "properties": { "id": 2, "nombre": "Club San Agustin", "tipo": "Escuelas de Basquet", "dias_y_hor": "Lunes a Viernes 17 a 19 hs" }, "geometry": { "type": "MultiPoint", "coordinates": [ [ -60.5465685211582, -31.736603444756948 ] ] } },
{ "type": "Feature", "properties": { "id": 3, "nombre": "Esc Juan Manuel de Rosas", "tipo": "Escuelas de Futbol", "dias_y_hor": "Lun, Mier, Vier 17 a 19 hs" }, "geometry": { "type": "MultiPoint", "coordinates": [ [ -60.554682740159706, -31.737226237794893 ] ] } },
{ "type": "Feature", "properties": { "id": 4, "nombre": "Complejo  B El Sol", "tipo": "Escuelas de Futbol", "dias_y_hor": "Lun, Mie y Vier  17 a 19 hs" }, "geometry": { "type": "MultiPoint", "coordinates": [ [ -60.542676954071226, -31.738284101254841 ] ] } },
{ "type": "Feature", "properties": { "id": 5, "nombre": "Vecinal Barrio Belgrano", "tipo": "Escuelas de Futbol", "dias_y_hor": "Lun, Mier, Vier 17 a 19 hs" }, "geometry": { "type": "MultiPoint", "coordinates": [ [ -60.532688385542265, -31.745955909254036 ] ] } },
{ "type": "Feature", "properties": { "id": 6, "nombre": "Polideportivo Parana V", "tipo": "Escuelas de Basquet", "dias_y_hor": "Lun, Mie y Vier  17 a 19 hs" }, "geometry": { "type": "MultiPoint", "coordinates": [ [ -60.508678256139881, -31.755966159649748 ] ] } },
{ "type": "Feature", "properties": { "id": 7, "nombre": "Polideportivo AATRA III", "tipo": "Escuelas de Basquet", "dias_y_hor": "Lun, Mier y Vier 17 a 19 hs" }, "geometry": { "type": "MultiPoint", "coordinates": [ [ -60.48678076645038, -31.742878485330817 ] ] } },
{ "type": "Feature", "properties": { "id": 8, "nombre": "Polideportivo Parana XIV", "tipo": "Escuelas de Basquet", "dias_y_hor": "Martes y Jueves  17 a 19 hs" }, "geometry": { "type": "MultiPoint", "coordinates": [ [ -60.492576265170733, -31.74452162809628 ] ] } },
{ "type": "Feature", "properties": { "id": 9, "nombre": "Polideportivo Jose Hernandez", "tipo": "Escuelas de Futbol Femenino", "dias_y_hor": "Martes y Jueves  16 a 19 hs" }, "geometry": { "type": "MultiPoint", "coordinates": [ [ -60.493244355688894, -31.728460642738529 ] ] } },
{ "type": "Feature", "properties": { "id": 10, "nombre": "Club Atletico Ministerio", "tipo": "Escuelas de Futbol", "dias_y_hor": "Lunes a Viernes 17 a 19 hs" }, "geometry": { "type": "MultiPoint", "coordinates": [ [ -60.509116561133688, -31.722746745868939 ] ] } },
{ "type": "Feature", "properties": { "id": 11, "nombre": "Polideportivo Santa Teresita", "tipo": "Escuelas de Futbol", "dias_y_hor": "Martes y Jueves de 17 a 21hs" }, "geometry": { "type": "MultiPoint", "coordinates": [ [ -60.511034500872597, -31.742439240779095 ] ] } },
{ "type": "Feature", "properties": { "id": 12, "nombre": "Polideportivo 33 Orientales", "tipo": "Escuelas de Basquet", "dias_y_hor": "Lun, Mier y Vier 17 a 19 hs" }, "geometry": { "type": "MultiPoint", "coordinates": [ [ -60.540976172519805, -31.733589987860078 ] ] } },
{ "type": "Feature", "properties": { "id": 13, "nombre": "Polideportivo Lopez Jordan", "tipo": "Esc Hockey sobre Patines", "dias_y_hor": "Lunes y Jueves 17 a 19 hs" }, "geometry": { "type": "MultiPoint", "coordinates": [ [ -60.485297201673305, -31.751472742288364 ] ] } },
{ "type": "Feature", "properties": { "id": 14, "nombre": "Club San Miguel", "tipo": "Escuelas de Voley", "dias_y_hor": "Lun, Mie y Vier 17 a 19 hs" }, "geometry": { "type": "MultiPoint", "coordinates": [ [ -60.554556080027588, -31.737361932892203 ] ] } },
{ "type": "Feature", "properties": { "id": 15, "nombre": "Vecinal Mosconi Nuevo", "tipo": "Escuelas de Futbol", "dias_y_hor": "Lunes a Viernes  17 a 19 hs" }, "geometry": { "type": "MultiPoint", "coordinates": [ [ -60.553904632147763, -31.723485627627024 ] ] } },
{ "type": "Feature", "properties": { "id": 16, "nombre": "Vecinal Circunvalacion", "tipo": "Escuelas de Futbol", "dias_y_hor": "Martes y Jueves de 17 a 19 hs" }, "geometry": { "type": "MultiPoint", "coordinates": [ [ -60.480730500607734, -31.74484967590945 ] ] } },
{ "type": "Feature", "properties": { "id": 17, "nombre": "Vecinal Gauchito Gil", "tipo": "Escuelas de Futbol", "dias_y_hor": "Mar y Jue 17:30 a 19;30 hs y dom 10:30 a 12 hs" }, "geometry": { "type": "MultiPoint", "coordinates": [ [ -60.513115419959554, -31.765888937444299 ] ] } },
{ "type": "Feature", "properties": { "id": 18, "nombre": "Club Atletico Alumni", "tipo": "Escuelas de Voley", "dias_y_hor": "Martes y Jueves 17 a 19 hs" }, "geometry": { "type": "MultiPoint", "coordinates": [ [ -60.509805730694623, -31.724954983800657 ] ] } },
{ "type": "Feature", "properties": { "id": 19, "nombre": "Escuela de Comercio N 1", "tipo": "Escuelas de Futbol", "dias_y_hor": "Lun, Mierc y Vier 17 a 20 hs" }, "geometry": { "type": "MultiPoint", "coordinates": [ [ -60.516260282168005, -31.740655290025003 ] ] } },
{ "type": "Feature", "properties": { "id": 20, "nombre": "Club Atletico Palermo", "tipo": "Escuelas de Basquet", "dias_y_hor": "Lun, Mier, Vier 16 a 19 hs" }, "geometry": { "type": "MultiPoint", "coordinates": [ [ -60.518340934149357, -31.751184514579087 ] ] } },
{ "type": "Feature", "properties": { "id": 21, "nombre": "Vecinal F. A. de Larramendi", "tipo": "Esc Hockey sobre Cesped", "dias_y_hor": "Lun, Mie y Vier  17 a 19 hs" }, "geometry": { "type": "MultiPoint", "coordinates": [ [ -60.558900676300958, -31.711406921456714 ] ] } },
{ "type": "Feature", "properties": { "id": 22, "nombre": "Parque Gazzano", "tipo": "Escuela de Atletismo", "dias_y_hor": "Lunes y Miercoles de 16:30 a 19 hs" }, "geometry": { "type": "MultiPoint", "coordinates": [ [ -60.502967072258336, -31.766814636306908 ] ] } },
{ "type": "Feature", "properties": { "id": 23, "nombre": "Vecinal Puerto Viejo", "tipo": "Escuelas de Futbol", "dias_y_hor": "Martes, Jueves de 17 a 19 hs" }, "geometry": { "type": "MultiPoint", "coordinates": [ [ -60.541847557406484, -31.71720848415579 ] ] } },
{ "type": "Feature", "properties": { "id": 24, "nombre": "Vecinal Antonini", "tipo": "Escuelas de Futbol", "dias_y_hor": "Martes y Jueves 17 a 19 hs" }, "geometry": { "type": "MultiPoint", "coordinates": [ [ -60.534668397569547, -31.749284796634534 ] ] } },
{ "type": "Feature", "properties": { "id": 25, "nombre": "Vecinal Lomas del Mirador II", "tipo": "Escuelas de Futbol", "dias_y_hor": "Lun, Mier y Viern de 17 a 19" }, "geometry": { "type": "MultiPoint", "coordinates": [ [ -60.48777649697589, -31.751973414241569 ] ] } },
{ "type": "Feature", "properties": { "id": 26, "nombre": "Vecinal Prefectura Naval Argentina", "tipo": "Escuelas de Futbol", "dias_y_hor": "Lunes y Miercoles  17 a 19 hs" }, "geometry": { "type": "MultiPoint", "coordinates": [ [ -60.496962585431937, -31.785790561483775 ] ] } },
{ "type": "Feature", "properties": { "id": 27, "nombre": "Vecinal Toma Nueva", "tipo": "Escuelas de Futbol", "dias_y_hor": "Lunes a Viernes 17 a 19 hs" }, "geometry": { "type": "MultiPoint", "coordinates": [ [ -60.492524481554511, -31.711073919782159 ] ] } },
{ "type": "Feature", "properties": { "id": 28, "nombre": "Vecinal Unidad", "tipo": "Escuelas de Futbol", "dias_y_hor": "Lun, Martes y Jueves  17 a 19 hs" }, "geometry": { "type": "MultiPoint", "coordinates": [ [ -60.483052647743662, -31.771590742761891 ] ] } },
{ "type": "Feature", "properties": { "id": 29, "nombre": "Polideportivo Santa Teresita", "tipo": "Escuelas de Basquet", "dias_y_hor": "Lun, Mie y Vier 17 a 19 hs" }, "geometry": { "type": "MultiPoint", "coordinates": [ [ -60.510871721870203, -31.74247953357845 ] ] } },
{ "type": "Feature", "properties": { "id": 30, "nombre": "Club Atletico Ministerio", "tipo": "Esc Hockey sobre Cesped", "dias_y_hor": "Lu, Mie , Jue y  Vie 16:30 a 19 hs" }, "geometry": { "type": "MultiPoint", "coordinates": [ [ -60.508627701739563, -31.722752839526464 ] ] } },
{ "type": "Feature", "properties": { "id": 31, "nombre": "Vecinal Toma Nueva (arenales)", "tipo": "Esc Hockey sobre Cesped", "dias_y_hor": "Martes y Viernes 17 a 19 hs" }, "geometry": { "type": "MultiPoint", "coordinates": [ [ -60.492868847807109, -31.711030165105221 ] ] } },
{ "type": "Feature", "properties": { "id": 32, "nombre": "Parque Berduc", "tipo": "Escuelas de Futbol", "dias_y_hor": "Lun. Mie y Vier 17 a 19 hs" }, "geometry": { "type": "MultiPoint", "coordinates": [ [ -60.519944721496564, -31.726216090248155 ] ] } },
{ "type": "Feature", "properties": { "id": 33, "nombre": "Parque Berduc", "tipo": "Escuela Atletismo", "dias_y_hor": "Martes y Jueves 16;30 a 19 hs" }, "geometry": { "type": "MultiPoint", "coordinates": [ [ -60.519828605761319, -31.725955226265885 ] ] } },
{ "type": "Feature", "properties": { "id": 34, "nombre": "Club Vida Feliz", "tipo": "Escuela de Softbol", "dias_y_hor": "Martes y Jueves 17 a 19 hs" }, "geometry": { "type": "MultiPoint", "coordinates": [ [ -60.518516113180063, -31.763509580806868 ] ] } },
{ "type": "Feature", "properties": { "id": 35, "nombre": "Club Atletico  Palma Junior", "tipo": "Escuela de Boxeo", "dias_y_hor": "Lun a Jue 16 a 18 hs Vier 15 a 17 hs" }, "geometry": { "type": "MultiPoint", "coordinates": [ [ -60.517323363145572, -31.73483822769154 ] ] } },
{ "type": "Feature", "properties": { "id": 36, "nombre": "Darsena Puerto Nuevo", "tipo": "Escuela de Canotaje", "dias_y_hor": "Martes 14.30 a 18 hs" }, "geometry": { "type": "MultiPoint", "coordinates": [ [ -60.517996232244847, -31.71943303052306 ] ] } },
{ "type": "Feature", "properties": { "id": 37, "nombre": "Pista Parque Industrial", "tipo": "Escuela de Ciclismo", "dias_y_hor": "Lun, Mier y Vier 16 a 18:30 hs Mar y Jue" }, "geometry": { "type": "MultiPoint", "coordinates": [ [ -60.44918164892627, -31.769797651090986 ] ] } },
{ "type": "Feature", "properties": { "id": 38, "nombre": "Club Atletico Estudiantes", "tipo": "Escuela de Natacion", "dias_y_hor": "Martes  Jueves  y Viernes 9 a  10.30 hs" }, "geometry": { "type": "MultiPoint", "coordinates": [ [ -60.538146160202132, -31.720392204056562 ] ] } },
{ "type": "Feature", "properties": { "id": 39, "nombre": "Atletico Rowing Club", "tipo": "Escuela de Natación", "dias_y_hor": "Sabado de 8 a 9 hs" }, "geometry": { "type": "MultiPoint", "coordinates": [ [ -60.532774455364837, -31.718088379302223 ] ] } },
{ "type": "Feature", "properties": { "id": 40, "nombre": "Polideportivo Lomas del Mirador I", "tipo": "Escuelas de Futbol", "dias_y_hor": "Lun, Mie y Vier 17 a 19 hs" }, "geometry": { "type": "MultiPoint", "coordinates": [ [ -60.488228215409841, -31.748597615412944 ] ] } },
{ "type": "Feature", "properties": { "id": 41, "nombre": "Polideportivo Jose Hernandez", "tipo": "Escuelas de Basquet", "dias_y_hor": "Lunes, Viernes 16 a 19 hs" }, "geometry": { "type": "MultiPoint", "coordinates": [ [ -60.493573093146942, -31.728402732996557 ] ] } },
{ "type": "Feature", "properties": { "id": 42, "nombre": "Polideportivo Lopez Jordan", "tipo": "Escuela de Voley", "dias_y_hor": "Mar , Jueves  y Viernes 17 a 19 hs" }, "geometry": { "type": "MultiPoint", "coordinates": [ [ -60.485456620221584, -31.755410908246702 ] ] } },
{ "type": "Feature", "properties": { "id": 43, "nombre": "Vecinal Santa Lucia", "tipo": "Escuelas de Futbol", "dias_y_hor": "Martes y Jueves 17 a 19 hs" }, "geometry": { "type": "MultiPoint", "coordinates": [ [ -60.514839385106228, -31.770022114159623 ] ] } },
{ "type": "Feature", "properties": { "id": 44, "nombre": "Vecinal Capiba", "tipo": "Esc Hockey sobre Cesped", "dias_y_hor": "Lu, Mie, Vier 17 a 19 hs" }, "geometry": { "type": "MultiPoint", "coordinates": [ [ -60.500302760580787, -31.794999130510242 ] ] } },
{ "type": "Feature", "properties": { "id": 45, "nombre": "Vecinal Co.Ve.Flo", "tipo": "Escuelas de Futbol", "dias_y_hor": "Martes y Jueves 17 a 19 hs" }, "geometry": { "type": "MultiPoint", "coordinates": [ [ -60.548292476821608, -31.729003792034881 ] ] } },
{ "type": "Feature", "properties": { "id": 46, "nombre": "Club Atletico Universitario", "tipo": "Escuelas de Futbol", "dias_y_hor": "Mar y Jueves 14:30 a 16:30 hs" }, "geometry": { "type": "MultiPoint", "coordinates": [ [ -60.497999241783127, -31.749892779536015 ] ] } },
{ "type": "Feature", "properties": { "id": 47, "nombre": "Polideportivo LOmas del Mirador II", "tipo": "Futbol Juvenil", "dias_y_hor": "Lu, Mie, Vier 15 a 17 hs (mixto)" }, "geometry": { "type": "MultiPoint", "coordinates": [ [ -60.48757563500223, -31.752020264261859 ] ] } },
{ "type": "Feature", "properties": { "id": 48, "nombre": "Vecinal 120 viviendas", "tipo": "Escuelas de Futbol", "dias_y_hor": "Martes y Jueves 17 a 19 hs" }, "geometry": { "type": "MultiPoint", "coordinates": [ [ -60.484883288249776, -31.746876790290383 ] ] } },
{ "type": "Feature", "properties": { "id": 49, "nombre": "Vecinal Las Flores", "tipo": "Escuelas de Futbol", "dias_y_hor": "Martes y Jueves 17 a 19 hs" }, "geometry": { "type": "MultiPoint", "coordinates": [ [ -60.544103373468189, -31.730851287585008 ] ] } },
{ "type": "Feature", "properties": { "id": 50, "nombre": "Vecinal El Buen Pastor", "tipo": "Escuelas de Futbol", "dias_y_hor": "Miercoles y Viernes 17 a 19 hs" }, "geometry": { "type": "MultiPoint", "coordinates": [ [ -60.508851876135246, -31.764745198148042 ] ] } },
{ "type": "Feature", "properties": { "id": 51, "nombre": "Vecinal 240 viviendas (ASVER)", "tipo": "Escuelas de Futbol", "dias_y_hor": "Lun, Mier, Vier 17 a 19 hs" }, "geometry": { "type": "MultiPoint", "coordinates": [ [ -60.515262286692156, -31.776080922977997 ] ] } },
{ "type": "Feature", "properties": { "id": 52, "nombre": "Club Atletico Pearol", "tipo": "Escuelas de Futbol", "dias_y_hor": "Lunes a Viernes 14:30 a 17 hs" }, "geometry": { "type": "MultiPoint", "coordinates": [ [ -60.536421434869169, -31.738742437933169 ] ] } },
{ "type": "Feature", "properties": { "id": 53, "nombre": "Vecinal El Trebol", "tipo": "Escuelas de Futbol", "dias_y_hor": "Lu, Mie, y Vier 17 a 19 hs" }, "geometry": { "type": "MultiPoint", "coordinates": [ [ -60.46586819746306, -31.752062669068494 ] ] } },
{ "type": "Feature", "properties": { "id": 54, "nombre": "Complejo El Sol", "tipo": "Escuelas de Futbol Femenino", "dias_y_hor": "Lu, Mie, Vier 17 a 19 hs" }, "geometry": { "type": "MultiPoint", "coordinates": [ [ -60.542333312271658, -31.738339389183828 ] ] } },
{ "type": "Feature", "properties": { "id": 55, "nombre": "Vecinal San Martin (Volcadero)", "tipo": "Escuelas de Futbol Femenino", "dias_y_hor": "Lunes Jueves de 17 a 19 hs" }, "geometry": { "type": "MultiPoint", "coordinates": [ [ -60.559523403832877, -31.726309927550659 ] ] } },
{ "type": "Feature", "properties": { "id": 56, "nombre": "Vecinal Los Pinos", "tipo": "Escuelas de Futbol Femenino", "dias_y_hor": "Martes , Jueves 17 a 19 hs" }, "geometry": { "type": "MultiPoint", "coordinates": [ [ -60.515257572248352, -31.763318196720512 ] ] } },
{ "type": "Feature", "properties": { "id": 57, "nombre": "Vecinal Plan Piloto E. Ramirez", "tipo": "Escuelas de Futbol", "dias_y_hor": "Lunes, Jueves de 17 a 19 hs" }, "geometry": { "type": "MultiPoint", "coordinates": [ [ -60.555843754581431, -31.728170492984692 ] ] } },
{ "type": "Feature", "properties": { "id": 58, "nombre": "Club Atletico Bajada Grande", "tipo": "Escuelas de Basquet", "dias_y_hor": "Lu, Mie, Vier 17 a 19 hs" }, "geometry": { "type": "MultiPoint", "coordinates": [ [ -60.562437726106971, -31.71031521009456 ] ] } },
{ "type": "Feature", "properties": { "id": 59, "nombre": "Polideportivo Lomas del Mirador II", "tipo": "Escuelas de Basquet", "dias_y_hor": "Martes, Jue y Viernes de 17 a 19 hs" }, "geometry": { "type": "MultiPoint", "coordinates": [ [ -60.487603044455454, -31.752160101767426 ] ] } },
{ "type": "Feature", "properties": { "id": 60, "nombre": "Vecinal CO:VE:FLO:", "tipo": "Escuelas de Basquet", "dias_y_hor": "Martes y Jueves 17 :30 a 19:30 hs" }, "geometry": { "type": "MultiPoint", "coordinates": [ [ -60.548121151611085, -31.729250144576596 ] ] } },
{ "type": "Feature", "properties": { "id": 61, "nombre": "Vecinal La Delfina", "tipo": "Escuelas de Voley", "dias_y_hor": "Lu, Mie, Vier 17 a 19 hs" }, "geometry": { "type": "MultiPoint", "coordinates": [ [ -60.529071171071713, -31.750502636444352 ] ] } },
{ "type": "Feature", "properties": { "id": 62, "nombre": "Polideportivo Anacleto Medina", "tipo": "Escuelas de Voley", "dias_y_hor": "Lu, Mie, Vier 17 a 19 hs y Mar y Jue" }, "geometry": { "type": "MultiPoint", "coordinates": [ [ -60.554577398162969, -31.744296512364727 ] ] } },
{ "type": "Feature", "properties": { "id": 63, "nombre": "Polideportivo B AATRA III", "tipo": "Escuelas de Voley", "dias_y_hor": "Martes y Jueves 17 a 19 hs" }, "geometry": { "type": "MultiPoint", "coordinates": [ [ -60.486639722843485, -31.742894052425747 ] ] } },
{ "type": "Feature", "properties": { "id": 64, "nombre": "Polideportivo Vecinal M Moreno", "tipo": "Escuelas de Voley", "dias_y_hor": "Martes y Jueves 17 a 19 hs" }, "geometry": { "type": "MultiPoint", "coordinates": [ [ -60.497498798922635, -31.735706060163565 ] ] } },
{ "type": "Feature", "properties": { "id": 65, "nombre": "Vecinal Padre Kolbe", "tipo": "Escuelas de Voley", "dias_y_hor": "Martes y Jueves  16 a 18 hs" }, "geometry": { "type": "MultiPoint", "coordinates": [ [ -60.546830446675202, -31.745184296052855 ] ] } },
{ "type": "Feature", "properties": { "id": 66, "nombre": "Club Atletico Racing", "tipo": "Escuela de Boxeo", "dias_y_hor": "Lu, Mie, Vier 15:30  a 18 hs" }, "geometry": { "type": "MultiPoint", "coordinates": [ [ -60.508446974250909, -31.730819402620234 ] ] } },
{ "type": "Feature", "properties": { "id": 67, "nombre": "Asociacin de Bochas", "tipo": "Escuela de Boxeo", "dias_y_hor": "Lunes a Viernes 17 a 19 hs" }, "geometry": { "type": "MultiPoint", "coordinates": [ [ -60.513644560450182, -31.754091030043352 ] ] } },
{ "type": "Feature", "properties": { "id": 68, "nombre": "Vecinal Jorge Newbery Oeste", "tipo": "Escuela de Kicboxing", "dias_y_hor": "Martes de 17 a 19 hs" }, "geometry": { "type": "MultiPoint", "coordinates": [ [ -60.50331466703944, -31.773808819347593 ] ] } },
{ "type": "Feature", "properties": { "id": 69, "nombre": "Club Don Bosco", "tipo": "Escuela de Ciclismo", "dias_y_hor": "Lu, Mie, Vier 16:30 a 18:30 hs" }, "geometry": { "type": "MultiPoint", "coordinates": [ [ -60.508344702570263, -31.733231247675576 ] ] } },
{ "type": "Feature", "properties": { "id": 70, "nombre": "Vecinal San Roque", "tipo": "Escuela de Ciclismo", "dias_y_hor": "Martes y Jueves 15:30  a 17:30 hs" }, "geometry": { "type": "MultiPoint", "coordinates": [ [ -60.506381326305004, -31.730771300935579 ] ] } },
{ "type": "Feature", "properties": { "id": 71, "nombre": "Balneario Playas del Thompson", "tipo": "Escuela de Atletismo", "dias_y_hor": "Martes y Viernes 17 a 19 hs" }, "geometry": { "type": "MultiPoint", "coordinates": [ [ -60.508881606700363, -31.714272714935802 ] ] } },
{ "type": "Feature", "properties": { "id": 72, "nombre": "Club Softbol Play", "tipo": "Escuela de Softbol", "dias_y_hor": "Lun, Mier, Vier 16 a 19 hs" }, "geometry": { "type": "MultiPoint", "coordinates": [ [ -60.468004030903302, -31.763760140571833 ] ] } },
{ "type": "Feature", "properties": { "id": 73, "nombre": "Club Atletico Alumni", "tipo": "Esc Hockey sobre Patines", "dias_y_hor": "Lu, Mie, Vier 17 a 20 hs" }, "geometry": { "type": "MultiPoint", "coordinates": [ [ -60.509835852054564, -31.725034369017909 ] ] } },
{ "type": "Feature", "properties": { "id": 74, "nombre": "Polideportivo Lopez Jordan", "tipo": "Esc Gimnasia Artistica  Deportiva", "dias_y_hor": "Mar , Jueves  y Viernes 17 a 19 hs" }, "geometry": { "type": "MultiPoint", "coordinates": [ [ -60.485507517291097, -31.755679679507558 ] ] } },
{ "type": "Feature", "properties": { "id": 75, "nombre": "Casa de la Mujer", "tipo": "Escuela de Taekwondo", "dias_y_hor": "Lunes y Miercoles  17 a 19 hs" }, "geometry": { "type": "MultiPoint", "coordinates": [ [ -60.530500916355656, -31.72640733323043 ] ] } },
{ "type": "Feature", "properties": { "id": 76, "nombre": "Vecinal Padre Kolbe", "tipo": "Escuelas de Futbol", "dias_y_hor": "Mar, Mier y Jueves de 18 a 20 hs" }, "geometry": { "type": "MultiPoint", "coordinates": [ [ -60.546736940568863, -31.745016437050385 ] ] } },
{ "type": "Feature", "properties": { "id": 77, "nombre": "Vecinal F. A. de Larramendi", "tipo": "Esc Hockey sobre Cesped", "dias_y_hor": "Martes y Jueves 17a 19hs" }, "geometry": { "type": "MultiPoint", "coordinates": [ [ -60.559191881470142, -31.71132658229201 ] ] } },
{ "type": "Feature", "properties": { "id": 78, "nombre": "Vecinal Mosconi Viejo", "tipo": "Escuelas de Futbol", "dias_y_hor": "Lun, Mie y Vier  15 a 17 hs" }, "geometry": { "type": "MultiPoint", "coordinates": [ [ -60.55288659290035, -31.726908403808903 ] ] } },
{ "type": "Feature", "properties": { "id": 79, "nombre": "Vecinal Hijos de Maria", "tipo": "Escuela de Taekwondo", "dias_y_hor": "Mar ,Jue y Vier 17 a 19 hs" }, "geometry": { "type": "MultiPoint", "coordinates": [ [ -60.489976196324122, -31.748657063022652 ] ] } }
]
}
