{
"type": "FeatureCollection",
"name": "playon_polideportivo",
"crs": { "type": "name", "properties": { "name": "urn:ogc:def:crs:OGC:1.3:CRS84" } },
"features": [
{ "type": "Feature", "properties": { "id": 1, "fid": 1, "nombre": "Piletas del Barrio El Sol", "direccion": "Santos Vega, & Cnel. Caminos ", "tipo": "Polideportivo con pileta", "tipo1": "MEDIANA Y TERC. EDAD: *Yoga: Martes y jueves 16:00 hs\n*Localizada: Lunes, miércoles y viernes 9:00 hs\n*Caminata y entrenamiento localizado: Lunes, miércoles y viernes 10:00 hs\n*Caminatas y entrenamien", "tipo2": "Direccion de Deporte Social - Municipalidad de Paraná", "tipo3": 4355208 }, "geometry": { "type": "Point", "coordinates": [ -60.54266, -31.73804 ] } },
{ "type": "Feature", "properties": { "id": 2, "fid": 2, "nombre": "Parque Gazzano", "direccion": "Avenida Pedro Zanni 1723", "tipo": "Polideportivo con pileta", "tipo1": "TERCERA Y MEDIANA EDAD: *Caminata y Entrenamiento: Lunes, miércoles y viernes 8:00 hs. \n*Entrenamiento localizado: Lunes, miércoles y viernes 9:00 hs\n*Yoga: Lunes, miércoles y viernes 10:30 hs\n*Entren", "tipo2": "Direccion de Deporte Social - Municipalidad de Paraná", "tipo3": 4355208 }, "geometry": { "type": "Point", "coordinates": [ -60.5006, -31.76714 ] } },
{ "type": "Feature", "properties": { "id": 3, "fid": 3, "nombre": "Complejo Deportivo R. Alfonsín", "direccion": "Bernardo Houssay & Juan A. Barbagelata", "tipo": "Polideportivo con pileta", "tipo1": "TERCERA Y MEDIANA EDAD: *Zumba: Lunes, miércoles y viernes 8:00 hs y 15:00 hs.\n*Yoga: Lunes, miércoles y viernes 9:00 hs\n*Localizada: Martes y jueves 16:00 hs\n*Entrenamiento localizado intensivo: Mart", "tipo2": "Direccion de Deporte Social - Municipalidad de Paraná", "tipo3": 4355208 }, "geometry": { "type": "Point", "coordinates": [ -60.51843, -31.76375 ] } },
{ "type": "Feature", "properties": { "id": 4, "fid": 4, "nombre": "Complejo Comunitario Bo. Mitre", "direccion": "Calle 1112 y Avda. Ejercito", "tipo": "Polideportivo con pileta", "tipo1": "", "tipo2": "", "tipo3": null }, "geometry": { "type": "Point", "coordinates": [ -60.53463, -31.74267 ] } },
{ "type": "Feature", "properties": { "id": 5, "fid": 5, "nombre": "Complejo Toma Vieja", "direccion": "Blas Parera al final", "tipo": "Polideportivo con pileta", "tipo1": "MEDIANA Y TERCERA EDAD: *Caminatas: Martes y jueves 17:15 hs", "tipo2": "Direccion de Deporte Social - Municipalidad de Paraná", "tipo3": 4355208 }, "geometry": { "type": "Point", "coordinates": [ -60.48156, -31.70471 ] } },
{ "type": "Feature", "properties": { "id": 6, "fid": 6, "nombre": "Polideportivo Barrio AATRA", "direccion": "Almirante Guillermo Brown", "tipo": "Polideportivos", "tipo1": "MEDIANA Y TERCERA EDAD: *Caminata y entrenamiento: Martes y Jueves 16:00 hs\nESCUELA DE DEPORTES: *Básquet: Martes y jueves, de 17:30 a 20:30 hs.\n", "tipo2": "Direccion de Deporte Social - Municipalidad de Paraná", "tipo3": 4355208 }, "geometry": { "type": "Point", "coordinates": [ -60.48675, -31.74296 ] } },
{ "type": "Feature", "properties": { "id": 7, "fid": 7, "nombre": "Polideportivo \"El Poli\"", "direccion": "Gral. Alvarado y Eva Duarte de Perón", "tipo": "Polideportivos", "tipo1": "", "tipo2": "", "tipo3": null }, "geometry": { "type": "Point", "coordinates": [ -60.539228, -31.74673 ] } },
{ "type": "Feature", "properties": { "id": 8, "fid": 8, "nombre": "Cancha Los Berros", "direccion": "Padre P. Uva y Moisés Lebensohn", "tipo": "Espacio Verde / Cancha", "tipo1": "", "tipo2": "", "tipo3": null }, "geometry": { "type": "Point", "coordinates": [ -60.53314, -31.77785 ] } },
{ "type": "Feature", "properties": { "id": 9, "fid": 9, "nombre": "Canchas Escuela Hogar", "direccion": "Don Bosco entre Suipacha y Av. Los Constituyentes", "tipo": "Espacio Verde / Cancha", "tipo1": "*Gimnasia / Caminata Adultos Mayores: Lunes, Miércoles y Viernes a las 9:30 y a las 10:30. *Preparación Física: Lunes, Miércoles y Viernes de 13 a 16 hs. *Gimnasia/Caminatas: Lunes, Miércoles y Vierne", "tipo2": "Centro de Educación Física N°1", "tipo3": null }, "geometry": { "type": "Point", "coordinates": [ -60.50454, -31.73272 ] } },
{ "type": "Feature", "properties": { "id": 10, "fid": 10, "nombre": "Croacia Sur - Bajada Grande", "direccion": "Larramendi 2553", "tipo": "Espacio Verde / Cancha", "tipo1": "ESCUELAS DE DEPORTE: *Futbol: Lunes, miércoles y viernes de 15:30 a 18:30 hs.", "tipo2": "Direccion de Deporte Social - Municipalidad de Paraná", "tipo3": 4355208 }, "geometry": { "type": "Point", "coordinates": [ -60.55889, -31.71139 ] } },
{ "type": "Feature", "properties": { "id": 11, "fid": 11, "nombre": "Plaza Mujeres Entrerrianas", "direccion": "Susana María Acevedo y José Lambarri", "tipo": "Gimnasios a Cielo Abierto", "tipo1": "", "tipo2": "", "tipo3": null }, "geometry": { "type": "Point", "coordinates": [ -60.50942, -31.74964 ] } },
{ "type": "Feature", "properties": { "id": 12, "fid": 12, "nombre": "Plaza Saenz Peña", "direccion": "Enrique Carbo e Illia", "tipo": "Gimnasios a Cielo Abierto", "tipo1": "", "tipo2": "", "tipo3": null }, "geometry": { "type": "Point", "coordinates": [ -60.52745, -31.74016 ] } },
{ "type": "Feature", "properties": { "id": 13, "fid": 13, "nombre": "Costanera Baja", "direccion": "Avda. Laurencena y Gregoria Matorras de San Martin", "tipo": "Gimnasios a Cielo Abierto", "tipo1": "", "tipo2": "", "tipo3": null }, "geometry": { "type": "Point", "coordinates": [ -60.52572, -31.71945 ] } },
{ "type": "Feature", "properties": { "id": 14, "fid": 14, "nombre": "Skate Park", "direccion": "Av. José Manuel Estrada y Nicaragua", "tipo": "Skate Park", "tipo1": "", "tipo2": "", "tipo3": null }, "geometry": { "type": "Point", "coordinates": [ -60.53939, -31.71589 ] } },
{ "type": "Feature", "properties": { "id": 15, "fid": 15, "nombre": "Balneario Thompson", "direccion": "Augusto Bravard", "tipo": "Gimnasios a Cielo Abierto", "tipo1": "", "tipo2": "", "tipo3": null }, "geometry": { "type": "Point", "coordinates": [ -60.5072, -31.71407 ] } },
{ "type": "Feature", "properties": { "id": 16, "fid": 16, "nombre": "Parque Berduc", "direccion": "Salta y San Lorenzo", "tipo": "Polideportivo con pileta", "tipo1": "*Atletismo: Lunes a Viernes de 16 a 19 hs.                     *Atletismo para niños y niñas: Lunes, Miércoles y Viernes de 17:30 a 18:30 hs.          *Gimnasia y Caminatas para Adultos: Lunes, Miérco", "tipo2": "CGE", "tipo3": null }, "geometry": { "type": "Point", "coordinates": [ -60.52091, -31.72596 ] } },
{ "type": "Feature", "properties": { "id": 17, "fid": 17, "nombre": "Plaza Francisco Ramírez", "direccion": "Alte. Brown y Esquiú", "tipo": "Gimnasios a Cielo Abierto", "tipo1": "Caminatas y entrenamiento: Martes y Jueves 16:00 hs y 17:00 hs", "tipo2": "Direccion de Deporte Social - Municipalidad de Paraná", "tipo3": 4355208 }, "geometry": { "type": "Point", "coordinates": [ -60.5146778, -31.7388346 ] } },
{ "type": "Feature", "properties": { "id": 18, "fid": 18, "nombre": "C.I.C. Este", "direccion": "Alte Guillermo Brown 1898-1808", "tipo": "Espacio Verde / Cancha", "tipo1": "Preparación Física (para personas del refugio): Martes y Jueves 10:00 hs.\nFútbol (para personas del refugio): Martes y jueves 11:00 hs.\nZumba (para el público en general): Martes y jueves 18:00 hs.\nCa", "tipo2": "Direccion de Deporte Social - Municipalidad de Paraná", "tipo3": 4355208 }, "geometry": { "type": "Point", "coordinates": [ -60.49311, -31.74311 ] } },
{ "type": "Feature", "properties": { "id": 19, "fid": 19, "nombre": "Centro de Salud Papa Francisco", "direccion": "Calle 1346 & El Aguaribay", "tipo": "Espacio Verde / Cancha", "tipo1": "MEDIANA Y TERCERA EDAD: *Caminatas y ritmos: Lunes, miércoles y viernes 10:00 hs", "tipo2": "Direccion de Deporte Social - Municipalidad de Paraná", "tipo3": 4355208 }, "geometry": { "type": "Point", "coordinates": [ -60.47963, -31.76697 ] } },
{ "type": "Feature", "properties": { "id": 20, "fid": 20, "nombre": "Santa Lucia", "direccion": "Dr. Rancillac y Brolo", "tipo": "Playones Deportivos", "tipo1": "ESCUELA DE DEPORTES:  *Futbol: Lunes y Miercoles de 16:30 a 19:30 hs.", "tipo2": "Direccion de Deporte Social - Municipalidad de Paraná\n", "tipo3": 4355208 }, "geometry": { "type": "Point", "coordinates": [ -60.5145, -31.77043 ] } },
{ "type": "Feature", "properties": { "id": 21, "fid": 21, "nombre": "Santa Lucia", "direccion": "", "tipo": "Espacio Verde / Cancha", "tipo1": "", "tipo2": "", "tipo3": null }, "geometry": { "type": "Point", "coordinates": [ -60.5146809, -31.770050100000013 ] } },
{ "type": "Feature", "properties": { "id": 22, "fid": 22, "nombre": "Santa Teresita", "direccion": "", "tipo": "Playones Deportivos", "tipo1": "", "tipo2": "", "tipo3": null }, "geometry": { "type": "Point", "coordinates": [ -60.51088, -31.74247 ] } },
{ "type": "Feature", "properties": { "id": 23, "fid": 23, "nombre": "Padre Kolbe", "direccion": "", "tipo": "Espacio Verde / Cancha", "tipo1": "", "tipo2": "", "tipo3": null }, "geometry": { "type": "Point", "coordinates": [ -60.54669, -31.74516 ] } },
{ "type": "Feature", "properties": { "id": 24, "fid": 24, "nombre": "Prefectura Naval Argentina", "direccion": "", "tipo": "Playones Deportivos", "tipo1": "", "tipo2": "", "tipo3": null }, "geometry": { "type": "Point", "coordinates": [ -60.492, -31.78322 ] } },
{ "type": "Feature", "properties": { "id": 25, "fid": 25, "nombre": "San Jorge", "direccion": "", "tipo": "Playones Deportivos", "tipo1": "", "tipo2": "", "tipo3": null }, "geometry": { "type": "Point", "coordinates": [ -60.55366, -31.74511 ] } },
{ "type": "Feature", "properties": { "id": 26, "fid": 26, "nombre": "San Jorge", "direccion": "", "tipo": "Espacio Verde / Cancha", "tipo1": "", "tipo2": "", "tipo3": null }, "geometry": { "type": "Point", "coordinates": [ -60.55336, -31.74511 ] } },
{ "type": "Feature", "properties": { "id": 27, "fid": 27, "nombre": "Lomas del Mirador", "direccion": "Andrés Longo y Quinquela Martin", "tipo": "Espacio Verde / Cancha", "tipo1": "ESCUELA DE DEPORTES: *Vóley: Martes y jueves 14:45 hs.\n*Básquet: Martes y Jueves, de 15:30 a 18:30 hs.\n", "tipo2": "Direccion de Deporte Social - Municipalidad de Paraná", "tipo3": 4355208 }, "geometry": { "type": "Point", "coordinates": [ -60.48886, -31.75136 ] } },
{ "type": "Feature", "properties": { "id": 28, "fid": 28, "nombre": "Paraná XX", "direccion": "Gdor. Lopez Jordan", "tipo": "Playones Deportivos", "tipo1": "", "tipo2": "", "tipo3": null }, "geometry": { "type": "Point", "coordinates": [ -60.48558, -31.75569 ] } },
{ "type": "Feature", "properties": { "id": 29, "fid": 29, "nombre": "Parque del Lago", "direccion": "Leopoldo Herrera & Máximo Sabá Victoria", "tipo": "Playones Deportivos", "tipo1": "TERCERA Y MEDIANA EDAD: *Caminatas y entrenamiento: Lunes, miércoles y viernes 16:00 hs\n*Básquet: Lunes, miércoles y viernes, de 16 a 19 hs.        ESCUELAS DE DEPORTE: *Básquet: Lunes, Miércoles y Vi", "tipo2": "Direccion de Deporte Social - Municipalidad de Paraná", "tipo3": 4355208 }, "geometry": { "type": "Point", "coordinates": [ -60.49552, -31.76913 ] } },
{ "type": "Feature", "properties": { "id": 30, "fid": 30, "nombre": "Polideportivo Pancho Ramirez", "direccion": "Arroyo Grande y Agüero", "tipo": "Polideportivos", "tipo1": "ESCUELA DE DEPORTES: *Futbol: Martes y Jueves 15:30 a 18:30 hs.", "tipo2": "Direccion de Deporte Social - Municipalidad de Paraná", "tipo3": 4355208 }, "geometry": { "type": "Point", "coordinates": [ -60.54269, -31.72397 ] } },
{ "type": "Feature", "properties": { "id": 31, "fid": 31, "nombre": "Plaza Eva Peron", "direccion": "Don Segundo Sombra y El Rodeo", "tipo": "Playones Deportivos", "tipo1": "ESCUELA DE DEPORTES: *Básquet: Martes y Jueves, de 15:30 a 18:30 hs.", "tipo2": "Direccion de Deporte Social - Municipalidad de Paraná", "tipo3": 4355208 }, "geometry": { "type": "Point", "coordinates": [ -60.54793, -31.7329 ] } },
{ "type": "Feature", "properties": { "id": 32, "fid": 32, "nombre": "Polideportivo Paraná V", "direccion": "Almte. Thomas Cochrane 1047,", "tipo": "Polideportivos", "tipo1": "TERCERA Y MEDIANA EDAD: *Caminatas y entrenamiento: Lunes, Miércoles y Viernes Horario: 16 hs\nESCUELA DE DEPORTES: *Básquet: Martes y Jueves, de 15:30 a 18:30 hs.\n", "tipo2": "Direccion de Deporte Social - Municipalidad de Paraná", "tipo3": 4355208 }, "geometry": { "type": "Point", "coordinates": [ -60.50491, -31.75683 ] } },
{ "type": "Feature", "properties": { "id": 33, "fid": 33, "nombre": "Playón Vecinal Parque Mayor", "direccion": "Aldea Santa Maria y Villa Segui", "tipo": "Playones Deportivos", "tipo1": "", "tipo2": "", "tipo3": null }, "geometry": { "type": "Point", "coordinates": [ -60.50535, -31.77226 ] } },
{ "type": "Feature", "properties": { "id": 34, "fid": 34, "nombre": "Playón Paraná XIV", "direccion": "Chacho Peñaloza y Juan Manuel de Rosas", "tipo": "Playones Deportivos", "tipo1": "ESCUELA DE DEPORTES: *Básquet: Martes y Jueves, de 16 a 19 hs.", "tipo2": "Direccion de Deporte Social - Municipalidad de Paraná", "tipo3": 4355208 }, "geometry": { "type": "Point", "coordinates": [ -60.49263, -31.74497 ] } },
{ "type": "Feature", "properties": { "id": 35, "fid": 35, "nombre": "Playón Deportivo El Morro", "direccion": "Saavedra y Martin de Moussy", "tipo": "Playones Deportivos", "tipo1": "ESCUELA DE DEPORTES *Básquet: Martes y Jueves, de 15:30 a 18:30 hs.", "tipo2": "Direccion de Deporte Social - Municipalidad de Paraná", "tipo3": 4355208 }, "geometry": { "type": "Point", "coordinates": [ -60.51355, -31.71905 ] } },
{ "type": "Feature", "properties": { "id": 36, "fid": 36, "nombre": "Playón CO.VE.FLO", "direccion": "Los Chingolos y Acebal", "tipo": "Playones Deportivos", "tipo1": "", "tipo2": "", "tipo3": null }, "geometry": { "type": "Point", "coordinates": [ -60.54861, -31.72866 ] } },
{ "type": "Feature", "properties": { "id": 37, "fid": 37, "nombre": "Polideportivo Lomas del Sur", "direccion": "Maestro Alberdino y Rosario Vera Peñaloza", "tipo": "Polideportivos", "tipo1": "", "tipo2": "", "tipo3": null }, "geometry": { "type": "Point", "coordinates": [ -60.52477, -31.764 ] } },
{ "type": "Feature", "properties": { "id": 38, "fid": 38, "nombre": "Polideportivo Paracao", "direccion": "Alemanes del Volga y Arroyo Tuyucua", "tipo": "Polideportivos", "tipo1": "", "tipo2": "", "tipo3": null }, "geometry": { "type": "Point", "coordinates": [ -60.52591, -31.77197 ] } },
{ "type": "Feature", "properties": { "id": 39, "fid": 39, "nombre": "Playón Vecinal López Jordán", "direccion": "Alfonsina Storni 499", "tipo": "Playones Deportivos", "tipo1": "TERCERA Y MEDIANA EDAD: *Caminata y entrenamiento: Martes y jueves 17:15 hs.              ESCUELA DE DEPORTES:    Vóley: Lunes, Miércoles y Viernes de 15:30 a 18:30 hs.", "tipo2": "Direccion de Deporte Social - Municipalidad de Paraná", "tipo3": 4355208 }, "geometry": { "type": "Point", "coordinates": [ -60.48525, -31.75186 ] } },
{ "type": "Feature", "properties": { "id": 40, "fid": 40, "nombre": "Playón Vecinal Libertad", "direccion": "Ituzaingo y Libertad", "tipo": "Playones Deportivos", "tipo1": "", "tipo2": "", "tipo3": null }, "geometry": { "type": "Point", "coordinates": [ -60.53761, -31.73719 ] } },
{ "type": "Feature", "properties": { "id": 41, "fid": 41, "nombre": "Polideportivo 33 Orientales", "direccion": "Montevideo y Diamante", "tipo": "Polideportivos", "tipo1": "TERCERA Y MED. EDAD: *Yoga: Lunes, miércoles y viernes 15:30 hs. \nESCUELA DE DEPORTES: *Básquet: Lunes, Miércoles y Viernes a las 15:30 a 18:30 hs.\n", "tipo2": "Direccion de Deporte Social - Municipalidad de Paraná", "tipo3": 4355208 }, "geometry": { "type": "Point", "coordinates": [ -60.54094, -31.73386 ] } },
{ "type": "Feature", "properties": { "id": 42, "fid": 42, "nombre": "Barrio San Martin", "direccion": "Ameghino al Final", "tipo": "Espacio Verde / Cancha", "tipo1": "MEDIANA Y TERCERA EDAD: *Caminatas: Lunes, miércoles y viernes 14:30 hs.                            ESCUELA DE DEPORTES: *Futbol: Lunes, Miércoles y Viernes de 16 a 19 hs. *Vóley: Lunes, Miércoles y v", "tipo2": "Direccion de Deporte Social - Municipalidad de Paraná", "tipo3": 4355208 }, "geometry": { "type": "Point", "coordinates": [ -60.55532, -31.72825 ] } },
{ "type": "Feature", "properties": { "id": 43, "fid": 43, "nombre": "Barrio San Martin", "direccion": "Ameghino al Final", "tipo": "Playones Deportivos", "tipo1": "", "tipo2": "", "tipo3": null }, "geometry": { "type": "Point", "coordinates": [ -60.55502, -31.72825 ] } },
{ "type": "Feature", "properties": { "id": 44, "fid": 44, "nombre": "Playón Fernando Piérola", "direccion": "Artigas y Calle 1634", "tipo": "Playones Deportivos", "tipo1": "MEDIANA Y TERCERA EDAD: *Caminata y Entrenamiento: Lunes Miércoles y Viernes. Horarios: 16 hs.\nESCUELA DE DEPORTES: *Básquet: Martes y jueves, 15:30 a 18:30 hs.\n", "tipo2": "Direccion de Deporte Social - Municipalidad de Paraná", "tipo3": 4355208 }, "geometry": { "type": "Point", "coordinates": [ -60.51433, -31.77958 ] } },
{ "type": "Feature", "properties": { "id": 45, "fid": 45, "nombre": "Barrio Toma Nueva", "direccion": "Cabure & El Bigua", "tipo": "Espacio Verde / Cancha", "tipo1": "TERCERA Y MEDIANA EDAD: *Caminatas y Entrenamiento: Martes y jueves 10:15 hs.        ESCUELA DE DEPORTES:   *Futbol: Lunes, Miércoles y Viernes de 16 a 19 hs.", "tipo2": "Direccion de Deporte Social - Municipalidad de Paraná", "tipo3": 4355208 }, "geometry": { "type": "Point", "coordinates": [ -60.4962793, -31.7118591 ] } },
{ "type": "Feature", "properties": { "id": 46, "fid": 46, "nombre": "Playón Vecinal Loreto", "direccion": "Dr. Solari & Santiago Solioz", "tipo": "Espacio Verde / Cancha", "tipo1": "", "tipo2": "", "tipo3": null }, "geometry": { "type": "Point", "coordinates": [ -60.5, -31.77784 ] } },
{ "type": "Feature", "properties": { "id": 47, "fid": 47, "nombre": "Playón Vecinal Loreto", "direccion": "Dr. Solari & Santiago Solioz", "tipo": "Playones Deportivos", "tipo1": "Caminata y entrenamiento: Lunes, miércoles y viernes 8:00 hs.", "tipo2": "Direccion de Deporte Social - Municipalidad de Paraná", "tipo3": 4355208 }, "geometry": { "type": "Point", "coordinates": [ -60.49971, -31.77784 ] } },
{ "type": "Feature", "properties": { "id": 48, "fid": 48, "nombre": "Polideportivo Municipal Antoni", "direccion": "Monzon y Dacharry", "tipo": "Polideportivos", "tipo1": "", "tipo2": "", "tipo3": null }, "geometry": { "type": "Point", "coordinates": [ -60.52966, -31.752 ] } },
{ "type": "Feature", "properties": { "id": 49, "fid": 49, "nombre": "Playón Vecinal Santa María", "direccion": "Dr. Pedro Bahía Rico e Intendente Blanda", "tipo": "Playones Deportivos", "tipo1": "", "tipo2": "", "tipo3": null }, "geometry": { "type": "Point", "coordinates": [ -60.50647, -31.76339 ] } },
{ "type": "Feature", "properties": { "id": 50, "fid": 50, "nombre": "Polideportivo José Hernández", "direccion": "Del Baqueano y Del Payador", "tipo": "Polideportivos", "tipo1": "", "tipo2": "", "tipo3": null }, "geometry": { "type": "Point", "coordinates": [ -60.49244, -31.72719 ] } },
{ "type": "Feature", "properties": { "id": 51, "fid": 51, "nombre": "Parque Botanico Leandro Alem", "direccion": "RN168, Paraná, Entre Ríos", "tipo": "Espacio Verde / Cancha", "tipo1": "Caminata y Entrenamiento: Lunes Miércoles y Viernes  Horario: 14 hs - Entrenamiento en Circuito Intermitente: Lunes Miércoles y Viernes Horario: 15 hs", "tipo2": "Direccion de Deporte Social - Municipalidad de Paraná", "tipo3": 4355208 }, "geometry": { "type": "Point", "coordinates": [ -60.44651, -31.73896 ] } },
{ "type": "Feature", "properties": { "id": 52, "fid": 52, "nombre": "Vecinal Guiraldes", "direccion": "Calle Junín & Las Piedras Barrio", "tipo": "Playones Deportivos", "tipo1": "MEDIANA Y TERCERA EDAD: *Caminatas: Lunes Miércoles y Viernes. Horarios: 10 hs.\nESCUELA DE DEPORTES: *Básquet: Martes y Jueves, de 15:30 a 18:30 hs.\n", "tipo2": "Direccion de Deporte Social - Municipalidad de Paraná", "tipo3": 4355208 }, "geometry": { "type": "Point", "coordinates": [ -60.49188, -31.74758 ] } },
{ "type": "Feature", "properties": { "id": 53, "fid": 53, "nombre": "Club Atlético Instituto", "direccion": "Ovidio Lagos 1426", "tipo": "Espacio Verde / Cancha", "tipo1": "Caminata y Entrenamientos: Lunes Miércoles y Viernes Horario: 17:15 hs", "tipo2": "Direccion de Deporte Social - Municipalidad de Paraná", "tipo3": 4355208 }, "geometry": { "type": "Point", "coordinates": [ -60.49096, -31.76547 ] } },
{ "type": "Feature", "properties": { "id": 54, "fid": 54, "nombre": "1° de Julio", "direccion": "Pringles y Fragata Sarmiento", "tipo": "Playones Deportivos", "tipo1": "MEDIANA Y TERCERA EDAD: *Caminata:  Lunes Miércoles y Viernes. Horario: 17:00 hs.  ESCUELA DE DEPORTES: *Futbol: Martes y Jueves 15:30 a 18:30 hs.", "tipo2": "Direccion de Deporte Social - Municipalidad de Paraná", "tipo3": 4355208 }, "geometry": { "type": "Point", "coordinates": [ -60.50848, -31.73148 ] } },
{ "type": "Feature", "properties": { "id": 55, "fid": 55, "nombre": "Barrio Maccaronne", "direccion": "Manuel Dorrego & Neuquén", "tipo": "Espacio Verde / Cancha", "tipo1": "TERCERA Y MED. EDAD: *Caminatas y Entrenamiento: Lunes, Miércoles y Viernes Horario: 17:30 hs                          ESCUELA DE DEPORTES: *Futbol: Lunes, miércoles y viernes de 17 a 20 hs.", "tipo2": "Direccion de Deporte Social - Municipalidad de Paraná", "tipo3": 4355208 }, "geometry": { "type": "Point", "coordinates": [ -60.51838, -31.72373 ] } },
{ "type": "Feature", "properties": { "id": 56, "fid": 56, "nombre": "C.I.C Humito", "direccion": "Estado de Palestina", "tipo": "Espacio Verde / Cancha", "tipo1": "MEDIANA Y TERCERA EDAD: *Caminatas y Entrenamiento: Lunes Miércoles y Viernes Horarios: 15:45 hs.\nESCUELA DE DEPORTES: *Futbol: Martes y Jueves de 15:30 a 18:30hs.\n", "tipo2": "Direccion de Deporte Social -Municipalidad de Paraná", "tipo3": 4355208 }, "geometry": { "type": "Point", "coordinates": [ -60.55548, -31.72446 ] } },
{ "type": "Feature", "properties": { "id": 57, "fid": 57, "nombre": "CIC Floresta", "direccion": "German Burmeister", "tipo": "Espacio Verde / Cancha", "tipo1": "Caminatas y Entrenamiento:  Martes y Jueves. Horarios: 14:30 hs.", "tipo2": "Direccion de Deporte Social - Municipalidad de Paraná", "tipo3": 4355208 }, "geometry": { "type": "Point", "coordinates": [ -60.55314, -31.73122 ] } },
{ "type": "Feature", "properties": { "id": 58, "fid": 58, "nombre": "Vecinal Almafuerte", "direccion": "Bersano y Asua", "tipo": "Espacio Verde / Cancha", "tipo1": "Caminata y Entrenamiento: Lunes, Miércoles y Viernes. Horario: 17:30 hs.", "tipo2": "Direccion de Deporte Social - Municipalidad de Paraná", "tipo3": 4355208 }, "geometry": { "type": "Point", "coordinates": [ -60.46055, -31.76582 ] } },
{ "type": "Feature", "properties": { "id": 59, "fid": 59, "nombre": "Vecinal Los Pinos", "direccion": "Luz Vieyra Méndez 554", "tipo": "Espacio Verde / Cancha", "tipo1": "Caminata y Entrenamiento: Martes y Jueves. Horario: 8 hs.", "tipo2": "Direccion de Deporte Social - Municipalidad de Paraná", "tipo3": null }, "geometry": { "type": "Point", "coordinates": [ -60.51448, -31.76368 ] } },
{ "type": "Feature", "properties": { "id": 60, "fid": 60, "nombre": "Puerto Viejo", "direccion": "Santiago y Croce", "tipo": "Espacio Verde / Cancha", "tipo1": "ESCUELA DE DEPORTES:   *Futbol: Lunes, miércoles y viernes 15:30 a 18:30 hs.", "tipo2": "Direccion de Deporte Social - Municipalidad de Paraná", "tipo3": 4355208 }, "geometry": { "type": "Point", "coordinates": [ -60.5400455, -31.7144733 ] } },
{ "type": "Feature", "properties": { "id": 61, "fid": 61, "nombre": "Club de Pescadores", "direccion": "Padre Roberto Croce y La Lastra", "tipo": "Espacio Verde / Cancha", "tipo1": "Pescadores de Juegos: Futbol y Actividad Aeróbica: Lunes y Miércoles  17:30 hs.", "tipo2": "Red Puerto Viejo", "tipo3": null }, "geometry": { "type": "Point", "coordinates": [ -60.53861, -31.71424 ] } },
{ "type": "Feature", "properties": { "id": 62, "fid": 62, "nombre": "Escuelita Estacion Parera", "direccion": "Churruarin y Maya", "tipo": "Espacio Verde / Cancha", "tipo1": "Futbol Infantil: Martes y Jueves. Horario 17 hs.", "tipo2": "Red Este", "tipo3": null }, "geometry": { "type": "Point", "coordinates": [ -60.45672, -31.7525 ] } },
{ "type": "Feature", "properties": { "id": 63, "fid": 63, "nombre": "Barrio 98 Viviendas", "direccion": "Bordón y Tibiletti", "tipo": "Espacio Verde / Cancha", "tipo1": "ESCUELA DE DEPORTES:   *Futbol: Lunes, Miércoles y Viernes 15:30 a 18:30 hs.", "tipo2": "Direccion de Deporte Social - Municipalidad de Paraná", "tipo3": 4355208 }, "geometry": { "type": "Point", "coordinates": [ -60.4744808, -31.768187700000013 ] } },
{ "type": "Feature", "properties": { "id": 64, "fid": 64, "nombre": "Barrio 144 Viviendas", "direccion": "Soldado Bordon - Barrio 144 Viviendas", "tipo": "Espacio Verde / Cancha", "tipo1": "", "tipo2": "", "tipo3": null }, "geometry": { "type": "Point", "coordinates": [ -60.4736333, -31.765615400000016 ] } },
{ "type": "Feature", "properties": { "id": 65, "fid": 65, "nombre": "Barrio UOCRA", "direccion": "Calle 763 y Soldado Bordón", "tipo": "Espacio Verde / Cancha", "tipo1": "ESCUELA DE DEPORTES:   *Futbol: Lunes, miércoles y viernes de 15:30 a 18:30Hs.", "tipo2": "Direccion de Deporte Social - Municipalidad de Paraná\n", "tipo3": 4355208 }, "geometry": { "type": "Point", "coordinates": [ -60.4763941, -31.7632076 ] } },
{ "type": "Feature", "properties": { "id": 66, "fid": 66, "nombre": "Plaza Los Ceibos", "direccion": "Guaraní y Pampa", "tipo": "Gimnasios a Cielo Abierto", "tipo1": "", "tipo2": "", "tipo3": null }, "geometry": { "type": "Point", "coordinates": [ -60.4880466, -31.784316900000011 ] } },
{ "type": "Feature", "properties": { "id": 67, "fid": 67, "nombre": "Plaza de los Niños", "direccion": "Caputto y José Hernández", "tipo": "Gimnasios a Cielo Abierto", "tipo1": "", "tipo2": "", "tipo3": null }, "geometry": { "type": "Point", "coordinates": [ -60.4838282, -31.775465 ] } },
{ "type": "Feature", "properties": { "id": 68, "fid": 68, "nombre": "Plaza Le Petit Pisant", "direccion": "Av. Laurencena", "tipo": "Gimnasios a Cielo Abierto", "tipo1": "", "tipo2": "", "tipo3": null }, "geometry": { "type": "Point", "coordinates": [ -60.5387072, -31.7155177 ] } },
{ "type": "Feature", "properties": { "id": 69, "fid": 69, "nombre": "Barrio Cooper", "direccion": "Maestro Normal y Diaz de Solis", "tipo": "Playones Deportivos", "tipo1": "", "tipo2": "", "tipo3": null }, "geometry": { "type": "Point", "coordinates": [ -60.488949, -31.7402903 ] } },
{ "type": "Feature", "properties": { "id": 70, "fid": 70, "nombre": "Nueva Ciudad", "direccion": "Gdor. Crespo y Darwin", "tipo": "Espacio Verde / Cancha", "tipo1": "TERCERA Y MED. EDAD: *Caminata: Martes y Jueves 9:00 hs.                                        ESCUELA DE DEPORTES: *Futbol: Martes y Jueves de 15:30 a 18:30 hs.", "tipo2": "Direccion de Deporte Social - Municipalidad de Paraná", "tipo3": 4355208 }, "geometry": { "type": "Point", "coordinates": [ -60.4840546, -31.7227571 ] } },
{ "type": "Feature", "properties": { "id": 71, "fid": 71, "nombre": "Los Berros -  Nuestros Niños", "direccion": "Juan B. Justo y  Calle 1570", "tipo": "Espacio Verde / Cancha", "tipo1": "TERCERA Y MEDIANA EDAD: *Caminata y Entrenamiento: Martes y jueves. Horario 14:30   ESCUELA DE DEPORTES: *Futbol: Viernes de 15:30 a 18:30 hs.", "tipo2": "Direccion de Deporte Social - Municipalidad de Paraná", "tipo3": 4355208 }, "geometry": { "type": "Point", "coordinates": [ -60.5385803, -31.7840976 ] } },
{ "type": "Feature", "properties": { "id": 72, "fid": 72, "nombre": "CARITAS", "direccion": "Francisco Berni y Xul Solar", "tipo": "Espacio Verde / Cancha", "tipo1": "MEDIANA Y TERCERA EDAD: *Caminatas y Entrenamiento: Martes y Jueves. 15:00 Hs.  ESCUELA DE DEPORTESS: *Futbol: Martes y Jueves de 16 a 19 hs.", "tipo2": "Direccion de Deporte Social - Municipalidad de Paraná", "tipo3": 4355208 }, "geometry": { "type": "Point", "coordinates": [ -60.5599547, -31.7151407 ] } },
{ "type": "Feature", "properties": { "id": 73, "fid": 73, "nombre": "Estación Parera", "direccion": "De la Yerra y De la Pulpería", "tipo": "Espacio Verde / Cancha", "tipo1": "MEDIANA Y TERCERA EDAD: *Caminata y entrenamiento: Martes y Jueves 15:00 Hs.  ", "tipo2": "Direccion de Deporte Social - Municipalidad de Paraná", "tipo3": 4355208 }, "geometry": { "type": "Point", "coordinates": [ -60.4521375, -31.7558604 ] } },
{ "type": "Feature", "properties": { "id": 74, "fid": 74, "nombre": "El Trébol", "direccion": "Jorge Luis Borges y Los Junquillos", "tipo": "Espacio Verde / Cancha", "tipo1": "MEDIANA Y TERCERA EDAD: *Caminata y entrenamiento: Lunes, Miércoles y Viernes. Horario 9:00 Hs.              ESCUELA DE DEPORTES: *Futbol: Lunes y Jueves de 15:30 a 18:30 hs.", "tipo2": "Direccion de Deporte Social - Municipalidad de Paraná", "tipo3": 4355208 }, "geometry": { "type": "Point", "coordinates": [ -60.4667745, -31.7518409 ] } },
{ "type": "Feature", "properties": { "id": 75, "fid": 75, "nombre": "Thompson", "direccion": "Augusto Bravard y Avda. Ramírez", "tipo": "Gimnasios a Cielo Abierto", "tipo1": "", "tipo2": "", "tipo3": null }, "geometry": { "type": "Point", "coordinates": [ -60.5121572, -31.7177618 ] } },
{ "type": "Feature", "properties": { "id": 76, "fid": 76, "nombre": "Vecinal Pablo Balbi", "direccion": "25 de Junio", "tipo": "Espacio Verde / Cancha", "tipo1": "ESCUELA DE DEPORTES: Futbol: Lunes, Miércoles y Viernes de 16:30 a 19:30 hs.", "tipo2": "Direccion de Deporte Social - Municipalidad de Paraná", "tipo3": 4355208 }, "geometry": { "type": "Point", "coordinates": [ -60.54594860000001, -31.7251302 ] } },
{ "type": "Feature", "properties": { "id": 77, "fid": 77, "nombre": "Anacleto Medina", "direccion": "Costanera Oeste", "tipo": "Espacio Verde / Cancha", "tipo1": "ESCUELA DE DEPORTE: Voley: Lunes, Miércoles y Viernes de 15:30 a 18:30 hs.", "tipo2": "Direccion de Deporte Social - Municipalidad de Paraná ", "tipo3": 4355208 }, "geometry": { "type": "Point", "coordinates": [ -60.5585186, -31.7454033 ] } },
{ "type": "Feature", "properties": { "id": 78, "fid": 78, "nombre": "Nueva Esperanza", "direccion": "José Arévalo y Mariano J López", "tipo": "Playones Deportivos", "tipo1": "ESCUELA DE DEPORTES: Basquet: Lunes, Miércoles y Viernes 15:30 a 18:30 Hs.", "tipo2": "Direccion de Deporte Social - Municipalidad de Paraná", "tipo3": 4355208 }, "geometry": { "type": "Point", "coordinates": [ -60.4914919, -31.7786195 ] } },
{ "type": "Feature", "properties": { "id": 79, "fid": 79, "nombre": "Los Hornos", "direccion": "Miguel David y Pedro Martínez", "tipo": "Espacio Verde / Cancha", "tipo1": "ESCUELA DE DEPORTES: * Futbol: Martes y Jueves de 15:30 a 18:30", "tipo2": "Direccion de Deporte Social - Municipalidad de Paraná", "tipo3": 4355208 }, "geometry": { "type": "Point", "coordinates": [ -60.473608, -31.774579499999987 ] } },
{ "type": "Feature", "properties": { "id": 80, "fid": 80, "nombre": "Mosconi Nuevo - Parque Nuevo", "direccion": "Jorge Mockert al final", "tipo": "Espacio Verde / Cancha", "tipo1": "ESCUELA DE DEPORTES:  *Futbol: Martes y Jueves de 16 a 19 hs.", "tipo2": "Direccion de Deporte Social - Municipalidad de Paraná ", "tipo3": 4355208 }, "geometry": { "type": "Point", "coordinates": [ -60.5572119, -31.7214815 ] } },
{ "type": "Feature", "properties": { "id": 81, "fid": 81, "nombre": "Barrio San Jose", "direccion": "Hernandarias al final", "tipo": "Espacio Verde / Cancha", "tipo1": "ESCUELA DE DEPORTES: *Futbol: Martes, miércoles y viernes de 15:30hs a 18:30 hs.", "tipo2": "Direccion de Deporte Social - Municipalidad de Paraná\n", "tipo3": 4355208 }, "geometry": { "type": "Point", "coordinates": [ -60.463951, -31.766162100000013 ] } },
{ "type": "Feature", "properties": { "id": 82, "fid": 82, "nombre": "Club CAPIBA", "direccion": "Avda. Zanni y Juan B. Juto", "tipo": "Espacio Verde / Cancha", "tipo1": "ESCUELA DE DEPORTES: *Hockey: Lunes, Miércoles y Viernes de 15:30 a 18:30 hs. *Rugby: Lunes, Miércoles y Viernes de 15:30 a 18:30 hs.", "tipo2": "Direccion de Deporte Social - Municipalidad de Paraná", "tipo3": 4355208 }, "geometry": { "type": "Point", "coordinates": [ -60.504077, -31.789973900000028 ] } },
{ "type": "Feature", "properties": { "id": 83, "fid": 83, "nombre": "Punto 84", "direccion": "Tarnowsky y Del Poncho", "tipo": "Espacio Verde / Cancha", "tipo1": "ESCUELA DE DEPORTES: *Futbol: Martes y Jueves de 15:30 a 18:30 hs.", "tipo2": "Direccion de Deporte Social - Municipalidad de Paraná", "tipo3": 4355208 }, "geometry": { "type": "Point", "coordinates": [ -60.4495868, -31.7546048 ] } },
{ "type": "Feature", "properties": { "id": 84, "fid": 84, "nombre": "Softbol Play", "direccion": "Ernesto J. Izza", "tipo": "Otros Espacios", "tipo1": "ESCUELA DE DEPORTES: *Softbol: Lunes, Miércoles y Viernes de 16:30 a 18:30 hs.", "tipo2": "Direccion de Deporte Social - Municipalidad de Paraná", "tipo3": 4355208 }, "geometry": { "type": "Point", "coordinates": [ -60.468182, -31.763811 ] } },
{ "type": "Feature", "properties": { "id": 85, "fid": 85, "nombre": "Thompson", "direccion": "Augusto Bravard", "tipo": "Otros Espacios", "tipo1": "ESCUELA DE DEPORTES: *Atletismo: Martes y Jueves de 16 a 18:30 hs. (Adolescentes de 13 a 17 años)", "tipo2": "Direccion de Deporte Social - Municipalidad de Paraná\n", "tipo3": 4355208 }, "geometry": { "type": "Point", "coordinates": [ -60.5087238, -31.7150158 ] } },
{ "type": "Feature", "properties": { "id": 86, "fid": 86, "nombre": "Asentamiento 351", "direccion": "Cortada 351 y Avda. las Américas.", "tipo": "Espacio Verde / Cancha", "tipo1": "ESCUELA DE DEPORTES: *Futbol: Martes y Jueves de 16 a 19 hs.", "tipo2": "Direccion de Deporte Social - Municipalidad de Paraná", "tipo3": 4355208 }, "geometry": { "type": "Point", "coordinates": [ -60.5253698, -31.7529401 ] } },
{ "type": "Feature", "properties": { "id": 87, "fid": 87, "nombre": "Barrio El Perejil", "direccion": "Gral. Espejo y Alemanes del Volga", "tipo": "Espacio Verde / Cancha", "tipo1": "ESCUELA DE DEPORTES: *Futbol: Martes y Jueves 15:30 a 18:30 hs.", "tipo2": "Direccion de Deporte Social - Municipalidad de Paraná", "tipo3": 4355208 }, "geometry": { "type": "Point", "coordinates": [ -60.5355455, -31.770433600000015 ] } },
{ "type": "Feature", "properties": { "id": 88, "fid": 88, "nombre": "Asentamiento Villa María", "direccion": "España al Final", "tipo": "Espacio Verde / Cancha", "tipo1": "ESCUELA DE DEPORTES: *Futbol: Martes y Jueves de 15:30 a 18:30hs.", "tipo2": "Direccion de Deporte Social - Municipalidad de Paraná", "tipo3": 4355208 }, "geometry": { "type": "Point", "coordinates": [ -60.5437066, -31.728423 ] } },
{ "type": "Feature", "properties": { "id": 89, "fid": 89, "nombre": "Escuela Municipal de Canotaje", "direccion": "Calle Rioja - Puerto Nuevo", "tipo": "Otros Espacios", "tipo1": "ESCUELA DE DEPORTES: *Canotaje: Lunes, Miercoles y Viernes (de 11 a 13 años) de 14 a 17 hs. / Martes y Jueves (de 14 a 17 años) de 14 a 17 hs.", "tipo2": "Direccion de Deporte Social - Municipalidad de Paraná", "tipo3": 4355208 }, "geometry": { "type": "Point", "coordinates": [ -60.5182453, -31.7190476 ] } },
{ "type": "Feature", "properties": { "id": 90, "fid": 90, "nombre": "Puerto Sanchez", "direccion": "Calle Pescador del Paraná", "tipo": "Otros Espacios", "tipo1": "ESCUELA DE DEPORTES: *Atletismo: viernes (de 6 a 12 años) de 16:30 a 18:30 hs.", "tipo2": "Direccion de Deporte Social - Municipalidad de Paraná", "tipo3": 4355208 }, "geometry": { "type": "Point", "coordinates": [ -60.5139166, -31.7172307 ] } },
{ "type": "Feature", "properties": { "id": 91, "fid": 91, "nombre": "Club San Miguel", "direccion": "Burmeister y 1° de mayo", "tipo": "Espacio Verde / Cancha", "tipo1": "ESCUELA DE DEPORTE: *Vóley: Lunes, Miércoles y Viernes de 15:30 a 18:30 hs.", "tipo2": "Direccion de Deporte Social - Municipalidad de Paraná", "tipo3": 4355208 }, "geometry": { "type": "Point", "coordinates": [ -60.5545693, -31.7374249 ] } },
{ "type": "Feature", "properties": { "id": 92, "fid": 92, "nombre": "Bajada Grande ", "direccion": "Calle T", "tipo": "Espacio Verde / Cancha", "tipo1": "ESCUELA DE DEPORTES: *Futbol: Martes y jueves 15:30 a 18:30 hs.", "tipo2": "Direccion de Deporte Social - Municipalidad de Paraná", "tipo3": 4355208 }, "geometry": { "type": "Point", "coordinates": [ -60.570919, -31.7116564 ] } },
{ "type": "Feature", "properties": { "id": 93, "fid": 93, "nombre": "Club Palma Juniors", "direccion": "Piedra Buena 127", "tipo": "Otros Espacios", "tipo1": "ESCUELA DE DEPORTES:   *Boxeo: Lunes a Viernes de 15:15 a 17:15 hs.", "tipo2": "Direccion de Deporte Social - Municipalidad de Paraná", "tipo3": 4355208 }, "geometry": { "type": "Point", "coordinates": [ -60.5172756, -31.7348863 ] } },
{ "type": "Feature", "properties": { "id": 94, "fid": 94, "nombre": "Velodromo", "direccion": "Izaguirre y Bonell", "tipo": "Otros Espacios", "tipo1": "ESCUELA DE DEPORTES: *Ciclismo: Lunes, miércoles y viernes de 15 a 17 hs. / Martes y Jueves 13:30 a 18:30 hs.", "tipo2": "Direccion de Deporte Social - Municipalidad de Paraná", "tipo3": 4355208 }, "geometry": { "type": "Point", "coordinates": [ -60.4635308, -31.7701513 ] } },
{ "type": "Feature", "properties": { "id": 95, "fid": 95, "nombre": "Barrio El Túnel", "direccion": "Calle Solanas (Canchas de Patronato)", "tipo": "Otros Espacios", "tipo1": "ESCUELA DE DEPORTES: *Softbol: Lunes, miércoles y viernes de 15:30 a 18:30 hs.", "tipo2": "Direccion de Deporte Social - Municipalidad de Paraná", "tipo3": 4355208 }, "geometry": { "type": "Point", "coordinates": [ -60.5040156, -31.718234900000013 ] } }
]
}
