{
"type": "FeatureCollection",
"name": "ejido_parana",
"crs": { "type": "name", "properties": { "name": "urn:ogc:def:crs:OGC:1.3:CRS84" } },
"features": [
{ "type": "Feature", "properties": { "id": 1, "name": "Municipio de Paraná", "dat_id": "1", "dat_fecha": "02/06/2020 15:12", "coo_latitu": "-31,7111474265", "coo_longit": "-60,5740550503" }, "geometry": { "type": "LineString", "coordinates": [ [ -60.574051, -31.711072762800001 ], [ -60.574473654800002, -31.710586153600001 ], [ -60.573610073399998, -31.709118972399999 ], [ -60.572489, -31.708528 ], [ -60.570686, -31.70704 ], [ -60.568584, -31.705862 ], [ -60.564914, -31.70495 ], [ -60.561696, -31.70495 ], [ -60.558819915299999, -31.705141552200001 ], [ -60.554392207299998, -31.706503965300001 ], [ -60.551127694400002, -31.7077490225 ], [ -60.548788813500003, -31.708819944 ], [ -60.545903, -31.709878 ], [ -60.542641, -31.710791 ], [ -60.539938, -31.711996 ], [ -60.538521, -31.712799 ], [ -60.536719, -31.71404 ], [ -60.535861, -31.715099 ], [ -60.534273, -31.716267 ], [ -60.532213, -31.717143 ], [ -60.528608, -31.718166 ], [ -60.524531, -31.718567 ], [ -60.521956, -31.718531 ], [ -60.514887, -31.71718 ], [ -60.512613, -31.716523 ], [ -60.510811, -31.714698 ], [ -60.508751, -31.712872 ], [ -60.507249, -31.712252 ], [ -60.506476, -31.712726 ], [ -60.505747, -31.712105 ], [ -60.504631, -31.711521 ], [ -60.503687, -31.710645 ], [ -60.501627, -31.708016 ], [ -60.499781, -31.707031 ], [ -60.493773, -31.704548 ], [ -60.488452, -31.703124 ], [ -60.482529, -31.702394 ], [ -60.474805, -31.702248 ], [ -60.469569, -31.702394 ], [ -60.466007, -31.701883 ], [ -60.462187, -31.701079 ], [ -60.45801, -31.69929 ], [ -60.454191, -31.699071 ], [ -60.451316, -31.698816 ], [ -60.448354, -31.69856 ], [ -60.444707, -31.698779 ], [ -60.437111, -31.701846 ], [ -60.435051, -31.702248 ], [ -60.432884, -31.702414 ], [ -60.430072, -31.702832 ], [ -60.427068, -31.703562 ], [ -60.42282, -31.70338 ], [ -60.419687, -31.702941 ], [ -60.416683, -31.701518 ], [ -60.415267, -31.700459 ], [ -60.4118330688, -31.698596195499999 ], [ -60.410057492100002, -31.696545093899999 ], [ -60.408531899499998, -31.694300612399999 ], [ -60.4074591376, -31.692256406199999 ], [ -60.405056, -31.690174472399999 ], [ -60.402952746, -31.6892615943 ], [ -60.399992523800002, -31.6893716499 ], [ -60.397674624300002, -31.6891158681 ], [ -60.395786470899999, -31.688567820700001 ], [ -60.393512079300002, -31.688859705799999 ], [ -60.391709264500001, -31.689553763900001 ], [ -60.390808248699997, -31.6905030665 ], [ -60.388662148100003, -31.693022568899998 ], [ -60.386602634900001, -31.695140534899998 ], [ -60.388147671900001, -31.697367653600001 ], [ -60.3893921799, -31.698354037400001 ], [ -60.390421571399997, -31.699120622300001 ], [ -60.391924269800001, -31.6998509071 ], [ -60.392653608499998, -31.7010195095 ], [ -60.394756608500003, -31.7022240535 ], [ -60.3967466171, -31.7027900786 ], [ -60.39729121, -31.7033150249 ], [ -60.398045015199997, -31.703794328899999 ], [ -60.398911473200002, -31.7040545632 ], [ -60.399220031699997, -31.704232646600001 ], [ -60.399592745699998, -31.704630848899999 ], [ -60.400383884199996, -31.705175092899999 ], [ -60.400654674199998, -31.705491142100001 ], [ -60.401283595700001, -31.706014271899999 ], [ -60.401968201300001, -31.706161740599999 ], [ -60.402363128300003, -31.7062590074 ], [ -60.403205115799999, -31.706300087700001 ], [ -60.403432990399999, -31.706110693 ], [ -60.403563021099998, -31.7062076753 ], [ -60.404030367600001, -31.7065528129 ], [ -60.404347510599997, -31.707043989599999 ], [ -60.404884322800001, -31.707956767700001 ], [ -60.405228, -31.709125 ], [ -60.405528, -31.710914 ], [ -60.405706, -31.71204 ], [ -60.407839, -31.713425 ], [ -60.410672, -31.714082 ], [ -60.412217, -31.716638 ], [ -60.41183, -31.718354 ], [ -60.410757, -31.720471 ], [ -60.413207, -31.723701 ], [ -60.41398, -31.725855 ], [ -60.414538, -31.726622 ], [ -60.413293, -31.726512 ], [ -60.413336, -31.728972 ], [ -60.414495, -31.730395 ], [ -60.416297, -31.731089 ], [ -60.418529, -31.73222 ], [ -60.419774, -31.732184 ], [ -60.419816, -31.73379 ], [ -60.420761, -31.733936 ], [ -60.422434, -31.734118 ], [ -60.423207, -31.734775 ], [ -60.424323, -31.734958 ], [ -60.425138, -31.73587 ], [ -60.425696, -31.737184 ], [ -60.425224, -31.737549 ], [ -60.424795, -31.738243 ], [ -60.425438, -31.739338 ], [ -60.426497, -31.740439 ], [ -60.427227, -31.742483 ], [ -60.429029, -31.744693 ], [ -60.428085, -31.74619 ], [ -60.4289, -31.747139 ], [ -60.430402, -31.747868 ], [ -60.431776, -31.749292 ], [ -60.432548, -31.750496 ], [ -60.431304, -31.751518 ], [ -60.431947, -31.753014 ], [ -60.432419, -31.754474 ], [ -60.432119, -31.755751 ], [ -60.431776, -31.756809 ], [ -60.43405, -31.759327 ], [ -60.433702, -31.760157 ], [ -60.434689, -31.760413 ], [ -60.439495, -31.762018 ], [ -60.440869, -31.762931 ], [ -60.441341, -31.7645 ], [ -60.440697, -31.766835 ], [ -60.441384, -31.767528 ], [ -60.441512, -31.768732 ], [ -60.440869, -31.769863 ], [ -60.439238, -31.771031 ], [ -60.440997, -31.77311 ], [ -60.44379, -31.774321 ], [ -60.446494, -31.774686 ], [ -60.447094, -31.776109 ], [ -60.446021, -31.778143 ], [ -60.446064, -31.779857 ], [ -60.447008, -31.780842 ], [ -60.447266, -31.782155 ], [ -60.447652, -31.783687 ], [ -60.449626, -31.784088 ], [ -60.450227, -31.784964 ], [ -60.451257, -31.785803 ], [ -60.453415, -31.787444 ], [ -60.452976, -31.790256 ], [ -60.45392, -31.791424 ], [ -60.455293, -31.792482 ], [ -60.457525, -31.795144 ], [ -60.46143, -31.797041 ], [ -60.465507, -31.798682 ], [ -60.46967, -31.799667 ], [ -60.472288, -31.803278 ], [ -60.472545, -31.804007 ], [ -60.496192, -31.800178 ], [ -60.514044, -31.797296 ], [ -60.517993, -31.799047 ], [ -60.527734, -31.800506 ], [ -60.532155, -31.798099 ], [ -60.544830839299998, -31.800870526899999 ], [ -60.546276068099999, -31.799794829 ], [ -60.547555, -31.79871 ], [ -60.553348, -31.798929 ], [ -60.559313, -31.796558 ], [ -60.56412, -31.791598 ], [ -60.564292, -31.790284 ], [ -60.565794, -31.78992 ], [ -60.567124, -31.784886 ], [ -60.568525, -31.784657 ], [ -60.566293, -31.775026 ], [ -60.56934, -31.774224 ], [ -60.569512, -31.77105 ], [ -60.56831, -31.76897 ], [ -60.565864, -31.764956 ], [ -60.563246, -31.759789 ], [ -60.5608, -31.755702 ], [ -60.560285, -31.75198 ], [ -60.560929, -31.749681 ], [ -60.560071, -31.74563 ], [ -60.559084, -31.745441 ], [ -60.558311, -31.741901 ], [ -60.558998, -31.736207 ], [ -60.561702, -31.731681 ], [ -60.562345, -31.728549 ], [ -60.562217, -31.726943 ], [ -60.56256, -31.725848 ], [ -60.562045, -31.725082 ], [ -60.563761, -31.720884 ], [ -60.565435, -31.719497 ], [ -60.566808, -31.717562 ], [ -60.566336, -31.716211 ], [ -60.567538, -31.716175 ], [ -60.5686, -31.714522 ], [ -60.5686, -31.713646 ], [ -60.569845, -31.713062 ], [ -60.571004, -31.71204 ], [ -60.574051, -31.711072762800001 ] ] } }
]
}
