{
"type": "FeatureCollection",
"name": "ffcc",
"crs": { "type": "name", "properties": { "name": "urn:ogc:def:crs:OGC:1.3:CRS84" } },
"features": [
{ "type": "Feature", "properties": { "Shape_Leng": 11640.58145538739 }, "geometry": { "type": "MultiLineString", "coordinates": [ [ [ -60.529395019325761, -31.746039682999466 ], [ -60.5287758951009, -31.746911995496092 ], [ -60.528327042592601, -31.747529477051717 ], [ -60.527882270285048, -31.748129042205552 ], [ -60.527386424735532, -31.748832616150015 ], [ -60.52656218993598, -31.749981363099526 ], [ -60.525772332115061, -31.751040482354984 ], [ -60.52501749749382, -31.752123314100665 ], [ -60.524352627321498, -31.75306856898602 ], [ -60.523929900400667, -31.753625080287026 ], [ -60.523084705106527, -31.754785821063351 ], [ -60.522461750980497, -31.755742825170248 ], [ -60.521596206252852, -31.757016978808291 ], [ -60.52074453617243, -31.758279140244845 ], [ -60.519678014031385, -31.759828506042517 ], [ -60.51823802705762, -31.762023634732934 ], [ -60.517490497076118, -31.763195871814329 ], [ -60.516465490561139, -31.764697319066975 ], [ -60.515619143179599, -31.76597068711509 ], [ -60.514850352110578, -31.767097658205493 ], [ -60.513911398412418, -31.76851880147672 ], [ -60.513260958457472, -31.769501151855483 ], [ -60.512596214583141, -31.770513153801435 ], [ -60.511151773338256, -31.77259308945553 ], [ -60.510640040331332, -31.773501865796312 ], [ -60.510281589464, -31.774350372219761 ], [ -60.50996339021458, -31.775326697813139 ], [ -60.509802417547029, -31.776106083342498 ], [ -60.509710021546312, -31.77708475968462 ], [ -60.509758071903612, -31.778206042028767 ], [ -60.509987027623843, -31.779207293287886 ], [ -60.510150635356865, -31.779646576984014 ], [ -60.510574704747569, -31.780569494525967 ], [ -60.511005044727334, -31.781361152012664 ], [ -60.511809156607768, -31.782813450877587 ], [ -60.512331057189819, -31.783741935229241 ], [ -60.512945073826394, -31.784908655502605 ], [ -60.513249715339519, -31.785694845232772 ], [ -60.51342760202477, -31.786290654802535 ], [ -60.513520697733661, -31.786707849575901 ], [ -60.513636723391556, -31.787482865515809 ], [ -60.513688908829323, -31.788079183298269 ], [ -60.513700014100834, -31.788824795852364 ], [ -60.513738528043788, -31.789474854824441 ], [ -60.513749802180357, -31.790250295590322 ], [ -60.513762759237743, -31.791329956832683 ], [ -60.513789484699622, -31.792373770354327 ], [ -60.513845864394916, -31.793727657802517 ], [ -60.513852365927207, -31.794902789129381 ], [ -60.513887037081837, -31.796119564127729 ], [ -60.513898673983256, -31.796960617270759 ], [ -60.513932720714024, -31.798064054719049 ], [ -60.513960541707355, -31.799304716525025 ], [ -60.51400210071747, -31.800503565059543 ], [ -60.514033952828669, -31.802471972583106 ], [ -60.514034662533469, -31.803861874443562 ], [ -60.514107767973329, -31.805710806470252 ], [ -60.514167499188417, -31.807667168503063 ], [ -60.514175957828044, -31.809194238940481 ], [ -60.51421635952385, -31.811442974019009 ], [ -60.514288845530615, -31.813178568609956 ], [ -60.514322739275755, -31.81425217566246 ], [ -60.514355004943738, -31.816292160823686 ], [ -60.51436880263558, -31.817520943497186 ], [ -60.514386808661733, -31.818248632309281 ], [ -60.514426004029595, -31.819017990115558 ], [ -60.514470104042452, -31.819411515633369 ], [ -60.514542148737874, -31.819804930837055 ], [ -60.514721005724994, -31.820561793309167 ], [ -60.515183555930491, -31.822081058419794 ], [ -60.515809531067148, -31.824088807646717 ], [ -60.516115593393586, -31.825101657288791 ], [ -60.516464809567971, -31.826335042638782 ], [ -60.516862941276884, -31.827568228958672 ], [ -60.517176477891717, -31.828664557910233 ], [ -60.517389709962544, -31.829313901228947 ], [ -60.517476182643627, -31.82978480177518 ], [ -60.51749930703852, -31.830172449681527 ], [ -60.517501503770923, -31.830566145561619 ], [ -60.517460779609529, -31.830781059907949 ], [ -60.51742085397558, -31.831139136196324 ], [ -60.517284340809219, -31.831718317642714 ], [ -60.517077888370302, -31.832285854662725 ], [ -60.516800898118078, -31.832734370515894 ], [ -60.516523803436563, -31.833164993009841 ], [ -60.516134978928235, -31.833607997546693 ], [ -60.51542679266106, -31.834422138184156 ], [ -60.514892283714936, -31.835056616153945 ], [ -60.51432273138532, -31.835673339462986 ], [ -60.513767146106588, -31.836290001107383 ], [ -60.513357532070664, -31.836768872790316 ], [ -60.512927544058357, -31.837355198670647 ], [ -60.512546563200821, -31.837959221522276 ], [ -60.512069100241533, -31.838808206248828 ], [ -60.511882970941961, -31.839268277557274 ], [ -60.511634773064095, -31.839877728857186 ], [ -60.511484499624856, -31.84050468273589 ], [ -60.511314214734675, -31.841304706183518 ], [ -60.511226499217166, -31.841871755052644 ], [ -60.511195309870899, -31.842551916489764 ], [ -60.511226154806899, -31.843076730603553 ], [ -60.511292963108986, -31.843786323299025 ], [ -60.511336963378405, -31.844161955650019 ] ] ] } },
{ "type": "Feature", "properties": { "Shape_Leng": 14463.133835349781 }, "geometry": { "type": "MultiLineString", "coordinates": [ [ [ -60.519678014031385, -31.759828506042517 ], [ -60.519264058188789, -31.760265519257143 ], [ -60.518459601009624, -31.761241137423873 ], [ -60.517745495789725, -31.762144800831532 ], [ -60.517038224302965, -31.763024570741358 ], [ -60.516254601091667, -31.763988162609351 ], [ -60.515512556763149, -31.764897891368967 ], [ -60.51493688108858, -31.765592194221675 ], [ -60.514097917793372, -31.766657404419973 ], [ -60.513335213665165, -31.76762685760318 ], [ -60.512440520430964, -31.768722107825766 ], [ -60.51182306779306, -31.76944638831106 ], [ -60.511032419593668, -31.77042190552141 ], [ -60.510449856337843, -31.771146042024331 ], [ -60.510061224172595, -31.771583064372241 ], [ -60.509595781621989, -31.772020392858309 ], [ -60.509046215769345, -31.772398402973135 ], [ -60.508503268495659, -31.772710766650384 ], [ -60.507862496588139, -31.773011588618456 ], [ -60.507165270849839, -31.77320525497273 ], [ -60.506509745825127, -31.773362962300915 ], [ -60.505798063515094, -31.773467201130853 ], [ -60.504666672256917, -31.773435896003878 ], [ -60.503870516926376, -31.773415186374596 ], [ -60.502941461996777, -31.773353239754062 ], [ -60.501823879000391, -31.773292030174289 ], [ -60.500273112087022, -31.773184789521107 ], [ -60.499309149156609, -31.773122954377605 ], [ -60.49851991634673, -31.773090253729499 ], [ -60.49780710841916, -31.772985667065612 ], [ -60.49725461419542, -31.772826763343893 ], [ -60.496520003256066, -31.772561189977623 ], [ -60.495316096882732, -31.772023036905487 ], [ -60.493587341353667, -31.771266188729594 ], [ -60.492474556188292, -31.770787307424779 ], [ -60.491886732662579, -31.770545002088372 ], [ -60.49143208120271, -31.770397624532247 ], [ -60.490872728753999, -31.770256614533636 ], [ -60.490222981100352, -31.770187532510509 ], [ -60.489021524979186, -31.770102673097966 ], [ -60.48780604568946, -31.770005922914514 ], [ -60.48636002180266, -31.76988618166256 ], [ -60.485207608323989, -31.769830922760942 ], [ -60.483999054703048, -31.769722179389305 ], [ -60.482176050513779, -31.769615752862961 ], [ -60.480744066473157, -31.769507825043423 ], [ -60.478739312263734, -31.769360279044321 ], [ -60.477586753574428, -31.769275125134566 ], [ -60.476566925440842, -31.769201395593331 ], [ -60.47583325353466, -31.76910272837155 ], [ -60.475071105295982, -31.768896787414732 ], [ -60.474441411926534, -31.7686485907203 ], [ -60.473846328564385, -31.768340610864168 ], [ -60.473320801136765, -31.767978679631415 ], [ -60.472374308583511, -31.767218635110339 ], [ -60.471483298231618, -31.766380827909028 ], [ -60.47033934410441, -31.765227785819107 ], [ -60.468893899566588, -31.763819337176855 ], [ -60.467076810759046, -31.762084142307156 ], [ -60.465771757467301, -31.760806376281256 ], [ -60.464579192568891, -31.759677320159675 ], [ -60.463856388597954, -31.758940255458448 ], [ -60.463400470038607, -31.758518377353287 ], [ -60.462978573806069, -31.7579174142783 ], [ -60.462767494187247, -31.757590088440548 ], [ -60.462428526207482, -31.756815826354007 ], [ -60.462045599680138, -31.755624151772935 ], [ -60.461727023571299, -31.754736474537239 ], [ -60.461452028363723, -31.754188660119741 ], [ -60.461184640212053, -31.753766090627536 ], [ -60.460911011742958, -31.753492676277862 ], [ -60.460630404294456, -31.753219286550173 ], [ -60.460433747759922, -31.752981383361703 ], [ -60.459978407147979, -31.752666867251563 ], [ -60.459509429486772, -31.752418014928885 ], [ -60.459138399205891, -31.75221056596633 ], [ -60.458669749582924, -31.752027328306514 ], [ -60.458131409117122, -31.751868201360068 ], [ -60.457551508197135, -31.751774840360834 ], [ -60.457090519462248, -31.751728773009159 ], [ -60.456476181046007, -31.751730975378255 ], [ -60.455178395406527, -31.751878784799494 ], [ -60.454333940540323, -31.751935487213139 ], [ -60.452882620389914, -31.752095752036631 ], [ -60.449833502552991, -31.752446576035226 ], [ -60.448284373378257, -31.752595206050618 ], [ -60.446930738343028, -31.752749091957014 ], [ -60.445270098002197, -31.752939832717225 ], [ -60.44346997019997, -31.753160863198886 ], [ -60.44202561858927, -31.753326945071112 ], [ -60.441223482117188, -31.753478858682129 ], [ -60.440519110747573, -31.753636395874548 ], [ -60.439640597336599, -31.753878042698044 ], [ -60.438594669904333, -31.754150088360511 ], [ -60.437039771082787, -31.754567037286261 ], [ -60.436077436485803, -31.754802983205831 ], [ -60.435017606910044, -31.755092940639077 ], [ -60.43326716907503, -31.755504549936521 ], [ -60.432527694793365, -31.755626370052056 ], [ -60.431160218466459, -31.755821894679801 ], [ -60.429660255224547, -31.756053644789308 ], [ -60.42840438793651, -31.756230867271118 ], [ -60.426478921870654, -31.756547524370113 ], [ -60.42472771036541, -31.75680391827143 ], [ -60.42384165355098, -31.756938107127425 ], [ -60.423101801072697, -31.756982322524685 ], [ -60.422480551572228, -31.757008246005203 ], [ -60.421908065124853, -31.757010143095673 ], [ -60.42125856612379, -31.756964570292354 ], [ -60.419959461118772, -31.756849552296902 ], [ -60.418486035700532, -31.756782816628306 ], [ -60.417417433887842, -31.756690875441176 ], [ -60.416090572512758, -31.756611700376034 ], [ -60.414735809981472, -31.756538569810605 ], [ -60.413541575562121, -31.756452971576163 ], [ -60.411306833380536, -31.756311072015368 ], [ -60.410224410046631, -31.75624894355575 ], [ -60.409079078426238, -31.756169110781546 ], [ -60.408052511197297, -31.756106784497323 ], [ -60.40604814868454, -31.755958087943608 ], [ -60.404930799113345, -31.75589006096644 ], [ -60.40360398524745, -31.755816722186001 ], [ -60.402228272180558, -31.755737557351495 ], [ -60.400601105057902, -31.755629342693275 ], [ -60.398757411604961, -31.755497922255426 ], [ -60.395482095863336, -31.755269518900047 ], [ -60.393938795497519, -31.755178852232813 ], [ -60.39224183026468, -31.755070748296067 ], [ -60.390272518722199, -31.754945555511842 ], [ -60.388114761981562, -31.754832841463106 ], [ -60.386313015704879, -31.754707079584318 ] ] ] } }
]
}
