{
"type": "FeatureCollection",
"name": "redes_intersectoriales_y_barriales",
"crs": { "type": "name", "properties": { "name": "urn:ogc:def:crs:OGC:1.3:CRS84" } },
"features": [
{ "type": "Feature", "properties": { "Name": "Biblioteca Popular Caminantes", "Red": "Mesa Sureste", "Direccion": "Gobernador Antelo 1345- B° Los Gobernadores (Frente Plaza Alemania)", "Referente": "Rottoli, Carolina Mabel", "Contacto": "343-4260993 /343-4556886", "Mail": "bpcaminantes@gmail.com", "Ciudad": "Paraná", "Provincia": "Entre Ríos" }, "geometry": { "type": "Point", "coordinates": [ -60.49378, -31.76359, 0.0 ] } },
{ "type": "Feature", "properties": { "Name": "Centro de Salud Papa Francisco", "Red": "Mesa Sureste", "Direccion": "Calle 1346 y Calle E (zona Caputo y Tibiletti-B° 20 de Junio)", "Referente": "Irina Muller", "Contacto": "343-4397200", "Mail": "capspapafrancisco@gmail.com", "Ciudad": "Paraná", "Provincia": "Entre Ríos" }, "geometry": { "type": "Point", "coordinates": [ -60.47982, -31.76695, 0.0 ] } },
{ "type": "Feature", "properties": { "Name": "Unidad Educativa Nivel Inicial \"Dejando Huellitas\"", "Red": "Mesa Sureste", "Direccion": "Vivanco y Solari", "Referente": "", "Contacto": "", "Mail": "", "Ciudad": "Paraná", "Provincia": "Entre Ríos" }, "geometry": { "type": "Point", "coordinates": [ -60.4988, -31.77758, 0.0 ] } },
{ "type": "Feature", "properties": { "Name": "Escuela Nº 15 \"Gregorio Las Heras\"", "Red": "Mesa Sureste", "Direccion": "Avenida Zanni 1381", "Referente": "Adriana Garcilazo", "Contacto": "343-4363794", "Mail": "lasherasgregorio@hotmail.com", "Ciudad": "Paraná", "Provincia": "Entre Ríos" }, "geometry": { "type": "Point", "coordinates": [ -60.49828, -31.76325, 0.0 ] } },
{ "type": "Feature", "properties": { "Name": "Escuela Nº 22 \"Jorge Newbery\"", "Red": "Mesa Sureste", "Direccion": "Jorge Newbery 1404", "Referente": "", "Contacto": "343-4260224", "Mail": "", "Ciudad": "Paraná", "Provincia": "Entre Ríos" }, "geometry": { "type": "Point", "coordinates": [ -60.48643, -31.77806, 0.0 ] } },
{ "type": "Feature", "properties": { "Name": "Escuela Miguel Garcilazo y Liga de Los Pueblos Libres", "Red": "Mesa Sureste", "Direccion": "Vivanco S/N°", "Referente": "Lorena Buffa/ Georgina Nasser", "Contacto": "343-4301132", "Mail": "escuelagarcilaso@gmail.com", "Ciudad": "Paraná", "Provincia": "Entre Ríos" }, "geometry": { "type": "Point", "coordinates": [ -60.4984, -31.7771, 0.0 ] } },
{ "type": "Feature", "properties": { "Name": "Servicios de Proteccion de Derechos \"La Posta\" (COPNAF)", "Red": "Mesa Sureste", "Direccion": "Pablo Crausaz 105", "Referente": "Gisela Solís", "Contacto": "", "Mail": "", "Ciudad": "Paraná", "Provincia": "Entre Ríos" }, "geometry": { "type": "Point", "coordinates": [ -60.5249015, -31.7663001, 0.0 ] } },
{ "type": "Feature", "properties": { "Name": "Programa \"Libertad Asistida\" (COPNAF)- Centro de Salud Papa Fco", "Red": "Mesa Sureste", "Direccion": "Atiende en los domicilios de los 3 CAPS de la Red Sureste", "Referente": "Laura Espindola", "Contacto": "343-4397200", "Mail": "lib.asist.parana@gmail.com", "Ciudad": "Paraná", "Provincia": "Entre Ríos" }, "geometry": { "type": "Point", "coordinates": [ -60.47986, -31.76711, 0.0 ] } },
{ "type": "Feature", "properties": { "Name": "Programa \"Primeros Años\" (El Consejo Nacional de Coordinación de Políticas Sociales) CDR", "Red": "Mesa Sureste", "Direccion": "Ramírez 2537", "Referente": "Cintia Naser", "Contacto": "", "Mail": "", "Ciudad": "Paraná", "Provincia": "Entre Ríos" }, "geometry": { "type": "Point", "coordinates": [ -60.49907, -31.76425, 0.0 ] } },
{ "type": "Feature", "properties": { "Name": "Vecinal 9 de Julio", "Red": "Mesa Sureste", "Direccion": "", "Referente": "María Schmidt", "Contacto": "", "Mail": "", "Ciudad": "", "Provincia": "" }, "geometry": { "type": "Point", "coordinates": [ -60.4761, -31.76053, 0.0 ] } },
{ "type": "Feature", "properties": { "Name": "Vecinal UOCRA", "Red": "Mesa Sureste", "Direccion": "", "Referente": "Ariel Lazaeno", "Contacto": "", "Mail": "", "Ciudad": "", "Provincia": "" }, "geometry": { "type": "Point", "coordinates": [ -60.47734, -31.76368, 0.0 ] } },
{ "type": "Feature", "properties": { "Name": "Merendero Leo Messi", "Red": "Mesa Sureste", "Direccion": "", "Referente": "Mariano Almada", "Contacto": "", "Mail": "", "Ciudad": "", "Provincia": "" }, "geometry": { "type": "Point", "coordinates": [ -60.47543, -31.764477, 0.0 ] } },
{ "type": "Feature", "properties": { "Name": "Vecinal 21 de Septiembre", "Red": "Mesa Sureste", "Direccion": "", "Referente": "Oscar Flores", "Contacto": "", "Mail": "", "Ciudad": "", "Provincia": "" }, "geometry": { "type": "Point", "coordinates": [ -60.49091, -31.77963, 0.0 ] } },
{ "type": "Feature", "properties": { "Name": "Vecinal Parque del Lago", "Red": "Mesa Sureste", "Direccion": "", "Referente": "Paula Armándola", "Contacto": "", "Mail": "", "Ciudad": "", "Provincia": "" }, "geometry": { "type": "Point", "coordinates": [ -60.49397, -31.76882, 0.0 ] } },
{ "type": "Feature", "properties": { "Name": "Vecinal Santa María", "Red": "Mesa Sureste", "Direccion": "", "Referente": "Hugo Miranda", "Contacto": "", "Mail": "", "Ciudad": "", "Provincia": "" }, "geometry": { "type": "Point", "coordinates": [ -60.50752, -31.76124, 0.0 ] } },
{ "type": "Feature", "properties": { "Name": "Vecinal El Radar", "Red": "Mesa Sureste", "Direccion": "", "Referente": "Griselda Gomez", "Contacto": "", "Mail": "", "Ciudad": "", "Provincia": "" }, "geometry": { "type": "Point", "coordinates": [ -60.49058, -31.79452, 0.0 ] } },
{ "type": "Feature", "properties": { "Name": "Merendero Corazón Solidario", "Red": "Mesa Sureste", "Direccion": "", "Referente": "Hilda Flores", "Contacto": "", "Mail": "", "Ciudad": "", "Provincia": "" }, "geometry": { "type": "Point", "coordinates": [ -60.47551, -31.76783, 0.0 ] } },
{ "type": "Feature", "properties": { "Name": "Merendero El Radar", "Red": "Mesa Sureste", "Direccion": "Caputto y Calle 682", "Referente": "Isabel Capiaqui", "Contacto": "", "Mail": "", "Ciudad": "", "Provincia": "" }, "geometry": { "type": "Point", "coordinates": [ -60.4874205, -31.7932109, 0.0 ] } },
{ "type": "Feature", "properties": { "Name": "Centro de Salud Humberto D´Angelo", "Red": "Red Creer", "Direccion": "Calle Palma y Los Chanas", "Referente": "Mariela Velasquez", "Contacto": "343-4372228", "Mail": "capshumbertodangelo@gmail.com", "Ciudad": "Paraná", "Provincia": "Entre Ríos" }, "geometry": { "type": "Point", "coordinates": [ -60.55424, -31.74432, 0.0 ] } },
{ "type": "Feature", "properties": { "Name": "Capilla San Martin de Porres", "Red": "Red Creer", "Direccion": "Padre Cacho Ciuffo y Calle 620", "Referente": "Germán Brussa", "Contacto": "343-4273191", "Mail": "porresparana@gmail.com", "Ciudad": "Paraná", "Provincia": "Entre Ríos" }, "geometry": { "type": "Point", "coordinates": [ -60.55532, -31.74135, 0.0 ] } },
{ "type": "Feature", "properties": { "Name": "Instituto Secundario de Gestion Social \"Pablo de Tarso\"", "Red": "Red Creer", "Direccion": "Padre Cacho Ciuffo 1452", "Referente": "Germán Brussa", "Contacto": "343-4273191", "Mail": "inst.secundariogspablodetarso@gmail.com", "Ciudad": "Paraná", "Provincia": "Entre Ríos" }, "geometry": { "type": "Point", "coordinates": [ -60.55528, -31.74068, 0.0 ] } },
{ "type": "Feature", "properties": { "Name": "Centro \"Virgen de la Esperanza\"", "Red": "Red Creer", "Direccion": "Selva de Montiel 1697", "Referente": "Natalia Arioli", "Contacto": "343-4374554", "Mail": "cdvirgendelaesperanza@hotmail.com", "Ciudad": "Paraná", "Provincia": "Entre Ríos" }, "geometry": { "type": "Point", "coordinates": [ -60.5482, -31.74525, 0.0 ] } },
{ "type": "Feature", "properties": { "Name": "Dispositivo Intgral de Abordaje Territorial (SEDRONAR -SELCA)", "Red": "Red Creer", "Direccion": "Vives y Los Chanas 1401", "Referente": "", "Contacto": "", "Mail": "", "Ciudad": "Paraná", "Provincia": "Entre Ríos" }, "geometry": { "type": "Point", "coordinates": [ -60.55333, -31.74034, 0.0 ] } },
{ "type": "Feature", "properties": { "Name": "Jardin Maternal Municipal \"Semilitas de Ilusión\"", "Red": "Red Creer", "Direccion": "Virrey Vertiz y los jacarandaes", "Referente": "Mariela Cotti", "Contacto": "343-4582995", "Mail": "marielacotti@hotmail.com", "Ciudad": "Paraná", "Provincia": "Entre Ríos" }, "geometry": { "type": "Point", "coordinates": [ -60.55227, -31.74732, 0.0 ] } },
{ "type": "Feature", "properties": { "Name": "Jardin Maternal Municipal \"Los Gauchitos de la Virgen del Lujan\".", "Red": "Red Creer", "Direccion": "Calles 1011 y 1008", "Referente": "Ester Almada", "Contacto": "343-4201842", "Mail": "yenialmada15@gmail.com", "Ciudad": "Paraná", "Provincia": "Entre Ríos" }, "geometry": { "type": "Point", "coordinates": [ -60.54988, -31.74671, 0.0 ] } },
{ "type": "Feature", "properties": { "Name": "Jardin Maternal Municipal \"Abejitas\"", "Red": "Red Creer", "Direccion": "Los Chanas al final", "Referente": "Alejandra Scetti", "Contacto": "343-4273044", "Mail": "alelinda_scetti@hotmail.com", "Ciudad": "Paraná", "Provincia": "Entre Ríos" }, "geometry": { "type": "Point", "coordinates": [ -60.55427, -31.74397, 0.0 ] } },
{ "type": "Feature", "properties": { "Name": "Escuela Primaria N° 207 \"Juana Teresa Crombeen\"", "Red": "Red Creer", "Direccion": "Montiel N° 1696", "Referente": "Alejandra Gauna", "Contacto": "343-4374554", "Mail": "escuelajuanatcrombeen@hotmail.com", "Ciudad": "Paraná", "Provincia": "Entre Ríos" }, "geometry": { "type": "Point", "coordinates": [ -60.54821, -31.74545, 0.0 ] } },
{ "type": "Feature", "properties": { "Name": "Escuela de Educacion Integral Nº 21 \"Celia Ortiz de Montoya\"", "Red": "Red Creer", "Direccion": "Facundo y Los Chanas", "Referente": "", "Contacto": "343-4270570", "Mail": "blogesc21pna@gmail.com", "Ciudad": "Paraná", "Provincia": "Entre Ríos" }, "geometry": { "type": "Point", "coordinates": [ -60.55337, -31.74004, 0.0 ] } },
{ "type": "Feature", "properties": { "Name": "Escuela 201/52 \"Gaucho Rivero\"", "Red": "Red Creer", "Direccion": "Santa Elena S/N°- B° P. Kolbe", "Referente": "TS Elba Driz", "Contacto": "343-4279986", "Mail": "", "Ciudad": "Paraná", "Provincia": "Entre Ríos" }, "geometry": { "type": "Point", "coordinates": [ -60.54694, -31.74724, 0.0 ] } },
{ "type": "Feature", "properties": { "Name": "Comedor Rincon de Luz", "Red": "Red Este", "Direccion": "Del Mate 4757", "Referente": "María Fernanda Gareis", "Contacto": "343-6110056", "Mail": "penauleonela@gmail.com", "Ciudad": "Paraná", "Provincia": "Entre Ríos" }, "geometry": { "type": "Point", "coordinates": [ -60.4529, -31.75569, 0.0 ] } },
{ "type": "Feature", "properties": { "Name": "Comedor Querer es Poder", "Red": "Red Este", "Direccion": "Jorge Luis Borges", "Referente": "Sofía Mega", "Contacto": "343-5341405", "Mail": "sofiamega280@gmail.com", "Ciudad": "Paraná", "Provincia": "Entre Ríos" }, "geometry": { "type": "Point", "coordinates": [ -60.46744, -31.75386, 0.0 ] } },
{ "type": "Feature", "properties": { "Name": "Comedor Todos por Parera", "Red": "Red Este", "Direccion": "Gdor. Maya y Churruarín", "Referente": "Ricardo Miller", "Contacto": "343-5208019", "Mail": "", "Ciudad": "Paraná", "Provincia": "Entre Ríos" }, "geometry": { "type": "Point", "coordinates": [ -60.4571, -31.75216, 0.0 ] } },
{ "type": "Feature", "properties": { "Name": "Centro Huella", "Red": "Red Este", "Direccion": "Manuel Gálvez 215", "Referente": "José Luis Cian", "Contacto": "343-4206239", "Mail": "centrohuellaparana@gmail.com", "Ciudad": "Paraná", "Provincia": "Entre Ríos" }, "geometry": { "type": "Point", "coordinates": [ -60.45196, -31.75669, 0.0 ] } },
{ "type": "Feature", "properties": { "Name": "COPNAF (Servicio de protección de Derechos -Equipo Móvil-", "Red": "Red Este", "Direccion": "Urquiza 831", "Referente": "Silvina Ibarra", "Contacto": "343-4712235", "Mail": "spdmovilcopnaf@gmail,com", "Ciudad": "Paraná", "Provincia": "Entre Ríos" }, "geometry": { "type": "Point", "coordinates": [ -60.45229, -31.7563, 0.0 ] } },
{ "type": "Feature", "properties": { "Name": "Escuela Juan L. Ortiz", "Red": "Red Este", "Direccion": "De La Yerra 576", "Referente": "Mabel Silva", "Contacto": "343-4362593", "Mail": "secundaria17poetaortiz@hotmail.com", "Ciudad": "Paraná", "Provincia": "Entre Ríos" }, "geometry": { "type": "Point", "coordinates": [ -60.45229, -31.75651, 0.0 ] } },
{ "type": "Feature", "properties": { "Name": "Departamental de Policia", "Red": "Red Este", "Direccion": "Gualeguaychú 322", "Referente": "Liliana Monzón", "Contacto": "343-5064528", "Mail": "", "Ciudad": "Paraná", "Provincia": "Entre Ríos" }, "geometry": { "type": "Point", "coordinates": [ -60.45229, -31.7567, 0.0 ] } },
{ "type": "Feature", "properties": { "Name": "Vecinal San Jose", "Red": "Red Este", "Direccion": "Del Recado 250", "Referente": "Sebastián Graudi", "Contacto": "343-5122386", "Mail": "", "Ciudad": "Paraná", "Provincia": "Entre Ríos" }, "geometry": { "type": "Point", "coordinates": [ -60.45557, -31.76085, 0.0 ] } },
{ "type": "Feature", "properties": { "Name": "Fundacion Ecos de Eternidad", "Red": "Red Este", "Direccion": "Cervantes 547", "Referente": "Heber A. Gallito", "Contacto": "343-4553726", "Mail": "heberyfiona@outlook.com", "Ciudad": "Paraná", "Provincia": "Entre Ríos" }, "geometry": { "type": "Point", "coordinates": [ -60.45214, -31.75658, 0.0 ] } },
{ "type": "Feature", "properties": { "Name": "Caps El Charrúa", "Red": "Red Este", "Direccion": "Poeta Jose Murga", "Referente": "Mariela Gottig", "Contacto": "343-4365440", "Mail": "c_selcharrua@hotmail.com", "Ciudad": "Paraná", "Provincia": "Entre Ríos" }, "geometry": { "type": "Point", "coordinates": [ -60.46888, -31.75671, 0.0 ] } },
{ "type": "Feature", "properties": { "Name": "COPNAF -Mejor es Convivir-", "Red": "Red Este", "Direccion": "Jorge Newvery 1834", "Referente": "Ira Maida Ardaya", "Contacto": "343-5136107", "Mail": "mejoresconvivir19@gmail.com", "Ciudad": "Paraná", "Provincia": "Entre Ríos" }, "geometry": { "type": "Point", "coordinates": [ -60.45206, -31.75647, 0.0 ] } },
{ "type": "Feature", "properties": { "Name": "APANA", "Red": "Red Los Berros", "Direccion": "25 de junio 527", "Referente": "Cristina Ripari", "Contacto": "343-4218005", "Mail": "apana.parana@gmail.com", "Ciudad": "Paraná", "Provincia": "Entre Ríos" }, "geometry": { "type": "Point", "coordinates": [ -60.53371, -31.77872, 0.0 ] } },
{ "type": "Feature", "properties": { "Name": "APADEA", "Red": "Red Los Berros", "Direccion": "Lebensohn y Padre P. Uva", "Referente": "Marcela Tornelli", "Contacto": "343-4165161", "Mail": "apadeaescucha@gmail.com", "Ciudad": "Paraná", "Provincia": "Entre Ríos" }, "geometry": { "type": "Point", "coordinates": [ -60.532397, -31.7797246, 0.0 ] } },
{ "type": "Feature", "properties": { "Name": "Centro de Salud Kentenich", "Red": "Red Los Berros", "Direccion": "1er Congreso Mariano Nacional 3057", "Referente": "Florencia Lopez Benavides", "Contacto": "343-4355200", "Mail": "capskentenich@gmail.com", "Ciudad": "Paraná", "Provincia": "Entre Ríos" }, "geometry": { "type": "Point", "coordinates": [ -60.53332, -31.76405, 0.0 ] } },
{ "type": "Feature", "properties": { "Name": "Plan ENIA de SENAF", "Red": "Red Los Berros", "Direccion": "Lebensohn y Padre P. Uva", "Referente": "Cinthia Nasser", "Contacto": "", "Mail": "cnasser@senaf.gob.ar", "Ciudad": "Paraná", "Provincia": "Entre Ríos" }, "geometry": { "type": "Point", "coordinates": [ -60.53324, -31.77956, 0.0 ] } },
{ "type": "Feature", "properties": { "Name": "Mejor Es Convivir COPNAF", "Red": "Red Los Berros", "Direccion": "Lebensohn y Padre P. Uva", "Referente": "Ira Maida Ardaya", "Contacto": "343-5136107", "Mail": "iramaida@gmail.com", "Ciudad": "Paraná", "Provincia": "Entre Ríos" }, "geometry": { "type": "Point", "coordinates": [ -60.53384, -31.77947, 0.0 ] } },
{ "type": "Feature", "properties": { "Name": "Pro Hueta Municipal", "Red": "Red Los Berros", "Direccion": "Lebensohn y Padre P. Uva", "Referente": "Maximiliano Laferrara", "Contacto": "434-4246549", "Mail": "ecosocialparana@gmail.com", "Ciudad": "Paraná", "Provincia": "Entre Ríos" }, "geometry": { "type": "Point", "coordinates": [ -60.5332, -31.77919, 0.0 ] } },
{ "type": "Feature", "properties": { "Name": "Movimiento Social La Dignidad", "Red": "Red Los Berros", "Direccion": "Lebensohn y Padre P. Uva", "Referente": "Guillermo Reynals", "Contacto": "343-4661870", "Mail": "pajarosderio@gmail.com", "Ciudad": "Paraná", "Provincia": "Entre Ríos" }, "geometry": { "type": "Point", "coordinates": [ -60.5338, -31.77909, 0.0 ] } },
{ "type": "Feature", "properties": { "Name": "Escuela Tabaré", "Red": "Red Los Berros", "Direccion": "Av. de las Américas 5622", "Referente": "Roxana Traverso", "Contacto": "343-4650674", "Mail": "e67tabare@gmail.com", "Ciudad": "Paraná", "Provincia": "Entre Ríos" }, "geometry": { "type": "Point", "coordinates": [ -60.51527, -31.79428, 0.0 ] } },
{ "type": "Feature", "properties": { "Name": "Servicio de ANACLETO del COPNAF", "Red": "Red Los Berros", "Direccion": "Alvarado 1298", "Referente": "Marianela Rivero", "Contacto": "343-4612575", "Mail": "marianelarivero@gmail.com", "Ciudad": "Paraná", "Provincia": "Entre Ríos" }, "geometry": { "type": "Point", "coordinates": [ -60.53326, -31.77826, 0.0 ] } },
{ "type": "Feature", "properties": { "Name": "Comisión Vecinal Los Berros", "Red": "Red Los Berros", "Direccion": "Cortada 832", "Referente": "Mara Robin", "Contacto": "343-4380238", "Mail": "mararobin@gmail.com", "Ciudad": "Paraná", "Provincia": "Entre Ríos" }, "geometry": { "type": "Point", "coordinates": [ -60.52993, -31.77516, 0.0 ] } },
{ "type": "Feature", "properties": { "Name": "Coordinación de capacitación laboral para Jóvenes y Adultos CGE", "Red": "Red Los Berros", "Direccion": "Lebensohn y Padre P. Uva", "Referente": "Adela Ramírez", "Contacto": "343-4840986", "Mail": "aprenderentrerios@gmail.com", "Ciudad": "Paraná", "Provincia": "Entre Ríos" }, "geometry": { "type": "Point", "coordinates": [ -60.53312, -31.77881, 0.0 ] } },
{ "type": "Feature", "properties": { "Name": "Merendero Lucerito", "Red": "Red Los Berros", "Direccion": "Cortada 832", "Referente": "Mara Robin", "Contacto": "343-4380238", "Mail": "mararobin@gmail.com", "Ciudad": "Paraná", "Provincia": "Entre Ríos" }, "geometry": { "type": "Point", "coordinates": [ -60.53015, -31.77534, 0.0 ] } },
{ "type": "Feature", "properties": { "Name": "Escuela N°19 \"Raúl Humberto Záccaro\"", "Red": "Red Noreste", "Direccion": "AV. R. Uranga S/N- AV. Circunvalación José Henández", "Referente": "Claudia Rolón / Mariano Martinez", "Contacto": "0343-4330516", "Mail": "escuelazaccaro@hotmail.com", "Ciudad": "Paraná", "Provincia": "Entre Ríos" }, "geometry": { "type": "Point", "coordinates": [ -60.49467, -31.72751, 0.0 ] } },
{ "type": "Feature", "properties": { "Name": "Escuela Los Constituyentes", "Red": "Red Noreste", "Direccion": "AV. R. Uranga S/N- AV. Circunvalación José Henández", "Referente": "", "Contacto": "0343-4331530", "Mail": "esc.losconstituyentes@hotmail.com", "Ciudad": "Paraná", "Provincia": "Entre Ríos" }, "geometry": { "type": "Point", "coordinates": [ -60.49456, -31.72691, 0.0 ] } },
{ "type": "Feature", "properties": { "Name": "Escuela Técnica N°1 - General Ramírez", "Red": "Red Noreste", "Direccion": "Martín Zapata 1053", "Referente": "", "Contacto": "0343-4241736", "Mail": "info@eet1parana.edu.ar", "Ciudad": "Paraná", "Provincia": "Entre Ríos" }, "geometry": { "type": "Point", "coordinates": [ -60.50351, -31.74728, 0.0 ] } },
{ "type": "Feature", "properties": { "Name": "Escuela Liceo Paula Albarracín de Sarmiento", "Red": "Red Noreste", "Direccion": "Toscanini 64", "Referente": "", "Contacto": "0343-4312893", "Mail": "liceopaula@yahoo.com", "Ciudad": "Paraná", "Provincia": "Entre Ríos" }, "geometry": { "type": "Point", "coordinates": [ -60.51371, -31.72711, 0.0 ] } },
{ "type": "Feature", "properties": { "Name": "Servicio de Protección de Derechos \"San Cayetano\" (Copnaf)", "Red": "Red Noreste", "Direccion": "Nogoyá 848", "Referente": "", "Contacto": "0343- 4840372", "Mail": "spdsancayetano@hotmail.com", "Ciudad": "Paraná", "Provincia": "Entre Ríos" }, "geometry": { "type": "Point", "coordinates": [ -60.51661, -31.72796, 0.0 ] } },
{ "type": "Feature", "properties": { "Name": "Programa \"Mejor es Convivir\" (Copnaf)", "Red": "Red Noreste", "Direccion": "Urquiza 1249", "Referente": "Ira Maida", "Contacto": "0343-5136107", "Mail": "mejoresconvivir19@gmail.com", "Ciudad": "Paraná", "Provincia": "Entre Ríos" }, "geometry": { "type": "Point", "coordinates": [ -60.4970366, -31.7234781, 0.0 ] } },
{ "type": "Feature", "properties": { "Name": "Programa \"Libertad Asistida\" (Copnaf)", "Red": "Red Noreste", "Direccion": "Corrientes 190", "Referente": "Mariana Battauz", "Contacto": "0343-4208819", "Mail": "subdireccionpenal@gmail.com", "Ciudad": "Paraná", "Provincia": "Entre Ríos" }, "geometry": { "type": "Point", "coordinates": [ -60.4970695, -31.7239665, 0.0 ] } },
{ "type": "Feature", "properties": { "Name": "Plan Nacional de Prevención del Embarazo No Intencional en la Adolescencia (SENAF)", "Red": "Red Noreste", "Direccion": "Corrientes 190", "Referente": "Cintia Nasser", "Contacto": "", "Mail": "", "Ciudad": "Paraná", "Provincia": "Entre Ríos" }, "geometry": { "type": "Point", "coordinates": [ -60.497518, -31.7236435, 0.0 ] } },
{ "type": "Feature", "properties": { "Name": "Fundación Ecos de Eternidad", "Red": "Red Noreste", "Direccion": "Cervantes 547", "Referente": "Eber Gallito", "Contacto": "", "Mail": "ecosdeeternidad@gmail.com", "Ciudad": "Paraná", "Provincia": "Entre Ríos" }, "geometry": { "type": "Point", "coordinates": [ -60.4964524, -31.7237596, 0.0 ] } },
{ "type": "Feature", "properties": { "Name": "Centro de Salud \"El Brete\"", "Red": "Red Noreste", "Direccion": "Juan Pringles 510", "Referente": "Celeste Nesa", "Contacto": "0343-4340598", "Mail": "capselbreteparana@hotmail.com", "Ciudad": "Paraná", "Provincia": "Entre Ríos" }, "geometry": { "type": "Point", "coordinates": [ -60.50867, -31.73209, 0.0 ] } },
{ "type": "Feature", "properties": { "Name": "Centro de Salud \"Toma Nueva\"", "Red": "Red Noreste", "Direccion": "Rondeau y El Viraro", "Referente": "Fabiana Vargas", "Contacto": "0343-4331612", "Mail": "", "Ciudad": "Paraná", "Provincia": "Entre Ríos" }, "geometry": { "type": "Point", "coordinates": [ -60.49328, -31.71094, 0.0 ] } },
{ "type": "Feature", "properties": { "Name": "Club Fournier", "Red": "Red Noreste", "Direccion": "Sud América 2350", "Referente": "Virginia Klaus", "Contacto": "", "Mail": "", "Ciudad": "Paraná", "Provincia": "Entre Ríos" }, "geometry": { "type": "Point", "coordinates": [ -60.51062, -31.72802, 0.0 ] } },
{ "type": "Feature", "properties": { "Name": "Hospital Escuela de Salud Mental", "Red": "Red Noreste", "Direccion": "Ambrosetti y Rondeau", "Referente": "Natalia Medina / Jasna Hamman", "Contacto": "0343-4331817", "Mail": "", "Ciudad": "Paraná", "Provincia": "Entre Ríos" }, "geometry": { "type": "Point", "coordinates": [ -60.49694, -31.7237, 0.0 ] } },
{ "type": "Feature", "properties": { "Name": "Escuela Hogar", "Red": "Red Noreste", "Direccion": "Don Bosco 749", "Referente": "", "Contacto": "343 424-1117", "Mail": "", "Ciudad": "Paraná", "Provincia": "Entre Ríos" }, "geometry": { "type": "Point", "coordinates": [ -60.50558, -31.73409, 0.0 ] } },
{ "type": "Feature", "properties": { "Name": "Comedor Doña Petrona", "Red": "Red Noreste", "Direccion": "Monseñor Dobler 987", "Referente": "Nataly Medina", "Contacto": "", "Mail": "", "Ciudad": "Paraná", "Provincia": "Entre Ríos" }, "geometry": { "type": "Point", "coordinates": [ -60.5, -31.73295, 0.0 ] } },
{ "type": "Feature", "properties": { "Name": "Centro de Salud Selig Goldin", "Red": "Red Noreste", "Direccion": "Av. Laurencena y Av. Ramirez", "Referente": "Dennis Gareis", "Contacto": "", "Mail": "", "Ciudad": "Paraná", "Provincia": "Entre Ríos" }, "geometry": { "type": "Point", "coordinates": [ -60.51474, -31.72294, 0.0 ] } },
{ "type": "Feature", "properties": { "Name": "Hogar de Proteccion Ines Londra", "Red": "Red Noreste", "Direccion": "Padre Corona 700", "Referente": "Leila Cañete", "Contacto": "", "Mail": "", "Ciudad": "Paraná", "Provincia": "Entre Ríos" }, "geometry": { "type": "Point", "coordinates": [ -60.50468, -31.73228, 0.0 ] } },
{ "type": "Feature", "properties": { "Name": "Comisión Vecinal Florida", "Red": "Red Noreste", "Direccion": "Sudamérica 2350", "Referente": "Mauricio Klaus", "Contacto": "", "Mail": "", "Ciudad": "Paraná", "Provincia": "Entre Ríos" }, "geometry": { "type": "Point", "coordinates": [ -60.51061, -31.7278, 0.0 ] } },
{ "type": "Feature", "properties": { "Name": "Comedor Toma Nueva", "Red": "Red Noreste", "Direccion": "Blas Parera", "Referente": "Iris Lescano", "Contacto": "343623790", "Mail": "lorenah_89@hotmail.com", "Ciudad": "Paraná", "Provincia": "Entre Ríos" }, "geometry": { "type": "Point", "coordinates": [ -60.4940857, -31.7083568, 0.0 ] } },
{ "type": "Feature", "properties": { "Name": "Centro de Salud Alcain", "Red": "Red Noreste", "Direccion": "Dr. Pintos 839", "Referente": "Patricia Guastavino", "Contacto": "3434244006", "Mail": "", "Ciudad": "Paraná", "Provincia": "Entre Ríos" }, "geometry": { "type": "Point", "coordinates": [ -60.50213, -31.72925, 0.0 ] } },
{ "type": "Feature", "properties": { "Name": "Servicio de Protección de Derechos \"El Patio\"", "Red": "Red Oeste / La Floresta", "Direccion": "Urquiza 1422", "Referente": "Mariana Zabala", "Contacto": "343-4767010", "Mail": "spdelpatio@gmail.com", "Ciudad": "Paraná", "Provincia": "Entre Ríos" }, "geometry": { "type": "Point", "coordinates": [ -60.55308, -31.73128, 0.0 ] } },
{ "type": "Feature", "properties": { "Name": "Centro de Salud \"Antártida Argentina\"", "Red": "Red Oeste / La Floresta", "Direccion": "Burmeister y el Resero", "Referente": "Elisa Krause", "Contacto": "343-4372988", "Mail": "antartida_argentina@hotmail.com", "Ciudad": "Paraná", "Provincia": "Entre Ríos" }, "geometry": { "type": "Point", "coordinates": [ -60.55303, -31.73106, 0.0 ] } },
{ "type": "Feature", "properties": { "Name": "Centro de Salud \"San Martin\"", "Red": "Red Oeste / La Floresta", "Direccion": "Florentino Ameghino al final S/N° -B° San Martín", "Referente": "Cristina Marroquí Delgado", "Contacto": "343-4374519", "Mail": "centrodesaludsanmartin@hotmail.com", "Ciudad": "Paraná", "Provincia": "Entre Ríos" }, "geometry": { "type": "Point", "coordinates": [ -60.55856, -31.72586, 0.0 ] } },
{ "type": "Feature", "properties": { "Name": "Centro Regional de Referencia \"Dr. Ramón Carrillo\"", "Red": "Red Oeste / La Floresta", "Direccion": "Selva de Montiel 645", "Referente": "Georgina López", "Contacto": "343-4270323", "Mail": "", "Ciudad": "Paraná", "Provincia": "Entre Ríos" }, "geometry": { "type": "Point", "coordinates": [ -60.54555, -31.73305, 0.0 ] } },
{ "type": "Feature", "properties": { "Name": "Escuela Secundaria \"Nuestra Señora de Guadalupe\"", "Red": "Red Oeste / La Floresta", "Direccion": "República del Líbano 2699", "Referente": "María del Carmen Sueldo", "Contacto": "343-4374420", "Mail": "nsguadalupe125@hotmail.com", "Ciudad": "Paraná", "Provincia": "Entre Ríos" }, "geometry": { "type": "Point", "coordinates": [ -60.55359, -31.73027, 0.0 ] } },
{ "type": "Feature", "properties": { "Name": "Casa de Atención y Acompañamiento Comunitario (CAAC) \"José Daniel Rodríguez\"", "Red": "Red Oeste / La Floresta", "Direccion": "Florentino Ameghino", "Referente": "Javier Billordo", "Contacto": "343-4472907", "Mail": "javierbillordo12@gmail.com", "Ciudad": "Paraná", "Provincia": "Entre Ríos" }, "geometry": { "type": "Point", "coordinates": [ -60.55423, -31.7279, 0.0 ] } },
{ "type": "Feature", "properties": { "Name": "Biblioteca Popular \"Nora Cortiñas\"", "Red": "Red Oeste / La Floresta", "Direccion": "Vicecomodoro Marambio e Islas Orcadas del Sur", "Referente": "Florencia Navarro", "Contacto": "343-4240989", "Mail": "dante.mp@hotmail.com", "Ciudad": "Paraná", "Provincia": "Entre Ríos" }, "geometry": { "type": "Point", "coordinates": [ -60.55683, -31.73134, 0.0 ] } },
{ "type": "Feature", "properties": { "Name": "Centro de Acceso a la Justicia", "Red": "Red Oeste / La Floresta", "Direccion": "Republica de Siria N° 486", "Referente": "Ana Durjchin", "Contacto": "343-4621370", "Mail": "accesoalajusticiapna@gmail.com", "Ciudad": "Paraná", "Provincia": "Entre Ríos" }, "geometry": { "type": "Point", "coordinates": [ -60.5535, -31.72925, 0.0 ] } },
{ "type": "Feature", "properties": { "Name": "Secretaría Nacional de Niñez Adolescencia y Familia (SENNAF)", "Red": "Red Oeste / La Floresta", "Direccion": "Francisco Ramírez 2537", "Referente": "Cinthia Nasser/ Betiana Fornara", "Contacto": "343-4718685", "Mail": "comunidad@sennaf.gob.ar", "Ciudad": "Paraná", "Provincia": "Entre Ríos" }, "geometry": { "type": "Point", "coordinates": [ -60.5529, -31.73133, 0.0 ] } },
{ "type": "Feature", "properties": { "Name": "Parroquia Nuestra Señora de Guadalupe", "Red": "Red Oeste / La Floresta", "Direccion": "Republica de Siria 494", "Referente": "Ricardo Lopez", "Contacto": "4272094", "Mail": "", "Ciudad": "Paraná ", "Provincia": "Entre Rios" }, "geometry": { "type": "Point", "coordinates": [ -60.5534, -31.72951, 0.0 ] } },
{ "type": "Feature", "properties": { "Name": "Centro de Salud Puerto Viejo", "Red": "Red Puerto Viejo", "Direccion": "Estrada y Padre Roberto Croce", "Referente": "Cristina Gadea", "Contacto": "343-4319089", "Mail": "", "Ciudad": "Paraná", "Provincia": "Entre Ríos" }, "geometry": { "type": "Point", "coordinates": [ -60.54084, -31.71522, 0.0 ] } },
{ "type": "Feature", "properties": { "Name": "Escuela Juan Martin de Pueyrredon", "Red": "Red Puerto Viejo", "Direccion": "Los Vascos 795", "Referente": "Dirc. Ana Caraballo ", "Contacto": "", "Mail": "primaria8.pn.@entrerios.edu.ar", "Ciudad": "Paraná", "Provincia": "Entre Ríos" }, "geometry": { "type": "Point", "coordinates": [ -60.53905, -31.71866, 0.0 ] } },
{ "type": "Feature", "properties": { "Name": "Jardin Maternal \"Mojarritas\"", "Red": "Red Puerto Viejo", "Direccion": "Asturias S/N", "Referente": "Dir. Fabiana Tarabini ", "Contacto": "343-4207802", "Mail": "", "Ciudad": "Paraná", "Provincia": "Entre Ríos" }, "geometry": { "type": "Point", "coordinates": [ -60.5406297, -31.7165426, 0.0 ] } },
{ "type": "Feature", "properties": { "Name": "Hospital Escuela de Salud Mental (Extension Comunit.)", "Red": "Red Puerto Viejo", "Direccion": "Rondeau y Ambrosetti", "Referente": "", "Contacto": "", "Mail": "", "Ciudad": "Paraná", "Provincia": "Entre Ríos" }, "geometry": { "type": "Point", "coordinates": [ -60.54086, -31.7153323, 0.0 ] } },
{ "type": "Feature", "properties": { "Name": "Servicio de Proteccion de Derechos \"El Costero\"", "Red": "Red Puerto Viejo", "Direccion": "Cervantes 361", "Referente": "Esteban Sigal", "Contacto": "0343 - 4208833", "Mail": "", "Ciudad": "Paraná", "Provincia": "Entre Ríos" }, "geometry": { "type": "Point", "coordinates": [ -60.54077, -31.71515, 0.0 ] } },
{ "type": "Feature", "properties": { "Name": "COPNAF Programa \"Libertad Asistida\"", "Red": "Red Puerto Viejo", "Direccion": "Corrientes 190", "Referente": "", "Contacto": "(0343) 4208819", "Mail": "", "Ciudad": "Paraná", "Provincia": "Entre Ríos" }, "geometry": { "type": "Point", "coordinates": [ -60.54093, -31.71532, 0.0 ] } },
{ "type": "Feature", "properties": { "Name": "COPNAF (Area Deportes)", "Red": "Red Puerto Viejo", "Direccion": "Corrientes 190", "Referente": "", "Contacto": "", "Mail": "", "Ciudad": "Paraná", "Provincia": "Entre Ríos" }, "geometry": { "type": "Point", "coordinates": [ -60.5407298, -31.7152835, 0.0 ] } },
{ "type": "Feature", "properties": { "Name": "COPNAF (Programa Mejor es Convivir)", "Red": "Red Puerto Viejo", "Direccion": "Corrientes 190", "Referente": "Ira Maida", "Contacto": "343-5136107", "Mail": "mejoresconvivir19@gmail.com", "Ciudad": "Paraná", "Provincia": "Entre Ríos" }, "geometry": { "type": "Point", "coordinates": [ -60.54098, -31.71526, 0.0 ] } },
{ "type": "Feature", "properties": { "Name": "Estudiantes Psicologia (FHAYCS - UADER)", "Red": "Red Puerto Viejo", "Direccion": "Urquiza y Corrientes", "Referente": "", "Contacto": "", "Mail": "", "Ciudad": "Paraná", "Provincia": "Entre Ríos" }, "geometry": { "type": "Point", "coordinates": [ -60.54094, -31.71519, 0.0 ] } },
{ "type": "Feature", "properties": { "Name": "Estudiantes Lic. Terapia Ocupacional (UNL)", "Red": "Red Puerto Viejo", "Direccion": "", "Referente": "", "Contacto": "", "Mail": "", "Ciudad": "Paraná", "Provincia": "Entre Ríos" }, "geometry": { "type": "Point", "coordinates": [ -60.54085, -31.71512, 0.0 ] } },
{ "type": "Feature", "properties": { "Name": "Estudiantes Lic. Trabajo Social (UNER)", "Red": "Red Puerto Viejo", "Direccion": "Brown y Ramirez", "Referente": "", "Contacto": "", "Mail": "", "Ciudad": "Paraná", "Provincia": "Entre Ríos" }, "geometry": { "type": "Point", "coordinates": [ -60.540718, -31.7152137, 0.0 ] } },
{ "type": "Feature", "properties": { "Name": "Escuela Cecilia Greca", "Red": "Red Puerto Viejo", "Direccion": "Osinalde y Los Vascos", "Referente": "Cristian Machado", "Contacto": "", "Mail": "", "Ciudad": "Paraná", "Provincia": "Entre Ríos" }, "geometry": { "type": "Point", "coordinates": [ -60.5399222, -31.7195573, 0.0 ] } },
{ "type": "Feature", "properties": { "Name": "Centro Comunitario N°3 Josefina Zubizarreta", "Red": "Red Puerto Viejo", "Direccion": "Av. José Manuel Estrada 1050", "Referente": "Leandro Scopeta ", "Contacto": "3413548454", "Mail": "", "Ciudad": "Paraná", "Provincia": "Entre Ríos" }, "geometry": { "type": "Point", "coordinates": [ -60.5403446, -31.7163281, 0.0 ] } },
{ "type": "Feature", "properties": { "Name": "Merendero Huellitas", "Red": "Red Puerto Viejo", "Direccion": "Calle Anacleto Medina", "Referente": "Elizabeth Nuñez", "Contacto": "", "Mail": "", "Ciudad": "Paraná", "Provincia": "Entre Ríos" }, "geometry": { "type": "Point", "coordinates": [ -60.54278, -31.71958, 0.0 ] } },
{ "type": "Feature", "properties": { "Name": "Merendero Arroyito", "Red": "Red Puerto Viejo", "Direccion": "Nicaragua 192", "Referente": "Cecilia Moreno", "Contacto": "", "Mail": "", "Ciudad": "Paraná", "Provincia": "Entre Ríos" }, "geometry": { "type": "Point", "coordinates": [ -60.54105, -31.7174, 0.0 ] } },
{ "type": "Feature", "properties": { "Name": "Vecinal Puerto Viejo", "Red": "Red Puerto Viejo", "Direccion": "", "Referente": "Romero Nelson", "Contacto": "", "Mail": "", "Ciudad": "Paraná", "Provincia": "Entre Ríos" }, "geometry": { "type": "Point", "coordinates": [ -60.54123, -31.71636, 0.0 ] } },
{ "type": "Feature", "properties": { "Name": "Programa Primera Infancia", "Red": "Red Puerto Viejo", "Direccion": "Corrientes 190", "Referente": "", "Contacto": "", "Mail": "", "Ciudad": "Paraná", "Provincia": "Entre Ríos" }, "geometry": { "type": "Point", "coordinates": [ -60.5407866, -31.7153294, 0.0 ] } },
{ "type": "Feature", "properties": { "Name": "Biblioteca Popular Caminantes", "Red": "Red Sureste", "Direccion": "Gobernador Antelo 1345- B° Los Gobernadores (Frente Plaza Alemania)", "Referente": "Rottoli, Carolina Mabel", "Contacto": "343-4260993 /343-4556886", "Mail": "bpcaminantes@gmail.com", "Ciudad": "Paraná", "Provincia": "Entre Ríos" }, "geometry": { "type": "Point", "coordinates": [ -60.49429, -31.76398, 0.0 ] } },
{ "type": "Feature", "properties": { "Name": "Centro de Salud Papa Francisco", "Red": "Red Sureste", "Direccion": "Calle 1346 y Calle E (zona Caputo y Tibiletti-B° 20 de Junio)", "Referente": "Irina Muller", "Contacto": "343-4397200", "Mail": "capspapafrancisco@gmail.com", "Ciudad": "Paraná", "Provincia": "Entre Ríos" }, "geometry": { "type": "Point", "coordinates": [ -60.48004, -31.76708, 0.0 ] } },
{ "type": "Feature", "properties": { "Name": "Centro de Salud Jorge Newery", "Red": "Red Sureste", "Direccion": "Jorge Newbery y Gonzalo Becerro 2410 -", "Referente": "Diana Acevedo", "Contacto": "343-4262564", "Mail": "csjn1@hotmail.com", "Ciudad": "Paraná", "Provincia": "Entre Ríos" }, "geometry": { "type": "Point", "coordinates": [ -60.48709, -31.77807, 0.0 ] } },
{ "type": "Feature", "properties": { "Name": "Centro Regional de Referencia Dr. A Oñativia (Corrales)", "Red": "Red Sureste", "Direccion": "Avenida Zanni 1492", "Referente": "Lidia Camejo", "Contacto": "343-4260426", "Mail": "capscorrales@gmail.com", "Ciudad": "Paraná", "Provincia": "Entre Ríos" }, "geometry": { "type": "Point", "coordinates": [ -60.49908, -31.76441, 0.0 ] } },
{ "type": "Feature", "properties": { "Name": "Unidad Educativa Nivel Inicial \"Dejando Huellitas\"", "Red": "Red Sureste", "Direccion": "Vivanco y Solari", "Referente": "", "Contacto": "", "Mail": "", "Ciudad": "Paraná", "Provincia": "Entre Ríos" }, "geometry": { "type": "Point", "coordinates": [ -60.50025, -31.77739, 0.0 ] } },
{ "type": "Feature", "properties": { "Name": "Escuela Nº 15 \"Gregorio Las Heras\"", "Red": "Red Sureste", "Direccion": "Avenida Zanni 1381", "Referente": "Adriana Garcilazo", "Contacto": "343-4363794", "Mail": "lasherasgregorio@hotmail.com", "Ciudad": "Paraná", "Provincia": "Entre Ríos" }, "geometry": { "type": "Point", "coordinates": [ -60.49825, -31.76299, 0.0 ] } },
{ "type": "Feature", "properties": { "Name": "Escuela Nº 22 \"Jorge Newbery\"", "Red": "Red Sureste", "Direccion": "Jorge Newbery 1404", "Referente": "", "Contacto": "343-4260224", "Mail": "", "Ciudad": "Paraná", "Provincia": "Entre Ríos" }, "geometry": { "type": "Point", "coordinates": [ -60.4864, -31.77794, 0.0 ] } },
{ "type": "Feature", "properties": { "Name": "Escuela Miguel Garcilazo y Liga de Los Pueblos Libres", "Red": "Red Sureste", "Direccion": "Vivanco S/N°", "Referente": "Lorena Buffa/ Georgina Nasser", "Contacto": "343-4301132", "Mail": "escuelagarcilaso@gmail.com", "Ciudad": "Paraná", "Provincia": "Entre Ríos" }, "geometry": { "type": "Point", "coordinates": [ -60.49801, -31.77717, 0.0 ] } },
{ "type": "Feature", "properties": { "Name": "Servicios de Proteccion de Derechos \"La Posta\" (COPNAF)", "Red": "Red Sureste", "Direccion": "Pablo Crausaz 105", "Referente": "Gisela Solís", "Contacto": "", "Mail": "", "Ciudad": "Paraná", "Provincia": "Entre Ríos" }, "geometry": { "type": "Point", "coordinates": [ -60.52489, -31.76627, 0.0 ] } },
{ "type": "Feature", "properties": { "Name": "Programa \"Libertad Asistida\" (COPNAF)- Centro de Salud Papa Fco", "Red": "Red Sureste", "Direccion": "Atiende en los domicilios de los 3 CAPS de la Red Sureste", "Referente": "Laura Espindola", "Contacto": "343-4397200", "Mail": "lib.asist.parana@gmail.com", "Ciudad": "Paraná", "Provincia": "Entre Ríos" }, "geometry": { "type": "Point", "coordinates": [ -60.48003, -31.76693, 0.0 ] } },
{ "type": "Feature", "properties": { "Name": "Programa \"Primeros Años\" (El Consejo Nacional de Coordinación de Políticas Sociales) CDR", "Red": "Red Sureste", "Direccion": "Ramírez 2537", "Referente": "Cintia Naser", "Contacto": "", "Mail": "", "Ciudad": "Paraná", "Provincia": "Entre Ríos" }, "geometry": { "type": "Point", "coordinates": [ -60.49917, -31.76426, 0.0 ] } },
{ "type": "Feature", "properties": { "Name": "Programa Mejor Es Convivir (COPNAF)", "Red": "Red Sureste", "Direccion": "Newbery 1834", "Referente": "Ira Maida Ardaya", "Contacto": "343-5136107", "Mail": "", "Ciudad": "", "Provincia": "" }, "geometry": { "type": "Point", "coordinates": [ -60.49832, -31.77598, 0.0 ] } },
{ "type": "Feature", "properties": { "Name": "Escuela Secundaria \"Cesareo Bernaldo de Quiros\"", "Red": "Red Suroeste", "Direccion": "Racedo 170", "Referente": "Belén Ramos", "Contacto": "343-4220236", "Mail": "colegiocbquiros@yahoo.com.ar", "Ciudad": "Paraná", "Provincia": "Entre Ríos" }, "geometry": { "type": "Point", "coordinates": [ -60.53228, -31.74093, 0.0 ] } },
{ "type": "Feature", "properties": { "Name": "Complejo comunitario \"Barrio Mitre\"", "Red": "Red Suroeste", "Direccion": "Calle 1112 y Ejercito", "Referente": "Sandra Guevara", "Contacto": "343-6228965", "Mail": "complejocomunitariomitre@gmail.com", "Ciudad": "Paraná", "Provincia": "Entre Ríos" }, "geometry": { "type": "Point", "coordinates": [ -60.53447, -31.74247, 0.0 ] } },
{ "type": "Feature", "properties": { "Name": "Escuela Nº 88 Bartolome Mitre", "Red": "Red Suroeste", "Direccion": "Pronunciamiento 1087", "Referente": "Mónica Bujan", "Contacto": "343-4375508", "Mail": "escuela_088@hotmail.com", "Ciudad": "Paraná", "Provincia": "Entre Ríos" }, "geometry": { "type": "Point", "coordinates": [ -60.5323, -31.74476, 0.0 ] } },
{ "type": "Feature", "properties": { "Name": "Jardin Maternal \"Princesitas\"", "Red": "Red Suroeste", "Direccion": "Pronunciamiento 905", "Referente": "", "Contacto": "343-4354532", "Mail": "", "Ciudad": "Paraná", "Provincia": "Entre Ríos" }, "geometry": { "type": "Point", "coordinates": [ -60.53085, -31.7463, 0.0 ] } },
{ "type": "Feature", "properties": { "Name": "Club de Madres y Abuelas", "Red": "Red Suroeste", "Direccion": "Espejo y Benjamin Victorica", "Referente": "Gimena Santacruz", "Contacto": "343-5163071", "Mail": "nietitofuerte@yahoo.com.ar", "Ciudad": "Paraná", "Provincia": "Entre Ríos" }, "geometry": { "type": "Point", "coordinates": [ -60.53115, -31.74733, 0.0 ] } },
{ "type": "Feature", "properties": { "Name": "Centro de Salud Manuel Belgrano", "Red": "Red Suroeste", "Direccion": "Pronunciamiento 751", "Referente": "Zoe Mohr", "Contacto": "343-4352913", "Mail": "", "Ciudad": "Paraná", "Provincia": "Entre Ríos" }, "geometry": { "type": "Point", "coordinates": [ -60.5286676, -31.7486735, 0.0 ] } },
{ "type": "Feature", "properties": { "Name": "Comedro Luis Pacha Rodriguez", "Red": "Red Suroeste", "Direccion": "Pronunciamiento 631", "Referente": "Liliana Godoy", "Contacto": "343-5080883", "Mail": "", "Ciudad": "Paraná", "Provincia": "Entre Ríos" }, "geometry": { "type": "Point", "coordinates": [ -60.52854, -31.74894, 0.0 ] } },
{ "type": "Feature", "properties": { "Name": "Escuela Secundaria Nº 12 Provincia de Neuquén", "Red": "Red Suroeste", "Direccion": "Miguel Galarza 1708", "Referente": "Rosana Ruttili", "Contacto": "343-4315991", "Mail": "esc12neuquen@hotmail.com", "Ciudad": "Paraná", "Provincia": "Entre Ríos" }, "geometry": { "type": "Point", "coordinates": [ -60.5258, -31.74742, 0.0 ] } },
{ "type": "Feature", "properties": { "Name": "Escuela Nº 190 Gelabert y Crespo", "Red": "Red Suroeste", "Direccion": "Avenida de las Américas 1905", "Referente": "", "Contacto": "343-4318444", "Mail": "", "Ciudad": "Paraná", "Provincia": "Entre Ríos" }, "geometry": { "type": "Point", "coordinates": [ -60.5255, -31.75068, 0.0 ] } },
{ "type": "Feature", "properties": { "Name": "Centro De Salud Antonini", "Red": "Red Suroeste", "Direccion": "Cabo 2° Monzón 2235 y Soldado Mosto", "Referente": "Delfina Rissetto", "Contacto": "343-4350736", "Mail": "centrodesaludantonini@hotmail.com", "Ciudad": "Paraná", "Provincia": "Entre Ríos" }, "geometry": { "type": "Point", "coordinates": [ -60.53092, -31.75063, 0.0 ] } },
{ "type": "Feature", "properties": { "Name": "Exploradores de Don Bosco “Batallón 49”", "Red": "Red Suroeste", "Direccion": "Pronunciamiento 971", "Referente": "Alejandro Bogao", "Contacto": "343-5257920", "Mail": "exploradores49parana@hotmail.com", "Ciudad": "Paraná", "Provincia": "Entre Ríos" }, "geometry": { "type": "Point", "coordinates": [ -60.53167, -31.74523, 0.0 ] } },
{ "type": "Feature", "properties": { "Name": "Servicio de Protección de Derechos –COPNAF-", "Red": "Red Suroeste", "Direccion": "funciona en el Centro de Salud Manuel Belgrano", "Referente": "Marianela Rivero", "Contacto": "343-4612575", "Mail": "", "Ciudad": "Paraná", "Provincia": "Entre Ríos" }, "geometry": { "type": "Point", "coordinates": [ -60.52876, -31.7487168, 0.0 ] } },
{ "type": "Feature", "properties": { "Name": "Movimiento Popular “La Dignidad”", "Red": "Red Suroeste", "Direccion": "", "Referente": "Guillermo Reynals", "Contacto": "343-4663845", "Mail": "pajarosderio@gmail.com", "Ciudad": "Paraná", "Provincia": "Entre Ríos" }, "geometry": { "type": "Point", "coordinates": [ -60.5287037, -31.74879, 0.0 ] } },
{ "type": "Feature", "properties": { "Name": "Asociación Civil -Comedor “Mujeres Unidas”-", "Red": "Red Suroeste", "Direccion": "Tomás Guido y Yancovich -B° La Delfina", "Referente": "Paloma del Prado", "Contacto": "343-4257487", "Mail": "", "Ciudad": "Paraná", "Provincia": "Entre Ríos" }, "geometry": { "type": "Point", "coordinates": [ -60.53131, -31.74923, 0.0 ] } },
{ "type": "Feature", "properties": { "Name": "Vecinal Barrio Cuarteles", "Red": "Red Suroeste", "Direccion": "Gutiérrez 1151", "Referente": "Cabaña Adrían", "Contacto": "343-5123738", "Mail": "", "Ciudad": "Paraná", "Provincia": "Entre Ríos" }, "geometry": { "type": "Point", "coordinates": [ -60.53546, -31.74504, 0.0 ] } },
{ "type": "Feature", "properties": { "Name": "La Conventillo –Cuerda de Candombe-", "Red": "Red Suroeste", "Direccion": "Racedo 250", "Referente": "Vito Borini", "Contacto": "343-6215978", "Mail": "", "Ciudad": "Paraná", "Provincia": "Entre Ríos" }, "geometry": { "type": "Point", "coordinates": [ -60.53062, -31.74371, 0.0 ] } },
{ "type": "Feature", "properties": { "Name": "Fundación Explorar", "Red": "Red Suroeste", "Direccion": "Francisco Sayos 1982", "Referente": "Dante Gaspari", "Contacto": "343-4372779", "Mail": "", "Ciudad": "Paraná", "Provincia": "Entre Ríos" }, "geometry": { "type": "Point", "coordinates": [ -60.53336, -31.74923, 0.0 ] } },
{ "type": "Feature", "properties": { "Name": "Vecinal Presidente Perón", "Red": "Red Suroeste", "Direccion": "", "Referente": "Olga Sala", "Contacto": "343-4621402", "Mail": "", "Ciudad": "Paraná", "Provincia": "Entre Ríos" }, "geometry": { "type": "Point", "coordinates": [ -60.52249, -31.74964, 0.0 ] } },
{ "type": "Feature", "properties": { "Name": "Plan ENIA", "Red": "Red Suroeste", "Direccion": "Ramírez 2537", "Referente": "Betiana Cepeda", "Contacto": "343-4532208", "Mail": "", "Ciudad": "Paraná", "Provincia": "Entre Ríos" }, "geometry": { "type": "Point", "coordinates": [ -60.5286, -31.74874, 0.0 ] } },
{ "type": "Feature", "properties": { "Name": "Vecinal Manuel Belgrano", "Red": "Red Suroeste", "Direccion": "", "Referente": "Omar Noriega", "Contacto": "343-4732930", "Mail": "", "Ciudad": "Paraná", "Provincia": "Entre Ríos" }, "geometry": { "type": "Point", "coordinates": [ -60.5299, -31.74843, 0.0 ] } },
{ "type": "Feature", "properties": { "Name": "Centro de Acceso a la Justicia", "Red": "Mesa Oeste", "Direccion": "Republica de Siria N° 486", "Referente": "Ana Durjchin", "Contacto": "343-4621370", "Mail": "accesoalajusticiapna@gmail.com", "Ciudad": "Paraná", "Provincia": "Entre Ríos" }, "geometry": { "type": "Point", "coordinates": [ -60.55333, -31.72932, 0.0 ] } },
{ "type": "Feature", "properties": { "Name": "Secretaría Nacional de Niñez Adolescencia y Familia (SENNAF)", "Red": "Mesa Oeste", "Direccion": "Francisco Ramírez 2537", "Referente": "Cinthia Nasser/ Betiana Fornara", "Contacto": "343-4718685", "Mail": "comunidad@sennaf.gob.ar", "Ciudad": "Paraná", "Provincia": "Entre Ríos" }, "geometry": { "type": "Point", "coordinates": [ -60.55306, -31.73148, 0.0 ] } },
{ "type": "Feature", "properties": { "Name": "Servicio de Protección de Derechos \"El Patio\"", "Red": "Mesa Oeste", "Direccion": "Urquiza 1422", "Referente": "Mariana Zabala", "Contacto": "343-4767010", "Mail": "spdelpatio@gmail.com", "Ciudad": "Paraná", "Provincia": "Entre Ríos" }, "geometry": { "type": "Point", "coordinates": [ -60.5532, -31.73144, 0.0 ] } },
{ "type": "Feature", "properties": { "Name": "Centro de Salud \"Antártida Argentina\"", "Red": "Mesa Oeste", "Direccion": "Burmeister y el Resero", "Referente": "Elisa Krause", "Contacto": "343-4372988", "Mail": "antartida_argentina@hotmail.com", "Ciudad": "Paraná", "Provincia": "Entre Ríos" }, "geometry": { "type": "Point", "coordinates": [ -60.5529, -31.73112, 0.0 ] } },
{ "type": "Feature", "properties": { "Name": "Centro de Salud \"San Martin\"", "Red": "Mesa Oeste", "Direccion": "Florentino Ameghino al final S/N° -B° San Martín", "Referente": "Cristina Marroquí Delgado", "Contacto": "343-4374519", "Mail": "centrodesaludsanmartin@hotmail.com", "Ciudad": "Paraná", "Provincia": "Entre Ríos" }, "geometry": { "type": "Point", "coordinates": [ -60.55866, -31.72619, 0.0 ] } },
{ "type": "Feature", "properties": { "Name": "Escuela Secundaria \"Nuestra Señora de Guadalupe\"", "Red": "Mesa Oeste", "Direccion": "República del Líbano 2699", "Referente": "María del Carmen Sueldo", "Contacto": "343-4374420", "Mail": "nsguadalupe125@hotmail.com", "Ciudad": "Paraná", "Provincia": "Entre Ríos" }, "geometry": { "type": "Point", "coordinates": [ -60.55361, -31.73042, 0.0 ] } },
{ "type": "Feature", "properties": { "Name": "Biblioteca Popular \"Nora Cortiñas\"", "Red": "Mesa Oeste", "Direccion": "Vicecomodoro Marambio e Islas Orcadas del Sur", "Referente": "Florencia Navarro", "Contacto": "343-4240989", "Mail": "dante.mp@hotmail.com", "Ciudad": "Paraná", "Provincia": "Entre Ríos" }, "geometry": { "type": "Point", "coordinates": [ -60.55662, -31.73137, 0.0 ] } },
{ "type": "Feature", "properties": { "Name": "Vecinal CO.VE.FLO", "Red": "Mesa Oeste", "Direccion": "", "Referente": "Juan Carlos Crola", "Contacto": "343-4600411", "Mail": "", "Ciudad": "Paraná", "Provincia": "Entre Ríos" }, "geometry": { "type": "Point", "coordinates": [ -60.55059, -31.72836, 0.0 ] } },
{ "type": "Feature", "properties": { "Name": "Casa de Atencion y Acompañamiento Comunitario \"Jose Daniel Rodriguez\"", "Red": "Mesa Oeste", "Direccion": "Ameghino e Islas Orcadas del Sur", "Referente": "Javier Villordo", "Contacto": "", "Mail": "", "Ciudad": "Paraná", "Provincia": "Entre Ríos" }, "geometry": { "type": "Point", "coordinates": [ -60.55404, -31.728, 0.0 ] } },
{ "type": "Feature", "properties": { "Name": "Vecinal 33 Orientales", "Red": "Mesa Oeste", "Direccion": "", "Referente": "Maria Ines Morales", "Contacto": "", "Mail": "", "Ciudad": "Paraná", "Provincia": "Entre Ríos" }, "geometry": { "type": "Point", "coordinates": [ -60.53714, -31.73432, 0.0 ] } },
{ "type": "Feature", "properties": { "Name": "CIC La Floresta", "Red": "Mesa Oeste", "Direccion": "Burmeister y el Resero", "Referente": "Miguel Quiroga", "Contacto": "", "Mail": "", "Ciudad": "Paraná", "Provincia": "Entre Ríos" }, "geometry": { "type": "Point", "coordinates": [ -60.55288, -31.73157, 0.0 ] } },
{ "type": "Feature", "properties": { "Name": "Vecinal San Martin", "Red": "Mesa Oeste", "Direccion": "", "Referente": "Roberto Gomez", "Contacto": "343-6113277", "Mail": "", "Ciudad": "Paraná", "Provincia": "Entre Ríos" }, "geometry": { "type": "Point", "coordinates": [ -60.55778, -31.72717, 0.0 ] } },
{ "type": "Feature", "properties": { "Name": "Vecinal Balbi", "Red": "Mesa Oeste", "Direccion": "", "Referente": "Natalia Machuca", "Contacto": "343-4051468", "Mail": "", "Ciudad": "Paraná", "Provincia": "Entre Ríos" }, "geometry": { "type": "Point", "coordinates": [ -60.54411, -31.72553, 0.0 ] } },
{ "type": "Feature", "properties": { "Name": "Club Sportivo Urquiza", "Red": "Mesa Oeste", "Direccion": "", "Referente": "Pablo Ayala", "Contacto": "343-4483724", "Mail": "", "Ciudad": "Paraná", "Provincia": "Entre Ríos" }, "geometry": { "type": "Point", "coordinates": [ -60.55092, -31.72921, 0.0 ] } },
{ "type": "Feature", "properties": { "Name": "CIC Humito", "Red": "Mesa Oeste", "Direccion": "Estado de Palestina", "Referente": "Mariela Ramos", "Contacto": "343-4566700", "Mail": "", "Ciudad": "Paraná", "Provincia": "Entre Ríos" }, "geometry": { "type": "Point", "coordinates": [ -60.55548, -31.72446, 0.0 ] } },
{ "type": "Feature", "properties": { "Name": "Mejor es Convivir COPNAF", "Red": "Mesa Sureste", "Direccion": "Newbery 1834", "Referente": "Ira Maida Ardaya", "Contacto": "343-5136107", "Mail": "", "Ciudad": "Paraná", "Provincia": "Entre Ríos" }, "geometry": { "type": "Point", "coordinates": [ -60.49787, -31.77656, 0.0 ] } },
{ "type": "Feature", "properties": { "Name": "Escuela N° 96 Jose M Estrada", "Red": "Red Noreste", "Direccion": "Avda. Ramírez y Laurencena", "Referente": "Marcia Caceres", "Contacto": "", "Mail": "", "Ciudad": "Paraná", "Provincia": "Entre Rios" }, "geometry": { "type": "Point", "coordinates": [ -60.5141962, -31.7232545, 0.0 ] } },
{ "type": "Feature", "properties": { "Name": "Vecinal El Morro", "Red": "Red Noreste", "Direccion": "", "Referente": "Cesar Acevedo", "Contacto": "", "Mail": "", "Ciudad": "Paraná", "Provincia": "Entre Rios" }, "geometry": { "type": "Point", "coordinates": [ -60.5145824, -31.7193166, 0.0 ] } },
{ "type": "Feature", "properties": { "Name": "Vecinal Maccarone", "Red": "Red Noreste", "Direccion": "", "Referente": "Jesús Gómez", "Contacto": "Facebook: Vecinal Maccarone", "Mail": "", "Ciudad": "Paraná", "Provincia": "Entre Ríos" }, "geometry": { "type": "Point", "coordinates": [ -60.5186808, -31.7231496, 0.0 ] } },
{ "type": "Feature", "properties": { "Name": "Pescadores de Juegos", "Red": "Red Puerto Viejo", "Direccion": "Avda. Laurencena (Costanera)", "Referente": "Fernando", "Contacto": "343-4463718", "Mail": "", "Ciudad": "Paraná", "Provincia": "Entre Ríos" }, "geometry": { "type": "Point", "coordinates": [ -60.5379624, -31.7145921, 0.0 ] } },
{ "type": "Feature", "properties": { "Name": "Museo Puerto de la Memoria", "Red": "Red Puerto Viejo", "Direccion": "Avda. Estrada 1248", "Referente": "Dir. Gisela Bahler", "Contacto": "343- 4202229", "Mail": "museopuertodelamemoria@gmail.com", "Ciudad": "Paraná", "Provincia": "Entre Ríos " }, "geometry": { "type": "Point", "coordinates": [ -60.5398497, -31.7165702, 0.0 ] } },
{ "type": "Feature", "properties": { "Name": "Espacio Comunitario \"Ringo Bonavena\"", "Red": "Red Puerto Viejo", "Direccion": "Anacleto Medina casi Avda. Estrada (Club Puerto Viejo)", "Referente": "Verónica Cardozo ", "Contacto": "343-5317422", "Mail": "", "Ciudad": "Paraná", "Provincia": "Entre Ríos " }, "geometry": { "type": "Point", "coordinates": [ -60.5407108, -31.7160614, 0.0 ] } }
]
}
